COSMOS 1707             
1 16326U 85113A   26243.61725801  .00402618  73271-4  57546-3 0  9998
2 16326  82.4690  82.9835 0001107 241.6342 118.4827 16.05503851229441
PAN SAT (PO-34)         
1 25520U 98064B   26243.85898065  .01449030 -76556-5  31840-3 0  9992
2 25520  28.4241  82.1858 0004567 329.7694  30.2662 16.29211103552727
CZ-2C R/B               
1 28222U 04012C   26243.96467925  .00455708  10098-3  61564-3 0  9993
2 28222  97.7085 329.6877 0006134 282.1604  77.8990 16.06416520231932
PEGASUS R/B             
1 41892U 16078J   26243.77548960  .00185066  13622-4  49202-3 0  9993
2 41892  34.9245  13.6816 0003392   6.3571 353.7207 15.93525371541702
STARLINK-1067           
1 44771U 19074BL  26243.87806283  .00364928  69713-4  60364-3 0  9997
2 44771  53.0340  49.7094 0004503 285.8643  74.1891 16.02537526376149
STARLINK-1068           
1 44772U 19074BM  26244.00001157  .00191470  25174-4  51670-3 0  9994
2 44772  53.0343  24.9498 0002757 305.5618  13.0365 15.93968552  6039
STARLINK-1234           
1 45190U 20012N   26243.94568791  .00480819  12154-3  62680-3 0  9991
2 45190  53.0248 167.9624 0003998 121.1337 239.0087 16.06430302363551
STARLINK-1279           
1 45360U 20019A   26243.64610714  .01392428  11865-4  62844-3 0  9997
2 45360  53.0193 302.4438 0005690   0.0060   0.0978 16.21377089358308
STARLINK-1319           
1 45379U 20019V   26243.72071646  .00320536  55269-4  56646-3 0  9990
2 45379  53.0287 332.9240 0009060 348.7955  11.2872 16.01367421357900
STARLINK-1407           
1 45703U 20035AY  26244.00001157  .00103410  15183-4  30500-3 0  9993
2 45703  53.0192 162.5826 0002913  65.0814 266.1281 15.92568363  6033
STARLINK-1595           
1 46159U 20057AU  26244.19216042  .01402650  15921-2  89757-3 0  9999
2 46159  53.0218 144.3547 0005918 218.5103 141.5512 16.17231223335230
STARLINK-1598           
1 46160U 20057AV  26243.89683613  .00440976  95950-4  79388-3 0  9992
2 46160  53.0321 134.0954 0005033 167.7836 192.3317 16.01067973335342
STARLINK-1640           
1 46173U 20057BJ  26244.12541992  .04111130  11990-4  11133-2 0  9992
2 46173  53.0190 145.2452 0007925 234.5149 125.5153 16.27346713333950
STARLINK-1656           
1 46353U 20062AE  26244.00001157  .00401644  77850-4  86690-3 0  9995
2 46353  53.0313 211.9384 0008407  66.5070   0.4178 15.97846485  5922
STARLINK-1724           
1 46375U 20062BC  26244.00001157  .00266241  39275-4  63169-3 0  9996
2 46375  53.0108 138.2908 0005237 168.6054 241.1323 15.96245701  6037
STARLINK-1770           
1 46383U 20062BL  26243.97763965  .00471669  11728-3  61224-3 0  9996
2 46383  53.0268 156.9108 0004570 159.2535 200.8683 16.06494637332861
JILIN-1 GAOFEN 3G       
1 46459U 20065F   26243.95056678  .00281845  32332-4  78969-3 0  9991
2 46459  97.2074 304.3023 0006325 150.9160 209.2469 15.93570963331908
STARLINK-1676           
1 46556U 20070AA  26244.25320828  .05684632  12227-4  95643-3 0  9995
2 46556  53.0159 352.1564 0012018 317.7409  42.2707 16.32200843327597
STARLINK-1714           
1 46562U 20070AG  26243.55869168  .01028440  65277-3  96530-3 0  9992
2 46562  53.0226 327.8943 0013788 345.4685  14.5950 16.11364002327876
STARLINK-1781           
1 46685U 20073R   26243.90652817  .01125361  84283-3  92239-3 0  9991
2 46685  53.0260  90.4048 0009032 254.5758 105.4280 16.13521889324713
STARLINK-1805           
1 46705U 20073AM  26244.00001157  .00434820  92203-4  83383-3 0  9995
2 46705  53.0310  95.1688 0004249 229.4460  53.6245 15.99981975  5990
STARLINK-1893           
1 46786U 20074AZ  26244.00001157  .00388709  73531-4  83867-3 0  9999
2 46786  53.0323 118.3961 0004844 170.2081  61.3931 15.97903915  5970
STARLINK-1942           
1 46794U 20074BH  26244.00001157  .00393448  74229-4  89706-3 0  9997
2 46794  53.0292 150.4140 0005457 131.8990 205.7638 15.96901160  6049
STARLINK-1845           
1 47135U 20088P   26244.00001157  .00409067  80996-4  85616-3 0  9991
2 47135  53.0328 127.2780 0005355 176.5361  49.5783 15.98435727  5885
STARLINK-1888           
1 47171U 20088BB  26244.00001157  .00275302  39659-4  80957-3 0  9997
2 47171  53.0373 135.3460 0005060 139.3036 213.6027 15.92219544  5919
STARLINK-2001           
1 47596U 21009BA  26244.00001157  .00330114  55123-4  75167-3 0  9996
2 47596  53.0287 234.7998 0009176  45.7774 252.2627 15.96897405  5989
STARLINK-2159           
1 47745U 21017Z   26243.93546362  .01276423  12067-2  89097-3 0  9992
2 47745  53.1391  64.3231 0012211 282.7406  77.2267 16.15793360305309
STARLINK-2169           
1 47752U 21017AG  26243.96112878  .00765504  32931-3  80098-3 0  9991
2 47752  53.1390  63.6478 0010944 282.7191  77.2621 16.09753726305368
STARLINK-2180           
1 47762U 21017AS  26243.92260851  .00618081  19666-3  84829-3 0  9996
2 47762  53.1422  72.2318 0008306 272.5825  87.4257 16.05539774305217
STARLINK-2209           
1 47776U 21017BG  26243.75148204  .08160743  12316-4  79989-3 0  9991
2 47776  53.1322  64.1905 0009238 284.8011  75.2011 16.37345809305314
STARLINK-2401           
1 47818U 21018AH  26243.68619630  .01036806  63951-3  11206-2 0  9999
2 47818  53.0318 114.0731 0006846 232.1016 127.9398 16.09406612303972
STARLINK-2291           
1 47862U 21021C   26243.93134260  .00538173  14312-3  88073-3 0  9998
2 47862  53.1458 124.7288 0005381 212.6986 147.3714 16.02678573303769
STARLINK-2336           
1 47879U 21021V   26244.00001157  .00414535  84312-4  80573-3 0  9993
2 47879  53.1439 146.0953 0003517 167.1556 178.1930 15.99759773  6048
OBJECT X                
1 47953U 21022X   26243.28533181  .00696466  24565-3  96256-3 0  9996
2 47953  97.3735 166.3593 0009826 140.1892 220.0112 16.06014728302409
STARLINK-2299           
1 48029U 21024BE  26243.90274012  .01083516  75993-3  93354-3 0  9991
2 48029  53.1000 195.3126 0004791 101.8198 258.3375 16.12855445302032
CZ-2C R/B               
1 48427U 21039E   26243.65862742  .00357808  54149-4  63265-3 0  9990
2 48427  34.9716   8.2045 0008748 123.4503 236.7073 16.00783313297593
STARLINK-2681           
1 48465U 21040AP  26244.00001157  .00453167  95770-4  10293-2 0  9991
2 48465  53.1296  54.6999 0005426 277.0868 227.2629 15.96956568  5928
PACE-1                  
1 48909U 21059AG  26243.56634051  .00292980  38568-4  54812-3 0  9991
2 48909  97.6701  91.2124 0000598 243.8660 116.2557 16.00979852289768
SPARTAN                 
1 48964U 21059CP  26243.56326501  .00270854  32738-4  53691-3 0  9993
2 48964  97.6617  93.5957 0000391 132.5796 227.5515 15.99966683289898
STARLINK-3083           
1 49158U 21082AE  26244.00001157  .00213817  21839-4  51128-3 0  9991
2 49158  69.9527  34.5333 0006102 241.1407  34.8567 15.96402241  6043
STARLINK-3069           
1 49176U 21082AY  26244.00001157  .00667949  18834-3  18268-2 0  9997
2 49176  69.9975 158.2574 0004115 262.4286  44.7722 15.93887659  5920
COSMOS 1408 DEB         
1 50058U 82092SW  26243.79945408  .00107837  30414-5  30643-3 0  9994
2 50058  82.6060 149.9237 0008752 155.3518 204.8177 15.93164324269326
OBJECT B                
1 51825U 22019B   26243.96317831  .00529327  13724-3  72321-3 0  9996
2 51825  97.3273 341.9045 0006551 236.0834 123.9825 16.06236304251787
JILIN-1 GAOFEN 3D27     
1 52444U 22048B   26243.75530917  .03247445  25975-5  76131-3 0  9992
2 52444  97.5785   6.3399 0012213 272.8529  87.1366 16.29584349241487
JILIN-1 GAOFEN 3D29     
1 52446U 22048D   26243.72713770  .04859033  26098-5  79267-3 0  9994
2 52446  97.5646   6.6845 0012064 274.3745  85.6172 16.33348414241502
STARLINK-3893           
1 52579U 22051AV  26243.94502933  .00540160  14186-3  94703-3 0  9995
2 52579  53.2156  32.6790 0001862  86.5100 273.6145 16.01537054238313
STARLINK-4045           
1 53152U 22083W   26243.91668981  .00460546  96045-4  11822-2 0  9995
2 53152  53.2143  54.1989 0001223  63.5846 143.3321 15.94735286  5981
COSMOS 2558             
1 53323U 22089A   26243.79740803  .00563831  15355-3  83094-3 0  9997
2 53323  97.2163 352.1689 0007835 259.9698 100.0699 16.04979652229817
DONGPO 07               
1 53444U 22098A   26243.93916501  .00244789  24596-4  73736-3 0  9995
2 53444  97.5651  22.1022 0001985 262.9626  97.1422 15.92217635226714
DONGPO 02               
1 53452U 22098J   26243.98501211  .00479250  10682-3  77768-3 0  9999
2 53452  97.5608  23.1010 0005472 271.3482  88.7171 16.03393465226808
DONGPO 01               
1 53453U 22098K   26243.91919053  .00268142  29745-4  73801-3 0  9991
2 53453  97.5659  23.1257 0003405 258.0831 102.0062 15.93939329226725
STARLINK-4412           
1 53477U 22099N   26243.92798749  .00982172  25369-5  53067-3 0  9993
2 53477  97.5892  15.4116 0005294 308.3453  51.7359 16.19799228223845
STARLINK-4442           
1 53480U 22099R   26243.91668981  .00171696  13708-4  42937-3 0  9998
2 53480  97.6058  14.2751 0001063  54.5284 325.1207 15.95776990  5996
STARLINK-4451           
1 53492U 22099AD  26243.95764059  .00476020  10034-3  93712-3 0  9992
2 53492  97.5990  11.7915 0002415  81.2427 278.9124 16.00079823222920
STARLINK-4455           
1 53500U 22099AM  26244.09548209  .02302055  25857-5  58091-3 0  9995
2 53500  97.5840  17.9308 0007603 294.9864  65.0639 16.28934893223328
STARLINK-4446           
1 53505U 22099AS  26243.91668981  .00242060  25585-4  55843-3 0  9996
2 53505  97.6091  23.4738 0004551 255.2775 284.8210 15.97224350  5971
STARLINK-4390           
1 53653U 22105F   26243.91668981  .00530418  11426-3  15134-2 0  9991
2 53653  97.5924 132.6259 0001493 146.3722 183.6871 15.93257507  5957
STARLINK-4456           
1 53673U 22105AB  26243.94828337  .00497461  12866-3  53398-3 0  9993
2 53673  97.5862 132.7959 0002212 168.7805 191.3527 16.10093033220234
STARLINK-5055           
1 54015U 22125BD  26243.91668981  .00797366  28357-3  20545-2 0  9996
2 54015  53.2122 118.3001 0001013  95.1845  15.0691 15.94656693  5723
OBJECT D                
1 56746U 23072D   26243.90780572  .00307891  37923-4  92223-3 0  9994
2 56746  97.4707 106.5592 0002111 134.4114 225.7333 15.92317978182812
NUSAT-40 (C SHOEMAKER)  
1 56943U 23084M   26243.90603255  .00474405  10530-3  74817-3 0  9997
2 56943  97.4904  37.6826 0006676 272.8287  87.2229 16.03858236180815
SHIYAN-25 (SY-25)       
1 57047U 23087A   26243.92068174  .00010642  20844-5  20951-4 0  9994
2 57047  96.8765 308.2396 0010298 220.9092 139.1416 16.00958401186915
QIANKUN-1               
1 57422U 23103B   26243.89538280  .00003119  16216-5  53553-5 0  9990
2 57422  96.1307 283.2292 0029004  74.9523 285.4967 16.04079192179457
FLOCK 4Q-26             
1 58284U 23174AE  26243.71108028  .04964553  24207-5  23774-2 0  9999
2 58284  97.3657 340.7386 0009170 268.3779  91.6460 16.21280107157700
ICEYE-X34               
1 58294U 23174AQ  26243.81037537  .00553507  12763-3  14357-2 0  9995
2 58294  97.3783 339.8755 0008249 256.3909 103.6448 15.95006981157658
COSMOS 2572             
1 58435U 23182A   26243.93735519  .00142235  94507-5  38553-3 0  9994
2 58435  96.6774 346.8261 0002480 183.8333 176.2926 15.94265771160499
WEIHAI-1 02             
1 58925U 24024J   26243.94716410  .00843680  42253-3  77929-3 0  9995
2 58925  97.2882 340.8170 0007396 257.5834 102.4624 16.12381437181734
ELECTRON KICK STAGE R/B 
1 58993U 24034B   26243.74799226  .00887296  38982-3  15844-2 0  9997
2 58993  98.1539 318.9539 0009044 249.6254 110.4051 16.01766056141442
FLOCK 4BE-30            
1 60499U 24149AH  26243.91012783  .03084423  24100-5  17332-2 0  9990
2 60499  97.3618 333.8210 0015501 277.4496  82.5031 16.18985423113679
EAGLEEYE                
1 60508U 24149AS  26243.77937821  .00314243  40384-4  84472-3 0  9998
2 60508  97.3652 342.3564 0005310 259.1448 100.9230 15.94366586114871
STARLINK-32559          
1 61915U 24207D   26243.69960007  .00087380  11788-4  14802-3 0  9994
2 61915  42.9982 350.8968 0002759 306.1802  53.8821 16.02232183101748
FLOCK 4G-16             
1 62638U 25009AF  26243.75717425  .00903229  40661-3  15895-2 0  9991
2 62638  97.3743 338.9250 0011052 271.0105  88.9908 16.01986726 91418
COSMOS 2591             
1 65267U 25182A   26243.83105062  .00057025  30864-5  13884-3 0  9998
2 65267  96.5779 173.3989 0004911 160.2378 199.9092 15.96365575 59761
COSMOS 2592             
1 65268U 25182B   26243.47059081  .00077946  41639-5  18836-3 0  9996
2 65268  96.5787 172.9734 0004598 137.2073 222.9564 15.96457227 59702
COSMOS 2593             
1 65269U 25182C   26243.67432329  .00072084  38314-5  17463-3 0  9998
2 65269  96.5841 173.1674 0003948 153.3746 206.7736 15.96428258 59730
COSMOS 2594             
1 65270U 25182D   26243.37658580  .00039159  24356-5  95849-4 0  9998
2 65270  96.5830 172.8759 0004565 142.8194 217.3402 15.96356584 59703
