OSCAR 7 (AO-7)          
1 07530U 74089B   26261.01948756 -.00000051  00000+0 -30552-4 0  9996
2 07530 101.9920 275.2365 0012010 315.3887  69.8316 12.53699612372153
PHASE 3B (AO-10)        
1 14129U 83058B   26261.10067576 -.00000033  00000+0  00000+0 0  9995
2 14129  25.9779 204.3748 5980951 141.1354 282.5303  2.05869491297401
UOSAT 2 (UO-11)         
1 14781U 84021B   26261.71292398  .00001144  00000+0  12142-3 0  9996
2 14781  97.8179 226.3114 0006307 227.5280 132.5405 14.90998918271069
LUSAT (LO-19)           
1 20442U 90005G   26261.81071845  .00000043  00000+0  32122-4 0  9997
2 20442  98.8820 286.1822 0010526 293.6769  66.3310 14.34144491915812
EYESAT A (AO-27)        
1 22825U 93061C   26261.41744661  .00000042  00000+0  33088-4 0  9999
2 22825  98.6790 328.7555 0008388 179.3101 180.8094 14.30961837720331
ITAMSAT (IO-26)         
1 22826U 93061D   26261.15930413  .00000054  00000+0  37000-4 0  9994
2 22826  98.6738 328.4249 0009223 163.7804 196.3675 14.31390751720617
RADIO ROSTO (RS15)      
1 23439U 94085A   26261.32818167 -.00000042  00000+0  66595-5 0  9992
2 23439  64.8157 152.5807 0159222 347.1512  12.5377 11.27583939306402
JAS-2 (FO-29)           
1 24278U 96046B   26261.83650012  .00000001  00000+0  38309-4 0  9997
2 24278  98.5166  97.8688 0349301 213.2659 144.6084 13.53278245485839
TECHSAT 1B (GO-32)      
1 25397U 98043D   26261.76801779  .00000033  00000+0  34285-4 0  9993
2 25397  99.0157 256.9242 0000833   3.2240 356.8943 14.24443292464652
ISS (ZARYA)             
1 25544U 98067A   26261.78789299  .00005868  00000+0  11393-3 0  9992
2 25544  51.6308 196.8438 0004827 155.1807 204.9414 15.49168087586262
PCSAT (NO-44)           
1 26931U 01043C   26260.70350426  .00000067  00000+0  55764-4 0  9995
2 26931  67.0532   4.9758 0005782 272.6110  87.4330 14.31984406303696
SAUDISAT 1C (SO-50)     
1 27607U 02058C   26261.27386858  .00000725  00000+0  10309-3 0  9990
2 27607  64.5522 200.9373 0071787 245.3687 113.9930 14.83217336278266
CUTE-1 (CO-55)          
1 27844U 03031E   26260.97358774  .00000193  00000+0  10245-3 0  9995
2 27844  98.6772 268.3817 0008385 277.3530  82.6696 14.24382619204881
CUBESAT XI-IV (CO-57)   
1 27848U 03031J   26259.46264191  .00000171  00000+0  94225-4 0  9997
2 27848  98.6804 266.5283 0008465 303.8471  56.1901 14.23660657204364
MOZHAETS 4 (RS22)       
1 27939U 03042A   26261.86191883  .00000851  00000+0  13885-3 0  9991
2 27939  98.3484  88.8959 0010905 338.2316 134.1975 14.73605517229345
CUBESAT XI-V            
1 28895U 05043F   26260.87075509  .00001005  00000+0  16522-3 0  9995
2 28895  98.3106  58.5192 0012751 271.6867  88.2879 14.72831952115397
CUTE-1.7+APD II (CO-65) 
1 32785U 08021C   26261.89355597  .00003692  00000+0  22995-3 0  9993
2 32785  97.8387 245.3664 0010414  73.3686 286.8685 15.10193873999336
SEEDS II (CO-66)        
1 32791U 08021J   26260.94553383  .00017153  00000+0  49657-3 0  9999
2 32791  97.7572 263.5082 0002625  35.5472 324.5945 15.35662211  1508
YUBILEINY (RS30)        
1 32953U 08025A   26261.85544542  .00000029  00000+0  13382-3 0  9991
2 32953  82.5014 297.1837 0020710 106.7515 253.5839 12.43183073831331
KKS-1 (KISEKI)          
1 33499U 09002H   26261.82575213  .00000919  00000+0  11906-3 0  9997
2 33499  98.1164 185.7476 0007777 357.6245   2.4930 14.83321297950076
SWISSCUBE               
1 35932U 09051B   26261.21139705  .00000685  00000+0  14443-3 0  9999
2 35932  98.3943 170.6837 0005561 289.2316  70.8283 14.62628431902758
BEESAT-1                
1 35933U 09051C   26261.54382031  .00000551  00000+0  12014-3 0  9992
2 35933  98.3868 170.4588 0004247 307.9988  52.0829 14.61843920902826
ITUPSAT1                
1 35935U 09051E   26260.72616199  .00000520  00000+0  11699-3 0  9992
2 35935  98.3948 168.7205 0006685 320.4611  39.6101 14.60554142902248
XIWANG-1 (HOPE-1)       
1 36122U 09072B   26261.79869365 -.00000310  00000+0 -69489-3 0  9996
2 36122 100.4130 214.1683 0007912  24.5711 335.5778 13.16440273805326
O/OREOS (USA 219)       
1 37224U 10062C   26261.60859184  .00001582  00000+0  15374-3 0  9993
2 37224  71.9686 228.6645 0016487 250.1883 109.7510 14.94047704130594
JUGNU                   
1 37839U 11058B   26261.26751751  .00000379  00000+0  58581-4 0  9995
2 37839  19.9601 102.9136 0018551  24.6335 132.4196 14.13798821772212
SRMSAT                  
1 37841U 11058D   26261.24169792  .00000372  00000+0  57861-4 0  9997
2 37841  19.9709 216.2198 0011910 147.2900 242.6494 14.11593070770987
STRAND-1                
1 39090U 13009E   26260.92988018  .00000190  00000+0  78081-4 0  9992
2 39090  98.3971  78.9167 0007828 320.1929  39.8683 14.37207883710388
ZACUBE-1 (TSHEPISOSAT)  
1 39417U 13066B   26261.37406194  .00003759  00000+0  28831-3 0  9999
2 39417  97.8152 224.1973 0039254 301.2658  58.4723 15.01834849694713
GOMX-1                  
1 39430U 13066Q   26261.80670079  .00001514  00000+0  23119-3 0  9998
2 39430  97.6438  96.3695 0128788 136.0586 225.0949 14.69706720683661
CUBEBUG-2 (LO-74)       
1 39440U 13066AA  26261.29036395  .00003107  00000+0  28527-3 0  9997
2 39440  97.8992 210.7356 0058753  78.7589 282.0227 14.94286420690897
FUNCUBE-1 (AO-73)       
1 39444U 13066AE  26261.88615229  .00005257  00000+0  31798-3 0  9997
2 39444  97.8389 235.4218 0033773 243.5137 116.2626 15.10630915693804
UWE-3                   
1 39446U 13066AG  26261.30750318  .00003859  00000+0  32770-3 0  9992
2 39446  97.8813 218.0886 0048877  11.5225 348.7103 14.97581183691512
UNISAT-6                
1 40012U 14033C   26261.24100227  .00002538  00000+0  27298-3 0  9991
2 40012  97.8007  52.4120 0045841 120.8205 239.7535 14.88640475660007
QB50P1                  
1 40025U 14033R   26261.30187594  .00005069  00000+0  24244-3 0  9994
2 40025  98.0970 279.0717 0006840 265.2155  94.8297 15.19487738667161
LILACSAT-2              
1 40908U 15049K   26261.83356109  .00014974  00000+0  22967-3 0  9995
2 40908  97.4559 302.3870 0004623 266.1814  93.8911 15.54399090610281
FOX-1A (AO-85)          
1 40967U 15058D   26261.23670269  .00001242  00000+0  11861-3 0  9995
2 40967  64.7758 349.7013 0138597  21.8022 338.8909 14.91398449127440
CAS-2T & KS-1Q          
1 41847U 16066G   26261.24886846  .00000937  00000+0  14054-3 0  9991
2 41847  98.3750 335.9120 0340704 206.9610 151.3523 14.44847458518231
RADFXSAT (FOX-1B)       
1 43017U 17073E   26260.58092719  .00007335  00000+0  31151-3 0  9991
2 43017  97.4548 125.9086 0147487   9.8964 350.5116 15.13945674479367
DIWATA-2B               
1 43678U 18084H   26261.72279796  .00001323  00000+0  10943-3 0  9993
2 43678  98.1172 102.0491 0011824 214.6537 145.3916 15.00736682430249
ES'HAIL 2               
1 43700U 18090A   26261.50041962  .00000140  00000+0  00000+0 0  9999
2 43700   0.0148 210.3344 0001227 303.6248  49.4080  1.00270379 28615
FOX-1CLIFF (AO-95)      
1 43770U 18099N   26261.42026927  .00008075  00000+0  29375-3 0  9995
2 43770  97.4287 321.3912 0008679  28.7201 331.4515 15.28476369427456
ITASAT                  
1 43786U 18099AE  26261.39700705  .00004670  00000+0  21918-3 0  9993
2 43786  97.3931 311.0652 0012942  33.8772 326.3287 15.20055674427063
JY1SAT (JO-97)          
1 43803U 18099AX  26260.40065680  .00014800  00000+0  41911-3 0  9991
2 43803  97.4026 323.6889 0003873 306.8859  53.2029 15.36373952427779
UWE-4                   
1 43880U 18111E   26260.79047191  .00032620  00000+0  54348-3 0  9998
2 43880  97.5815 193.8360 0006557  15.6860 344.4594 15.51924947425112
TIANYAN 01              
1 44881U 19093C   26261.80727839  .00000157  00000+0  23679-4 0  9991
2 44881  97.7446 331.7215 0014384 134.0778 226.1624 14.86634891365328
RS-44 & BREEZE-KM R/B   
1 44909U 19096E   26261.35128875  .00000014  00000+0  17596-4 0  9993
2 44909  82.5169 277.7990 0216374 286.6476  71.0971 12.79749331314269
SALSAT                  
1 46495U 20068K   26261.25274455  .00005900  00000+0  19992-3 0  9991
2 46495  97.8891 270.0866 0008765 346.6565  13.4441 15.30960009329590
XW-3 (CAS-9)            
1 50466U 21131B   26261.83750487  .00000303  00000+0  10705-3 0  9999
2 50466  98.4968 353.7172 0004306 161.5399 198.5947 14.41427590248602
GREENCUBE (IO-117)      
1 53109U 22080E   26260.32101583 -.00000003  00000+0  00000+0 0  9991
2 53109  70.1206 266.1977 0009218 269.7080  90.2523  6.42583826 97984
UMKA 1 (RS40S)          
1 57172U 23091G   26261.82447207  .00003949  00000+0  17720-3 0  9992
2 57172  97.4951 320.1709 0013356 146.8667 213.3408 15.21709273178247
CUBESX-HSE 3 (RS42S)    
1 57178U 23091N   26261.82066729  .00009787  00000+0  30626-3 0  9990
2 57178  97.4995 328.6845 0011458 117.0667 243.1745 15.33272001178765
MONITOR-3 (RS58S)       
1 57180U 23091Q   26261.80346698  .00007563  00000+0  26695-3 0  9998
2 57180  97.4986 325.9976 0012410 125.4944 234.7456 15.29453429178599
MONITOR-4 (RS57S)       
1 57182U 23091S   26261.84251488  .00007340  00000+0  25844-3 0  9994
2 57182  97.4979 326.0134 0012405 125.6762 234.5634 15.29546753178606
MONITOR-2 (RS39S)       
1 57184U 23091U   26261.83706919  .00003417  00000+0  16336-3 0  9996
2 57184  97.4972 319.5107 0011994 140.5221 219.6890 15.19627086178174
SVYATOBOR 1 (RS60S)     
1 57187U 23091X   26261.81307551  .00006224  00000+0  23048-3 0  9993
2 57187  97.4992 326.1913 0010464 118.8749 241.3541 15.27975569178606
VIZARD-METEO (RS38S)    
1 57189U 23091Z   26261.80811595  .00012506  00000+0  32850-3 0  9993
2 57189  97.4999 333.3105 0008037  96.9599 263.2560 15.38727843179078
POLYTECH-UNIVERSE 3 (R*)
1 57191U 23091AB  26261.85111088  .00003489  00000+0  16545-3 0  9994
2 57191  97.4948 319.0297 0015820 157.5835 202.6094 15.19845860178171
UTMN 2 (RS27S)          
1 57203U 23091AP  26261.85371789  .00009434  00000+0  28819-3 0  9997
2 57203  97.4993 330.4646 0008838 105.3990 254.8229 15.34077537178897
KUZGTU 1 (RS47S)        
1 57217U 23091AV  26261.83511205  .00008432  00000+0  27728-3 0  9994
2 57217  97.4967 327.3479 0011700 121.2575 238.9814 15.31724393178709
SONATE-2                
1 59112U 24043Q   26261.71509870  .00046247  00000+0  44809-3 0  9995
2 59112  97.5626  58.4374 0005380 212.1857 147.9075 15.66244112142493
MESAT1                  
1 60209U 24125G   26261.34719494  .00097220  00000+0  62002-3 0  9991
2 60209  97.2104 121.6845 0006235 206.3922 153.7027 15.76086667124171
GRBBETA                 
1 60237U 24128C   26261.44983535  .00002561  00000+0  18229-3 0  9991
2 60237  61.9884 248.9087 0026972 155.1998 205.0398 15.07190865120325
OOV-CUBE (TUBSAT-30)    
1 60240U 24128F   26261.59870037  .00001230  00000+0  10538-3 0  9990
2 60240  61.9927 259.7657 0031400 155.5182 204.7408 15.03105833120157
COLIBRI-S (RS67S)       
1 61746U 24199M   26261.82553572  .00018143  00000+0  30851-3 0  9999
2 61746  97.2796 136.7003 0005867 310.9968  49.0777 15.51468832151912
HORS 3 (RS81S)          
1 61753U 24199U   26261.84444002  .00037723  00000+0  43491-3 0  9995
2 61753  97.2794 139.9233 0002595 307.9237  52.1786 15.61860499152145
HORS 4 (RS82S)          
1 61754U 24199V   26261.81872933  .00063072  00000+0  52348-3 0  9998
2 61754  97.2720 141.9051 0001142 267.3334  92.7798 15.70007806152283
SIT-2086                
1 61764U 24199AF  26261.80763288  .00035068  00000+0  43498-3 0  9990
2 61764  97.2748 140.0356 0003032 274.2878  85.8032 15.59957520148993
ALTAIR (RS65S)          
1 61779U 24199AW  26261.87727071  .00005890  00000+0  15649-3 0  9990
2 61779  97.2872 130.6414 0011361 337.0788  22.9949 15.38586221151513
ASRTU-1 (AO-123)        
1 61781U 24199AY  26261.82784480  .00005980  00000+0  16766-3 0  9996
2 61781  97.2840 129.6597 0012650 339.9715  20.1032 15.36892407148304
SAMSAT-IONOSPHERE (RS7*)
1 61784U 24199BB  26261.84669529  .00055936  00000+0  52479-3 0  9994
2 61784  97.2749 140.4573 0003694 296.1207  63.9674 15.67016329152181
RTU MIREA 1 (RS51S)     
1 61785U 24199BC  26261.64343545  .00093312  00000+0  65199-3 0  9993
2 61785  97.2720 141.7585 0002171 278.6565  81.4454 15.74005571149103
LASARSAT                
1 62391U 24247Q   26259.92618275  .00038564  00000+0  62382-3 0  9993
2 62391  44.9712 104.4860 0009459 214.7674 145.2600 15.52187404 97541
CROCUBE                 
1 62394U 24247T   26258.94955211  .00044933  00000+0  65387-3 0  9996
2 62394  44.9692 105.5148 0010096 218.5695 141.4478 15.55031035 97447
TEVEL2-4                
1 63213U 25052D   26260.68141367  .00014810  00000+0  40274-3 0  9994
2 63213  97.3752 157.3605 0004321 113.3720 246.7980 15.37632783 84311
TEVEL2-5                
1 63214U 25052E   26261.49486755  .00014145  00000+0  38733-3 0  9996
2 63214  97.3755 158.0960 0004257 114.1326 246.0364 15.37428968 84436
TEVEL2-6                
1 63215U 25052F   26261.50926385  .00014679  00000+0  40221-3 0  9994
2 63215  97.3757 158.0953 0004217 114.8567 245.3116 15.37399635 84436
TEVEL2-1                
1 63217U 25052H   26260.66248791  .00014019  00000+0  39268-3 0  9997
2 63217  97.3731 156.7510 0004076 125.1283 235.0344 15.36725625 84280
TEVEL2-3                
1 63218U 25052J   26261.49956907  .00013725  00000+0  38328-3 0  9994
2 63218  97.3734 157.6270 0003857 122.5905 237.5712 15.36826707 84419
TEVEL2-2                
1 63219U 25052K   26261.44345333  .00014357  00000+0  40159-3 0  9992
2 63219  97.3729 157.5387 0004161 124.0768 236.0871 15.36762640 84409
OTP-2                   
1 63235U 25052AB  26260.64174366  .00006231  00000+0  25184-3 0  9990
2 63235  97.3718 151.6957 0005753 179.3835 180.7412 15.25080635 83959
TEVEL2-9                
1 63237U 25052AD  26260.70078303  .00012033  00000+0  36197-3 0  9996
2 63237  97.3791 155.9520 0006509 152.5422 207.6166 15.34508258 84200
TEVEL2-7                
1 63238U 25052AE  26261.47902802  .00012018  00000+0  36552-3 0  9990
2 63238  97.3793 156.6023 0006539 151.6338 208.5262 15.34160056 84317
TEVEL2-8                
1 63239U 25052AF  26261.16192927  .00011984  00000+0  36466-3 0  9991
2 63239  97.3792 156.2599 0006556 151.7923 208.3676 15.34143407 84263
INNOSAT 16 (RS92S7)     
1 64878U 25155C   26261.84215671  .00004227  00000+0  16542-3 0  9997
2 64878  97.4686 228.7911 0009262 206.0484 154.0289 15.26344094 94952
GEOSCAN 6 (RS92S6)      
1 64879U 25155D   26261.71143949  .00008061  00000+0  26510-3 0  9998
2 64879  97.4672 230.7942 0006860 189.1103 171.0015 15.31777415 95078
GEOSCAN 1 (RS92S1)      
1 64880U 25155E   26261.73823810  .00008999  00000+0  28892-3 0  9999
2 64880  97.4668 231.0603 0006784 187.8405 172.2732 15.32518218 95094
239ALFEROV (RS61S)      
1 64881U 25155F   26261.75201468  .00011268  00000+0  33076-3 0  9994
2 64881  97.4662 231.9894 0006416 183.5932 176.5266 15.35303314 95158
GEOSCAN 2 (RS92S2)      
1 64890U 25155Q   26261.84696875  .00008442  00000+0  26912-3 0  9995
2 64890  97.4667 231.3579 0006717 172.5350 187.5993 15.32764918 95127
GEOSCAN 5 (RS92S5)      
1 64891U 25155R   26261.85307308  .00011457  00000+0  33319-3 0  9996
2 64891  97.4657 232.2632 0005251 184.7240 175.3955 15.35597201 95183
GEOSCAN 4 (RS92S4)      
1 64892U 25155S   26261.82646160  .00011003  00000+0  31812-3 0  9999
2 64892  97.4662 232.3163 0005114 183.4070 176.7139 15.35793653 95183
GEOSCAN 3 (RS92S3)      
1 64893U 25155T   26261.88311362  .00014658  00000+0  38884-3 0  9994
2 64893  97.4646 233.1149 0005140 179.5668 180.5582 15.38402619 95241
INNOSAT 3 (RS92S0)      
1 64894U 25155U   26261.76545036  .00037978  00000+0  65597-3 0  9990
2 64894  97.4584 236.0299 0004933 156.2336 203.9144 15.50888556 95431
KNACKSAT-2              
1 67683U 98067XZ  26260.21686350  .00065370  00000+0  55178-3 0  9996
2 67683  51.6243 188.5691 0008192 172.8333 187.2783 15.69117842 34689
MARINA                  
1 69920U 26156BD  26261.17256653  .00001411  00000+0  14405-3 0  9991
2 69920  97.7442 160.4273 0005873 275.5769  84.4781 14.92173832 10865
