UNKNOWN                 
1 81011U          26231.00412757  .00002012  00000+0  11046-2 0  9999
2 81011  99.3634 255.1109 0133505 179.1163 181.0265 14.08531152 18591
UNKNOWN                 
1 81015U          26228.03645192  .00001179  00000+0  65954-3 0  9994
2 81015  99.3640 252.0220 0133284 187.2742 229.8342 14.08430826 17333
UNKNOWN                 
1 81021U          26230.96227429  .00001231  00000+0  45027-3 0  9993
2 81021  74.0371 220.3334 0027503 246.2477 113.5789 14.33791034 21666
UNKNOWN                 
1 81036U          26230.22550898  .00004612  00000+0  10621-1 0  9993
2 81036  66.0937 154.6003 2575555 104.1371 285.6637  9.33376866 44906
UNKNOWN                 
1 81052U          26228.42296312  .00001547  00000+0  43442-3 0  9991
2 81052  65.7682 124.6929 0550377 188.6414 170.4877 13.85408629634467
UNKNOWN                 
1 81069U          26225.53877103  .00001780  00000+0  23404-2 0  9995
2 81069 100.3796 146.7697 0062105 160.2851 200.0708 13.62085856549109
UNKNOWN                 
1 81102U          26230.91961441  .00067901  00000+0  14501-2 0  9995
2 81102  52.0261 105.4491 3267526 121.7936 274.2751  8.91624791   605
UNKNOWN                 
1 81103U          26224.07858613  .00007480  00000+0  19236-3 0  9999
2 81103  52.0351 117.0407 3262493 113.2956 284.1651  8.91143370    11
UNKNOWN                 
1 81104U          26224.41505491  .00008062  00000+0  21223-3 0  9997
2 81104  52.0097 116.4959 3261197 113.8533 283.5266  8.91157749    11
UNKNOWN                 
1 81111U          26231.16844325  .00027533  00000+0  47072-2 0  9990
2 81111  62.8679 142.7594 3832227   7.4160 356.9757  7.63306810290882
UNKNOWN                 
1 81123U          26229.22828247  .00000723  00000+0  71694-3 0  9992
2 81123  99.9694 329.6805 0004333 147.6333 212.5085 13.82139748640465
UNKNOWN                 
1 81219U          26231.13769748  .00000441  00000+0  39577-3 0  9992
2 81219  82.9278 178.7690 0019109 230.5124 129.4347 13.82024305641968
UNKNOWN                 
1 81228U          26223.98375072  .00002264  00000+0  66997-3 0  9990
2 81228  70.5199  91.7591 0057245 357.1981   2.8823 14.43627441661027
UNKNOWN                 
1 81254U          26230.21880305  .00004244  00000+0  26811-2 0  9993
2 81254 100.3815 331.6447 0074932 134.5870 226.1439 14.03371753647728
UNKNOWN                 
1 81279U          26231.09883443  .00000692  00000+0  27582-3 0  9993
2 81279  98.0997 275.1646 0206180  14.0824 346.5986 14.20502426497993
UNKNOWN                 
1 81301U          26231.25784301  .00000077  00000+0  14901-3 0  9998
2 81301  66.7573  59.8522 0082916  60.5861 114.4220 13.76847774640707
UNKNOWN                 
1 81311U          26230.69157896  .00000431  00000+0  96688-4 0  9996
2 81311  98.7031 304.2931 0131808  83.3843  65.8786 14.56872738675836
UNKNOWN                 
1 81317U          26230.33789431  .00000254  00000+0  52532-3 0  9991
2 81317  67.1391 349.1587 0217178 222.8495 167.0293 13.38114483621894
UNKNOWN                 
1 81323U          26221.88118941  .00007125  00000+0  89111-3 0  9997
2 81323  65.7475  72.7420 0317007 187.0635 172.5951 14.53296869147895
UNKNOWN                 
1 81329U          26225.44682964  .00000658  00000+0  24859-3 0  9992
2 81329  65.8198 292.0310 0841326 280.0395  70.6828 13.23112011610317
UNKNOWN                 
1 81343U          26230.55139038  .00005166  00000+0  34448-3 0  9999
2 81343  85.8658  65.9574 0005922  92.5369 267.6544 15.06835608491751
UNKNOWN                 
1 81359U          26229.85838101  .00000533  00000+0  56518-3 0  9999
2 81359  66.7973 177.9231 0111735 159.8853 200.6676 13.79205731639691
UNKNOWN                 
1 81366U          26227.23002539  .00000628  00000+0  23726-3 0  9995
2 81366  65.8795 210.6932 0722856 322.8972  32.4110 13.45689917 98980
UNKNOWN                 
1 81371U          26228.29704730  .00001379  00000+0  22148-3 0  9991
2 81371  98.8270 350.0077 0066766 315.9229  43.6665 14.72084195678091
UNKNOWN                 
1 81386U          26227.59888460  .00003234  00000+0  10242-2 0  9995
2 81386  71.0471 181.9381 0084824  53.7957 307.0983 14.38784227659579
UNKNOWN                 
1 81390U          26231.59075463  .00000182  00000+0  17418-2 0  9997
2 81390 103.0983 141.8743 0177202  65.5476 296.3952 12.35627770530955
UNKNOWN                 
1 81392U          26231.00602413  .00002038  00000+0  18943-2 0  9992
2 81392 100.4048 249.8852 0042704 114.7231 274.8984 13.83144949636627
UNKNOWN                 
1 81405U          26224.90926923  .00000653  00000+0  51864-3 0  9994
2 81405  99.4501 281.8393 0157318 292.9766  65.4861 13.89528582595569
UNKNOWN                 
1 81406U          26209.14073134  .00000958  00000+0  40519-3 0  9994
2 81406  65.8135   2.6040 0864347 219.4981 133.9906 13.12821867563528
UNKNOWN                 
1 81427U          26222.62163085  .00000286  00000+0  18862-3 0  9990
2 81427  98.7230 101.7553 0085554  79.1084 281.9698 14.07306245585644
UNKNOWN                 
1 81438U          26230.14360314  .00001977  00000+0  28810-2 0  9993
2 81438 100.3430 118.2125 0041335 184.9486 175.1246 13.55943397625595
UNKNOWN                 
1 81439U          26229.72685032 -.00000306  00000+0 -71043-3 0  9997
2 81439  67.1616  22.3115 0595389  50.0244 315.1513 12.62740821293200
UNKNOWN                 
1 81478U          26230.75617206  .00003805  00000+0  13316-2 0  9996
2 81478  98.9469 154.4291 0144206 355.6815  32.2796 14.30095179658514
UNKNOWN                 
1 81488U          26225.15127437  .00000313  00000+0  50407-3 0  9991
2 81488  99.9702 106.0971 0044793 113.6641  39.0780 13.56687325629639
UNKNOWN                 
1 81497U          26227.54266936  .00001988  00000+0  17731-2 0  9995
2 81497 100.2930 150.9626 0028574  98.5867  77.0401 13.85816241250324
UNKNOWN                 
1 81499U          26230.93789180  .00001368  00000+0  37288-3 0  9997
2 81499  74.0477 115.1164 0002188 189.5687 170.5431 14.48336932518484
UNKNOWN                 
1 81535U          26231.41545506  .00000947  00000+0  39895-3 0  9992
2 81535  98.1806 298.0026 0235061 145.3621 216.3121 14.13937816422672
UNKNOWN                 
1 81536U          26230.11108613  .00000393  00000+0  26616-2 0  9994
2 81536 101.9678  99.2735 0014924 148.4307   6.1930 12.56155037582996
UNKNOWN                 
1 81537U          26230.97675537  .00000341  00000+0  22468-3 0  9998
2 81537  71.0409 313.5380 0075585 137.6396 223.0593 14.07240454655523
UNKNOWN                 
1 81552U          26231.15163939  .00000709  00000+0  15898-2 0  9990
2 81552  99.0595 128.5899 0256899 139.2017 222.8652 13.18578152612113
UNKNOWN                 
1 81599U          26231.29931895  .00000030  00000+0  16352-3 0  9994
2 81599  67.2942 100.9815 0251873 264.8657 204.2784 13.31688031618301
UNKNOWN                 
1 81605U          26222.09093208  .00000282  00000+0  16066-2 0  9997
2 81605  56.4357 252.6687 0120124 117.1947 244.1281 12.81692799217015
UNKNOWN                 
1 81614U          26230.95772380  .00003725  00000+0  20278-1 0  9990
2 81614 101.8369 224.9399 0438658  42.5027 320.9141 12.39707780568836
UNKNOWN                 
1 81615U          26231.34689149  .00002850  00000+0  10065-2 0  9997
2 81615  65.8245 199.9967 0770419  19.6989 343.2146 13.35043996616170
UNKNOWN                 
1 81617U          26229.90345015  .00000238  00000+0  16590-2 0  9996
2 81617 101.2831  38.7700 0035574 107.2434 253.2541 12.57715501584307
UNKNOWN                 
1 81624U          26226.33656623  .00002919  00000+0  44957-3 0  9995
2 81624  66.9732 209.3339 0058523  23.6555 336.7238 14.73834175675726
UNKNOWN                 
1 81640U          26226.60581559 -.00000028  00000+0  29037-4 0  9991
2 81640  65.8269 351.2147 0987083 338.0486  18.0841 12.57372728540866
UNKNOWN                 
1 81652U          26226.35270396  .00000410  00000+0  54240-3 0  9997
2 81652 102.1415 170.5813 0361713 172.1297 339.7962 13.44657810611526
UNKNOWN                 
1 81667U          26231.15959467  .00001203  00000+0  32281-3 0  9992
2 81667  74.0382 289.2865 0013336 165.8571 194.2965 14.49182646492762
UNKNOWN                 
1 81674U          26230.91281502  .00000346  00000+0  23916-3 0  9993
2 81674  66.8217  96.5349 0021409  32.4925 340.9770 14.10444056648855
UNKNOWN                 
1 81683U          26230.88937858  .00002349  00000+0  49649-3 0  9997
2 81683  81.2130  32.2508 0023594 252.6535 107.2082 14.58915837672178
UNKNOWN                 
1 81693U          26219.38169713 -.00000217  00000+0 -12655-2 0  9997
2 81693 101.1179 260.0517 0374242 356.2368   3.5900 12.26230662996893
UNKNOWN                 
1 81745U          26231.20685887  .00001764  00000+0  55911-3 0  9994
2 81745  70.9984 200.9163 0005618 206.1525 153.9329 14.41438806665688
UNKNOWN                 
1 81749U          26228.23463144  .00000059  00000+0  31828-3 0  9994
2 81749  99.6702 227.7017 0370622  30.7491  30.5532 12.77680175593485
UNKNOWN                 
1 81775U          26226.86757383  .00003356  00000+0  97971-3 0  9995
2 81775  82.9181  20.5479 0017420 196.2510 163.8128 14.43785204660610
UNKNOWN                 
1 81792U          26224.86496229  .00000609  00000+0  24975-3 0  9993
2 81792  65.7907 269.0090 0886673 175.0460 186.0125 13.11561401111919
UNKNOWN                 
1 81812U          26230.12985884  .00004953  00000+0  34535-1 0  9999
2 81812 103.7285 178.5714 0233270 166.9753 193.7464 12.39022014571310
UNKNOWN                 
1 81816U          26229.85846778  .00000405  00000+0  35080-3 0  9995
2 81816  66.2380  37.2033 0167701 102.6460 259.3422 13.90094768643827
UNKNOWN                 
1 81819U          26230.74644861  .00000299  00000+0  23289-2 0  9995
2 81819 102.1800 336.4977 0032568  11.1516 349.0267 12.47994897579078
UNKNOWN                 
1 81824U          26226.44777319  .00002077  00000+0  71352-3 0  9999
2 81824  65.8418  27.7526 0044894 217.9664 141.8263 14.37633080659741
UNKNOWN                 
1 81838U          26224.78419385  .00002127  00000+0  45953-3 0  9999
2 81838  67.7609 349.2950 0036934 139.7901   9.5650 14.59747883668777
UNKNOWN                 
1 81844U          26231.01193277  .00004200  00000+0  14197-2 0  9998
2 81844  82.9071  77.8334 0059346 105.9061 254.8680 14.35702690658622
UNKNOWN                 
1 81845U          26230.99537968  .00001977  00000+0  21591-3 0  9999
2 81845  97.6800  54.3255 0085136 203.0360 308.9675 14.86398922686537
UNKNOWN                 
1 81864U          26229.63629794  .00000332  00000+0  15333-3 0  9999
2 81864  65.6689 206.8986 0772615 266.7556  84.4898 13.33058281583879
UNKNOWN                 
1 81865U          26231.20659902  .00000961  00000+0  77402-3 0  9993
2 81865  82.8050 195.9693 0063189  16.1633  43.8156 13.88622871643165
UNKNOWN                 
1 81893U          26230.29264687  .00000632  00000+0  68728-3 0  9990
2 81893 100.0622 232.6738 0021278 354.9228   5.1701 13.77197775638281
UNKNOWN                 
1 81899U          26228.38221389  .00000702  00000+0  17165-2 0  9991
2 81899 102.4114  19.7818 0175299  53.0747 308.6277 13.21013120611547
UNKNOWN                 
1 81921U          26229.23993078  .00001320  00000+0  53989-3 0  9995
2 81921  65.7052 210.9500 0850187   7.6625 353.6485 13.15851936 58346
UNKNOWN                 
1 81946U          26230.22395885  .00000251  00000+0  97697-3 0  9991
2 81946  66.4179  34.5123 0679847 232.0127 309.6984 12.42708807578759
UNKNOWN                 
1 81947U          26229.17946483  .00005301  00000+0  47994-3 0  9996
2 81947  66.0722 196.3503 0374552 347.5345  11.6680 14.55236606666994
UNKNOWN                 
1 81964U          26230.36728141  .00000122  00000+0  14592-3 0  9991
2 81964  66.5864   1.2339 0043347 279.5027  80.1155 13.95938320648748
UNKNOWN                 
1 81969U          26228.23703295  .00006630  00000+0  34250-3 0  9995
2 81969  86.6804  45.8622 0004082  18.3701 341.7687 15.16114362477462
UNKNOWN                 
1 81995U          26226.66502865  .00001394  00000+0  28793-3 0  9996
2 81995  65.7430 201.7310 0500816 175.9898 184.5442 14.06441036638644
UNKNOWN                 
1 82043U          26230.32396403  .00000915  00000+0  25715-3 0  9997
2 82043  97.9611   3.8656 0228879  55.5505 306.7079 14.33790371609455
UNKNOWN                 
1 82051U          26229.02099365  .00002884  00000+0  91860-3 0  9999
2 82051  98.7429 323.5999 0088007 246.3637 112.8292 14.38428375607936
UNKNOWN                 
1 82073U          26229.60807178  .00000930  00000+0  24302-3 0  9993
2 82073  97.7273 287.0018 0202839 249.8097 108.1176 14.40075765610781
UNKNOWN                 
1 82139U          26230.92255525  .00001428  00000+0  71504-3 0  9995
2 82139  99.0087 306.7683 0082113  57.1071 303.7969 14.16588789515383
UNKNOWN                 
1 82162U          26230.78827844  .00002484  00000+0  36136-2 0  9998
2 82162 100.4530 174.7434 0061937 350.3752   9.6192 13.55336093538028
UNKNOWN                 
1 82180U          26231.57224155  .00009812  00000+0  12598-2 0  9990
2 82180  65.6524 297.3284 0272435  85.1654 278.0496 14.58845096638100
UNKNOWN                 
1 82189U          26217.99901662  .00000155  00000+0  63104-4 0  9996
2 82189  74.0368 335.0565 0015455 109.5523 250.7300 14.35360045666310
UNKNOWN                 
1 82199U          26229.26284106  .00000318  00000+0  26138-3 0  9993
2 82199  82.9637  47.7505 0038064  54.2433 120.7471 13.86024353643972
UNKNOWN                 
1 82205U          26229.07415751  .00001358  00000+0  38023-3 0  9993
2 82205  63.0044 262.2529 0505423 318.1534  38.1884 13.94519013642480
UNKNOWN                 
1 82223U          26231.18636072  .00001586  00000+0  85639-3 0  9997
2 82223  99.3031 131.8737 0070505   9.6022 350.6478 14.12940267484005
UNKNOWN                 
1 82250U          26226.24033781  .00001240  00000+0  64456-3 0  9997
2 82250  98.9007 136.1369 0066564 217.4849 294.7466 14.15436343651209
UNKNOWN                 
1 82272U          26230.92460380 -.00000184  00000+0 -41663-3 0  9993
2 82272  67.5251 109.3513 0756151 306.4770  46.8811 12.33702423302676
UNKNOWN                 
1 82303U          26231.21497793  .00027966  00000+0  17749-1 0  9990
2 82303  81.9020 145.0009 0112637   0.5930 150.8565 14.00586464549189
UNKNOWN                 
1 82311U          26230.57450850  .00000357  00000+0  55791-3 0  9996
2 82311  99.4139 277.8960 0109208  40.4315 320.4875 13.54858082584019
UNKNOWN                 
1 82363U          26228.42694368  .00000082  00000+0  22524-3 0  9991
2 82363  66.9387  25.6912 0453951   6.9307 353.7731 13.15790545322714
UNKNOWN                 
1 82369U          26228.97868007  .00000161  00000+0  13860-3 0  9991
2 82369  98.8898 241.5046 0083791  16.2274 344.1544 13.98299623591723
UNKNOWN                 
1 82381U          26229.62584252  .00016077  00000+0  15654-2 0  9990
2 82381  98.3771 113.2869 0009967  61.0631 299.1585 14.92569563547653
UNKNOWN                 
1 82402U          26230.47834790  .00003718  00000+0  24998-3 0  9994
2 82402  86.6527  47.7613 0010883 352.6902   7.4173 15.06409532491884
UNKNOWN                 
1 82432U          26230.96681151  .00001250  00000+0  26480-3 0  9999
2 82432  74.0032 224.8585 0056440 326.3570  33.4016 14.59390909519254
UNKNOWN                 
1 82448U          26229.82499429  .00004206  00000+0  28114-3 0  9994
2 82448  85.8686  66.3656 0006652  91.4750 268.7247 15.06688987474364
UNKNOWN                 
1 82453U          26228.85026953  .00000019  00000+0  47469-3 0  9992
2 82453 102.2087 190.4354 0094056 111.4233 249.6894 12.39727166576687
UNKNOWN                 
1 82458U          26229.79747972  .00001184  00000+0  53652-3 0  9997
2 82458  66.5102 256.2606 0059954 212.7425 146.9948 14.24523561645358
UNKNOWN                 
1 82484U          26230.49807583  .00000101  00000+0  20285-3 0  9994
2 82484  99.3422 244.1835 0043460 283.9709  75.6599 13.55901394624349
UNKNOWN                 
1 82494U          26230.46192852  .00015781  00000+0  14426-2 0  9997
2 82494  74.0025 242.4333 0009820 308.9348  51.0960 14.94978407122034
UNKNOWN                 
1 82500U          26224.68244661  .00001066  00000+0  48807-3 0  9990
2 82500  70.9639 208.9001 0116400 104.6646 256.7417 14.20106695653426
UNKNOWN                 
1 82524U          26228.99282149  .00003314  00000+0  10200-2 0  9990
2 82524  73.2790  66.5622 0129757 183.7555 327.9070 14.37218681612539
UNKNOWN                 
1 82529U          26221.47984534  .00000266  00000+0  46660-3 0  9991
2 82529  99.7793 302.2078 0241232  16.1691 357.8559 13.41502625621888
UNKNOWN                 
1 82560U          26230.86143722  .00000741  00000+0  62799-3 0  9994
2 82560 100.0057 197.2466 0012084  16.1644  12.9433 13.91239189646507
UNKNOWN                 
1 82597U          26229.68815446  .00000609  00000+0  22713-3 0  9996
2 82597  66.7672 214.6064 0086214 128.3778 232.5109 14.36563875664586
UNKNOWN                 
1 82617U          26228.17998367  .00000304  00000+0  85673-4 0  9993
2 82617  74.0278 140.9376 0037696  22.0433 338.2338 14.49713865672530
UNKNOWN                 
1 82642U          26229.48731947  .00001076  00000+0  60693-3 0  9996
2 82642  98.9674 143.4926 0132846 263.5976  95.0051 14.08137087650996
UNKNOWN                 
1 82683U          26231.11877888  .00000610  00000+0  24223-3 0  9991
2 82683  98.1455 286.0599 0209564  25.5114 335.6232 14.20716876497673
UNKNOWN                 
1 82693U          26228.22331859  .00001356  00000+0  15734-2 0  9997
2 82693 100.5251 219.6098 0042801 123.9572 236.5650 13.70698864587518
UNKNOWN                 
1 82698U          26231.35192359  .00002187  00000+0  12234-2 0  9995
2 82698  61.6038 201.3539 0699900  21.6327 341.2754 13.30205839571571
UNKNOWN                 
1 82708U          26228.10557688  .00000835  00000+0  33166-2 0  9991
2 82708 102.1504 100.0187 0063000 144.3326 216.1999 12.91021312555306
UNKNOWN                 
1 82729U          26230.97676700  .00000660  00000+0  22959-2 0  9993
2 82729  67.9673  74.7711 0835922 200.0998 156.5176 12.18051889565552
UNKNOWN                 
1 82739U          26229.92553221  .00001072  00000+0  90982-3 0  9999
2 82739  99.1102  23.1109 0167818 348.4642 163.7939 13.83365971640410
UNKNOWN                 
1 82741U          26231.19137820  .00001697  00000+0  18408-2 0  9992
2 82741 102.8463 352.1725 0197070  68.1487 294.0478 13.67185082631152
UNKNOWN                 
1 82798U          26226.61845185  .00000892  00000+0  38033-3 0  9998
2 82798  82.9521 355.3426 0031499 148.3188 225.0006 14.23883205347218
UNKNOWN                 
1 82820U          26231.00329016  .00001669  00000+0  57947-3 0  9991
2 82820  99.7954  70.3550 0048785  24.3688 335.9785 14.36506802661400
UNKNOWN                 
1 82873U          26229.75611728  .00001814  00000+0  77654-3 0  9991
2 82873  99.9906 163.1695 0038953 316.7322  43.0796 14.26049714656560
UNKNOWN                 
1 82875U          26226.21397157  .00000208  00000+0  69112-4 0  9995
2 82875  98.6983 208.9966 0375526 301.7943  54.7166 14.15548348579058
UNKNOWN                 
1 82893U          26231.08968802  .00005663  00000+0  19815-2 0  9990
2 82893  98.9668   0.1104 0022087  41.3867 318.8986 14.35417671459709
UNKNOWN                 
1 82912U          26228.57444277  .00002035  00000+0  88953-3 0  9997
2 82912  65.8373 324.7828 0760361 156.2210 207.6006 13.29099397612114
UNKNOWN                 
1 82961U          26230.88843987  .00006676  00000+0  94053-2 0  9991
2 82961  99.7161  17.1360 0400165 135.3003 228.1117 13.28952045588743
UNKNOWN                 
1 82965U          26230.21612478  .00000610  00000+0  87497-3 0  9998
2 82965 100.1076 322.7731 0002939 167.1707 192.9507 13.60484689558239
UNKNOWN                 
1 83903U          26231.58587075 -.00000383  00000+0  00000+0 0  9995
2 83903   5.5747 288.5123 0124372 258.1757 134.0481  0.99117195 46144
UNKNOWN                 
1 83934U          26230.92364479 -.00000124  00000+0  00000+0 0  9990
2 83934   5.2288 296.0029 0233655 276.8321 123.0617  1.02663076 47849
UNKNOWN                 
1 84006U          26229.89577954 -.00000067  00000+0  00000+0 0  9995
2 84006  22.6993 126.8152 6148471 147.6114 272.3621  2.16230780 89594
UNKNOWN                 
1 84232U          26231.28166575  .00006361  00000+0  36174-2 0  9991
2 84232  20.2797 124.5235 6456418 334.4810   4.3820  3.33484569112812
UNKNOWN                 
1 84236U          26227.86898015  .00000480  00000+0  31116-2 0  9992
2 84236   9.0618 222.3112 6899487 314.9204   6.3686  2.62995554120454
UNKNOWN                 
1 84292U          26231.14105867  .00002519  00000+0  17384-2 0  9992
2 84292  23.7860 174.8702 4539183 120.9734 291.4177  6.22965138243609
UNKNOWN                 
1 84406U          26228.18917522  .00000204  00000+0  12984-2 0  9998
2 84406 101.7375  20.7267 0043924 268.8496 267.4731 12.67624097 80515
UNKNOWN                 
1 84407U          26230.86763758  .00000152  00000+0  30379-2 0  9997
2 84407  18.8784 248.3436 7242761 197.8528 108.7614  2.05847338 81006
UNKNOWN                 
1 84575U          26225.44263665  .00000332  00000+0  16110-1 0  9999
2 84575  18.4923  75.5715 7129119 173.1991 208.1245  2.19888850 70827
UNKNOWN                 
1 84932U          26231.58136407 -.00000376  00000+0 -33218-2 0  9990
2 84932   2.1113  96.2655 6558543 337.9493 287.1050  3.00214521139287
UNKNOWN                 
1 85004U          26231.18739679  .00000689  00000+0  22192-3 0  9992
2 85004  98.4493 204.1208 0047553 131.1800 297.1367 14.41632988666831
UNKNOWN                 
1 85006U          26228.09487655  .00001292  00000+0  65213-3 0  9996
2 85006  98.8417 279.6760 0009411 146.4748 213.7025 14.17997575 11562
UNKNOWN                 
1 85010U          26231.44226020  .00000719  00000+0  78871-3 0  9998
2 85010  99.2307  90.6007 0026069 321.2803 159.3323 13.75555451638240
UNKNOWN                 
1 85015U          26224.48013669  .00000122  00000+0  29949-4 0  9993
2 85015  74.0496 293.5931 0014181 138.9934 221.2302 14.62551362678092
UNKNOWN                 
1 85023U          26230.70105317  .00030306  00000+0  32668-2 0  9993
2 85023  99.8354 307.7683 0003291 199.4075 311.8622 14.88358960665701
UNKNOWN                 
1 85027U          26231.33441740  .00000091  00000+0  16203-3 0  9996
2 85027  66.0397 210.2854 0167816  53.1992 308.4337 13.74341060638919
UNKNOWN                 
1 85047U          26230.53090846  .00009926  00000+0  14974-1 0  9993
2 85047 102.1780 254.0012 0124253 171.7390 188.5819 13.49881484610168
UNKNOWN                 
1 85061U          26230.99004656  .00002312  00000+0  88944-2 0  9994
2 85061 102.3988 243.0858 0287175  62.4677 327.6636 12.78698905587621
UNKNOWN                 
1 85100U          26230.45384101  .00000198  00000+0  69978-4 0  9993
2 85100  74.0459 122.9037 0013460 287.5991 247.4541 14.40891349669162
UNKNOWN                 
1 85106U          26231.56361205  .00000434  00000+0  52120-3 0  9995
2 85106 100.0691 349.8636 0010833  97.0655 325.9213 13.73204715637357
UNKNOWN                 
1 85151U          26229.63062723  .00014078  00000+0  14961-2 0  9992
2 85151  98.3854 111.6640 0010040  62.0657 298.1574 14.89083668516303
UNKNOWN                 
1 85210U          26230.23260826  .00000399  00000+0  41774-3 0  9994
2 85210  99.8801  23.3194 0213436  38.5346  84.7553 13.71910145636226
UNKNOWN                 
1 85217U          26229.67674544  .00001167  00000+0  31064-3 0  9998
2 85217  98.0228 312.9397 0206588  98.3807 264.0859 14.38295158663489
UNKNOWN                 
1 85237U          26206.64354028  .00002209  00000+0  43947-3 0  9995
2 85237  65.5335 343.2522 0520038 286.0787  68.3639 14.03238546639886
UNKNOWN                 
1 85238U          26229.08161832  .00000014  00000+0  47035-4 0  9993
2 85238  99.0708 156.3985 0062308 251.7794 121.3968 13.88382164645168
UNKNOWN                 
1 85246U          26229.18221283  .00000627  00000+0  23619-3 0  9991
2 85246  97.9976 214.7474 0220047 294.0045  63.8241 14.22208348658234
UNKNOWN                 
1 85373U          26230.43737361  .00002072  00000+0  14043-2 0  9997
2 85373 100.4139 306.0564 0049099 303.5001 118.1109 14.01055029646940
UNKNOWN                 
1 87014U          26230.92028611  .00001564  00000+0  23965-2 0  9994
2 87014 100.4661 213.9884 0054452   1.8805  28.0563 13.52988437624609
UNKNOWN                 
1 87029U          26229.82094182  .00000517  00000+0  33831-3 0  9994
2 87029  98.7361 261.0657 0080156 273.7252  85.4753 14.04989583627836
UNKNOWN                 
1 87042U          26229.87691625  .00000384  00000+0  25019-3 0  9990
2 87042  98.6884 268.8577 0044645 114.7148 245.8679 14.07485817588869
UNKNOWN                 
1 87051U          26230.14025356  .00000484  00000+0  19479-3 0  9998
2 87051  65.7286  21.7222 0711475  27.3955 336.2790 13.46863189622020
UNKNOWN                 
1 87054U          26230.23123295  .00000570  00000+0  34099-3 0  9993
2 87054 100.0817 145.2022 0013982  35.5406 324.6690 14.11994741651389
UNKNOWN                 
1 87071U          26227.10477878  .00001504  00000+0  55282-3 0  9998
2 87071  61.2156 261.2563 0479842 359.9973   0.0973 13.87459290636518
UNKNOWN                 
1 87129U          26230.24584029  .00000049  00000+0  68497-3 0  9993
2 87129 102.2629 329.1563 0029393 345.3954  14.6258 12.42912750577546
UNKNOWN                 
1 87159U          26230.02059665  .00000808  00000+0  93017-3 0  9994
2 87159  90.3465  78.3759 0101351 240.1907 118.9146 13.66656591590598
UNKNOWN                 
1 87163U          26229.33438309  .00000773  00000+0  23999-3 0  9990
2 87163  65.6005 344.6909 0654238 314.9800  39.9952 13.65289383611303
UNKNOWN                 
1 87164U          26228.56275201  .00002057  00000+0  40677-3 0  9994
2 87164  65.2044 329.4425 0118911 309.0685  49.9883 14.60508857671795
UNKNOWN                 
1 87204U          26229.55867829  .00001012  00000+0  40203-3 0  9997
2 87204  98.5164  90.3326 0044740 317.0562  42.7131 14.30364498660857
UNKNOWN                 
1 87211U          26219.84387949  .00001370  00000+0  37625-3 0  9997
2 87211  99.0826 242.0754 0052440 168.6165   6.2166 14.48037018742210
UNKNOWN                 
1 87214U          26228.34086128  .00001974  00000+0  17675-2 0  9992
2 87214 100.3232 256.3223 0067637 341.2797  18.5868 13.84754603634369
UNKNOWN                 
1 87237U          26231.11381606  .00000259  00000+0  22824-3 0  9993
2 87237  99.2262 290.6629 0102282 329.9881  59.0522 13.91955842646453
UNKNOWN                 
1 87239U          26230.44620155  .00007551  00000+0  16992-2 0  9995
2 87239  82.8700 230.7803 0016852 339.7996  20.2536 14.56259448664021
UNKNOWN                 
1 87245U          26229.64308532  .00002733  00000+0  54643-3 0  9997
2 87245  65.6379 103.4377 0430741 357.7146  29.6693 14.18230048649332
UNKNOWN                 
1 87271U          26230.53694693  .00004365  00000+0  73170-3 0  9991
2 87271  65.7517 285.3930 0426139 304.0504  52.0804 14.24979148647789
UNKNOWN                 
1 87280U          26230.00641863  .00000257  00000+0  52089-3 0  9996
2 87280  64.6179 341.2345 0119843 209.3031 150.1252 13.48771059567331
UNKNOWN                 
1 87293U          26231.16255532  .00002451  00000+0  47318-3 0  9999
2 87293  65.8934 200.3167 0423710 225.8964 130.6531 14.20951772649408
UNKNOWN                 
1 87300U          26221.30281215  .00000697  00000+0  50707-3 0  9996
2 87300 100.0900 233.1884 0026734  12.0986 348.0811 14.00126304646638
UNKNOWN                 
1 87304U          26230.27219143  .00001112  00000+0  16509-3 0  9992
2 87304  74.0169 194.0416 0016117 101.1203 259.1785 14.76254470683149
UNKNOWN                 
1 87320U          26230.35774319  .00000960  00000+0  60968-3 0  9998
2 87320  66.5906 210.6814 0426380 256.8603  98.4567 13.70851080627815
UNKNOWN                 
1 87334U          26231.36458255  .00016526  00000+0  82271-2 0  9998
2 87334  90.0072 271.6961 0071844 159.3388 201.0732 14.15547621421860
UNKNOWN                 
1 87335U          26231.10931659  .00014073  00000+0  68819-2 0  9992
2 87335  89.9946 267.6250 0088924 144.8496 215.8604 14.15795223422168
UNKNOWN                 
1 87405U          26230.98805799  .00001585  00000+0  11067-2 0  9997
2 87405  82.7474 223.3383 0058896 336.8195  23.0317 13.97163579645959
UNKNOWN                 
1 87426U          26229.84659961  .00003043  00000+0  11499-2 0  9991
2 87426  65.7838  20.5348 0059778 174.7709 334.4143 14.31728494658081
UNKNOWN                 
1 87448U          26228.51760475  .00000730  00000+0  61338-3 0  9999
2 87448 100.4370 110.4877 0062254 286.2809  73.1504 13.91254946643546
UNKNOWN                 
1 87456U          26221.11526812  .00001638  00000+0  24392-3 0  9999
2 87456  65.7658 173.3597 0508266 243.3292 111.4902 14.16522981645378
UNKNOWN                 
1 87517U          26229.76228338  .00003457  00000+0  98198-3 0  9994
2 87517  65.8256 347.5509 0663727 187.9582 325.8979 13.62903905626696
UNKNOWN                 
1 87541U          26231.34563197  .00000094  00000+0  26389-3 0  9990
2 87541  99.6781  77.4444 0060460  19.0036 156.7358 13.35672319615357
UNKNOWN                 
1 87553U          26230.11151301  .00001642  00000+0  55686-3 0  9999
2 87553  65.6691 114.2382 0677653 116.1943 251.0393 13.54763518624887
UNKNOWN                 
1 87557U          26216.96051828  .00002793  00000+0  60890-2 0  9993
2 87557 101.8396 109.7827 0045157 231.4805 128.2257 13.29709670596271
UNKNOWN                 
1 87561U          26230.91720645  .00000023  00000+0  52419-3 0  9992
2 87561 101.9777 286.2118 0174811 196.0764 338.2113 12.32148964573123
UNKNOWN                 
1 87565U          26222.77855339  .00000602  00000+0  34700-3 0  9996
2 87565  99.9490 243.1985 0170146 237.9119 120.5430 14.06559796650318
UNKNOWN                 
1 87569U          26230.38499139 -.00000049  00000+0 -57824-5 0  9999
2 87569 101.9958  62.3668 0055750 125.3601 354.5398 12.68549478589992
UNKNOWN                 
1 87587U          26228.04899342  .00000068  00000+0  29775-4 0  9991
2 87587  74.0255   7.3619 0020704 341.3625  18.6769 14.40176863669269
UNKNOWN                 
1 87590U          26231.05970090  .00000336  00000+0  21176-3 0  9994
2 87590  98.7616 267.1851 0025404 298.9716  90.6919 14.10618668189390
UNKNOWN                 
1 87616U          26230.50782509 -.00000308  00000+0 -85040-3 0  9999
2 87616  66.0368  19.3200 0626298  32.3303  28.0289 12.47078611567252
UNKNOWN                 
1 87624U          26230.85415143  .00002362  00000+0  35511-3 0  9991
2 87624  98.7023 190.1394 0092884 187.0703 172.9199 14.72709814616916
UNKNOWN                 
1 87650U          26230.40726965  .00007731  00000+0  13904-2 0  9994
2 87650 100.2556 111.6616 0027534 271.7228  88.0815 14.66769434116164
UNKNOWN                 
1 87672U          26213.43744740  .00001083  00000+0  44150-3 0  9995
2 87672  70.8566 225.6545 0058645 278.3931  81.0552 14.28780122657547
UNKNOWN                 
1 87681U          26229.74608876  .00000443  00000+0  52616-3 0  9990
2 87681  66.7351 230.9913 0154477 352.7915   7.0930 13.71563546635843
UNKNOWN                 
1 87690U          26229.24922601  .00001275  00000+0  18884-3 0  9993
2 87690  65.7903  68.8288 0586073 281.8583  71.7373 14.02947639642078
UNKNOWN                 
1 87706U          26231.39424948  .00002650  00000+0  45588-3 0  9990
2 87706  98.6684  73.7440 0101236 212.0174 270.0564 14.66234722615087
UNKNOWN                 
1 87730U          26229.23266984  .00000044  00000+0  30564-4 0  9995
2 87730  82.9418  50.9810 0030707  36.2996 324.0234 13.74542944619337
UNKNOWN                 
1 87737U          26230.60184927 -.00000006  00000+0  39459-4 0  9992
2 87737  99.3392 101.5566 0132138 260.5471  98.0721 13.72378844637994
UNKNOWN                 
1 87764U          26230.89273396  .00009419  00000+0  14067-2 0  9994
2 87764  65.6703 194.1078 0365423 308.5021  78.0094 14.38781053654927
UNKNOWN                 
1 87771U          26231.36323099  .00000056  00000+0  24629-3 0  9995
2 87771 100.7284  77.7964 0119481 156.0868 204.5858 13.19580899568017
UNKNOWN                 
1 87782U          26231.57869614  .00003149  00000+0  10264-1 0  9992
2 87782 102.4127 142.3869 0065276  53.4739 307.2346 13.01818176600480
UNKNOWN                 
1 87843U          26229.56425053  .00000676  00000+0  15849-2 0  9998
2 87843  99.6592 327.9521 0243024 143.8235 217.9596 13.17434314596787
UNKNOWN                 
1 87845U          26226.72109560  .00000290  00000+0  58267-3 0  9991
2 87845  98.8666 141.5820 0577313  49.2751 315.7036 12.89856613596781
UNKNOWN                 
1 87884U          26229.56758892  .00000364  00000+0  22088-3 0  9991
2 87884  98.7423 329.8102 0154774  90.9972 270.8933 14.06134833653198
UNKNOWN                 
1 87934U          26212.07369421  .00000095  00000+0  85304-4 0  9993
2 87934  82.9394 129.4963 0031631 114.5830 306.9861 13.73143724635921
UNKNOWN                 
1 87991U          26231.45242720  .00003129  00000+0  63128-2 0  9990
2 87991  28.6293 290.8937 0881045 302.0655  49.7254 12.35446402553893
UNKNOWN                 
1 89003U          26217.49324843  .00000133  00000+0  54518-4 0  9998
2 89003  74.0473 301.8831 0016425 300.6886  59.2648 14.36343172665397
UNKNOWN                 
1 89005U          26230.44119057  .00001026  00000+0  23728-3 0  9999
2 89005  97.8487  46.2905 0187568 345.5101  14.0757 14.46975086570047
UNKNOWN                 
1 89029U          26215.01484646  .00004747  00000+0  41513-3 0  9995
2 89029  98.0320 125.4885 0020091 271.7624  88.1296 14.97104880685955
UNKNOWN                 
1 89101U          26224.99475286 -.00000409  00000+0 -10859-2 0  9994
2 89101 100.4774 159.2210 0146508 286.5033  72.0020 13.04059506586558
UNKNOWN                 
1 89132U          26230.67804858 -.00000047  00000+0 -26864-4 0  9994
2 89132  63.4231 120.6615 2919273 319.7395  21.9637  8.88165022347210
UNKNOWN                 
1 89146U          26229.77624614  .00002639  00000+0  47300-3 0  9992
2 89146  98.2572 164.1039 0090780 358.9251   1.1742 14.65011702665171
UNKNOWN                 
1 89172U          26224.32470467  .00003308  00000+0  50362-3 0  9998
2 89172  82.0640 353.1821 0274329 250.6849 106.4499 14.51414961637031
UNKNOWN                 
1 89177U          26230.31868910  .00000062  00000+0  49553-4 0  9998
2 89177  82.9180  84.8327 0032494 168.5208 191.6696 13.73763389 96953
UNKNOWN                 
1 89183U          26231.58004835  .00000356  00000+0  35006-3 0  9996
2 89183  99.2082 141.9405 0128856 211.3351 148.0078 13.81859666641474
UNKNOWN                 
1 89184U          26231.17251090  .00028733  00000+0  27070-2 0  9999
2 89184  98.3714 114.9655 0010684  46.8209 313.3900 14.93729880529267
UNKNOWN                 
1 89213U          26230.37741905  .00000093  00000+0  84370-4 0  9999
2 89213  98.7490  95.1298 0227216 163.2483 197.6343 13.91825776487251
UNKNOWN                 
1 89251U          26230.82069895  .00002568  00000+0  15322-2 0  9990
2 89251  62.4817  36.2214 2807092 124.0232 265.9697  9.29529131396299
UNKNOWN                 
1 89261U          26225.21607387  .00000310  00000+0  10371-3 0  9995
2 89261  98.1692 214.5436 0013805 134.1673 226.0655 14.43557403568933
UNKNOWN                 
1 89304U          26230.42173372  .00039977  00000+0  17059-1 0  9993
2 89304  84.1257  34.4934 2832561  17.8022   6.0851  9.31853473461157
UNKNOWN                 
1 89379U          26230.86247736  .00002281  00000+0  28862-2 0  9992
2 89379 100.4837 270.0027 0043809 225.7126 134.0417 13.64504967614734
UNKNOWN                 
1 89395U          26230.83162660  .00000073  00000+0  12810-2 0  9992
2 89395 102.3913 190.4865 0226451  61.7073 332.0793 12.01573706554667
UNKNOWN                 
1 89403U          26231.17666877  .00002577  00000+0  86573-2 0  9997
2 89403  90.2539  11.5226 0025428 277.8856 258.0941 12.98960746510204
UNKNOWN                 
1 89484U          26230.61044545  .02504823  00000+0  14205+0 0  9999
2 89484  83.7302  73.4874 2066909  26.9097 342.5481 11.19283722379323
UNKNOWN                 
1 89493U          26228.44554249  .00001141  00000+0  56612-3 0  9999
2 89493  99.0128 305.7174 0081004  60.7119 300.2120 14.17505391498889
UNKNOWN                 
1 89494U          26226.67621977  .00001033  00000+0  51519-3 0  9997
2 89494  99.0124 303.7718 0081835  65.8899 295.0808 14.17434927498487
