METOP-B                 
1 38771U 12049A   26278.63216628  .00000037  00000+0  36447-4 0  9998
2 38771  98.6380 327.8616 0002902  49.0697 311.0732 14.21462770728955
SARAL                   
1 39086U 13009A   26278.57980242  .00000045  00000+0  32583-4 0  9994
2 39086  98.5555 103.7717 0001522   0.9832 359.1355 14.32910525711410
METOP-C                 
1 43689U 18087A   26278.57682218  .00000035  00000+0  36065-4 0  9999
2 43689  98.7308 336.3091 0000403 120.8820 239.2397 14.21476305410519
OTB-3-GAZELLE           
1 54023U 22127A   26278.54254541  .00000059  00000+0  30683-4 0  9990
2 54023  98.4059 268.6269 0012386 211.5246 148.5203 14.42705416210270
EOS-6 (OCEANSAT-3)      
1 54361U 22158A   26278.59402763  .00000148  00000+0  52640-4 0  9991
2 54361  98.3558  15.3258 0001781  59.9520 300.1849 14.46985913203808
KINEIS-1B               
1 60079U 24114A   26278.60739569  .00000438  00000+0  63766-4 0  9990
2 60079  97.9788 302.2553 0003876  97.3144 262.8509 14.80764757123742
KINEIS-1C               
1 60081U 24114C   26278.57352609  .00000438  00000+0  63668-4 0  9996
2 60081  97.9809 302.0952 0001670 130.4387 229.6971 14.80762041123713
KINEIS-1D               
1 60082U 24114D   26278.65102919  .00000330  00000+0  54808-4 0  9990
2 60082  97.9861 297.5837 0001687 144.9365 215.1956 14.76437926123423
KINEIS-1E               
1 60083U 24114E   26278.58986399  .00000412  00000+0  60126-4 0  9996
2 60083  97.8914 300.2703 0002298 178.0699 182.0523 14.80789764123723
KINEIS-1A               
1 60084U 24114F   26278.62471593  .00000546  00000+0  77624-4 0  9996
2 60084  97.8889 300.3688 0005162 130.4144 229.7519 14.80756173123731
KINEIS-3C               
1 61220U 24172A   26278.50934868  .00001205  00000+0  19822-3 0  9997
2 61220  98.0405   7.2206 0002340 130.8068 229.3342 14.72372683109302
KINEIS-3D               
1 61221U 24172B   26278.57083909  .00001203  00000+0  19794-3 0  9992
2 61221  98.0405   7.2905 0002234 127.4176 232.7235 14.72362821109596
KINEIS-3E               
1 61222U 24172C   26278.21260238  .00001175  00000+0  19329-3 0  9998
2 61222  98.0399   6.9146 0001686 112.4529 247.6858 14.72421287109541
KINEIS-3A               
1 61223U 24172D   26278.53683150  .00001170  00000+0  19262-3 0  9997
2 61223  98.0396   7.3286 0003215  99.6133 260.5437 14.72379212109015
KINEIS-3B               
1 61224U 24172E   26278.51972969  .00001172  00000+0  19299-3 0  9997
2 61224  98.0391   7.3276 0003090  86.4777 273.6784 14.72377323109582
KINEIS-5C               
1 62081U 24219A   26278.63281421  .00000416  00000+0  73392-4 0  9995
2 62081  97.9170  74.5090 0002826 296.4073  63.6844 14.72334321100008
KINEIS-5D               
1 62082U 24219B   26278.64633953  .00000634  00000+0  10723-3 0  9998
2 62082  97.9283  74.7337 0003672 281.0762  79.0032 14.72609419100019
KINEIS-5E               
1 62083U 24219C   26278.67841260  .00000369  00000+0  66128-4 0  9990
2 62083  97.9127  74.6015 0005040 272.4562  87.6069 14.72305688100029
KINEIS-5A               
1 62084U 24219D   26278.65533557  .00000324  00000+0  58879-4 0  9991
2 62084  97.9070  74.8025 0003454 329.2408  30.8597 14.72288882100029
KINEIS-5B               
1 62085U 24219E   26278.56960308  .00000720  00000+0  10579-3 0  9994
2 62085  98.0186  81.8633 0000589 279.1025  81.0119 14.78518600100317
KINEIS-2C               
1 62929U 25028B   26278.39801613  .00000905  00000+0  14677-3 0  9992
2 62929  98.1126 332.8635 0002385 276.7053  83.3883 14.73601020 88840
KINEIS-2D               
1 62930U 25028C   26278.43001054  .00000964  00000+0  14748-3 0  9994
2 62930  97.9170 328.7056 0002956 184.0886 176.0300 14.75946588 88979
KINEIS-2E               
1 62931U 25028D   26278.57265696  .00000716  00000+0  10809-3 0  9993
2 62931  97.8840 327.8063 0001605 118.3449 241.7924 14.77242258 89075
KINEIS-2A               
1 62932U 25028E   26278.44294123  .00000861  00000+0  14014-3 0  9990
2 62932  98.1184 333.9741 0005031 160.9317 199.2080 14.73601061 88847
KINEIS-2B               
1 62934U 25028G   26278.62415929  .00000746  00000+0  12221-3 0  9991
2 62934  97.9552 329.4312 0004352 142.4245 217.7268 14.73602998 88922
KINEIS-4E               
1 63300U 25056A   26278.61800426  .00000931  00000+0  15475-3 0  9999
2 63300  97.9166  39.5303 0002410 137.4140 222.7255 14.72350392 83374
KINEIS-4C               
1 63301U 25056B   26278.56313422  .00000993  00000+0  16470-3 0  9993
2 63301  97.9220  39.7783 0002936 350.6575   9.4578 14.72319302 83378
KINEIS-4D               
1 63302U 25056C   26278.56664367  .00001058  00000+0  17466-3 0  9990
2 63302  97.9139  39.6743 0002261  15.8847 344.2432 14.72396414 83374
KINEIS-4A               
1 63303U 25056D   26278.60161039  .00000929  00000+0  15452-3 0  9993
2 63303  97.9234  39.7556 0000489 333.0852  27.0330 14.72327413 83371
KINEIS-4B               
1 63304U 25056E   26278.58425737  .00001031  00000+0  17064-3 0  9995
2 63304  97.9245  39.8081 0004382 311.7408  48.3424 14.72327089 83362
