BEIDOU-2 IGSO-1 (C06)   
1 36828U 10036A   26256.66970756 -.00000130  00000+0  00000+0 0  9997
2 36828  54.3037 162.1610 0058541 217.4777 320.7749  1.00289463 58981
BEIDOU-2 G4 (C04)       
1 37210U 10057A   26277.30380183 -.00000124  00000+0  00000+0 0  9992
2 37210   3.9123  68.1477 0009060 181.6726  32.5633  1.00272625 58383
BEIDOU-2 IGSO-2 (C07)   
1 37256U 10068A   26276.79648902 -.00000172  00000+0  00000+0 0  9995
2 37256  47.3553 270.4706 0056823 216.6104 276.3377  1.00246455 57882
BEIDOU-2 IGSO-3 (C08)   
1 37384U 11013A   26277.26912575 -.00000176  00000+0  00000+0 0  9995
2 37384  62.5682  39.1344 0034854 185.0232 352.6809  1.00286657 56756
BEIDOU-2 IGSO-4 (C09)   
1 37763U 11038A   26276.70233380 -.00000085  00000+0  00000+0 0  9990
2 37763  54.6008 164.7074 0160907 230.8100 323.4766  1.00263744 55735
BEIDOU-2 IGSO-5 (C10)   
1 37948U 11073A   26275.87592986 -.00000134  00000+0  00000+0 0  9996
2 37948  47.4897 270.1981 0116313 224.3445 288.3052  1.00273327 54214
BEIDOU-2 G5 (C05)       
1 38091U 12008A   26277.11676505  .00000045  00000+0  00000+0 0  9994
2 38091   3.8394  68.8832 0007741 233.0600 171.6196  1.00273996 53464
BEIDOU-2 M3 (C11)       
1 38250U 12018A   26277.19108839 -.00000018  00000+0  00000+0 0  9991
2 38250  55.6610 301.1917 0023632 273.9637  85.8134  1.86229837 97975
BEIDOU-2 M4 (C12)       
1 38251U 12018B   26277.12355316 -.00000017  00000+0  00000+0 0  9998
2 38251  55.5608 300.3994 0014876 274.3082  85.5681  1.86229534 97975
BEIDOU-2 M6 (C14)       
1 38775U 12050B   26276.29575256 -.00000004  00000+0  00000+0 0  9995
2 38775  56.6444  59.3271 0010548   2.5092 357.4996  1.86230714 95328
BEIDOU-2 G6 (C02)       
1 38953U 12059A   26276.88760065 -.00000186  00000+0  00000+0 0  9992
2 38953   4.6904  72.2706 0006463 318.5920  25.3174  1.00273336 50994
BEIDOU-3S IGSO-1S (C31) 
1 40549U 15019A   26277.00113421 -.00000163  00000+0  00000+0 0  9993
2 40549  48.9898 294.1397 0039026 201.4028 334.2533  1.00283571 42165
BEIDOU-3S M2S (C58)     
1 40748U 15037A   26276.25020859 -.00000014  00000+0  00000+0 0  9997
2 40748  54.7725 298.3158 0012165 262.6513  97.2528  1.86232109 76133
BEIDOU-3S M1S (C57)     
1 40749U 15037B   26275.37063080 -.00000014  00000+0  00000+0 0  9993
2 40749  54.7701 298.3319 0001844  34.1091 325.9452  1.86254815 76126
BEIDOU-3S IGSO-2S (C56) 
1 40938U 15053A   26276.88403028 -.00000126  00000+0  00000+0 0  9992
2 40938  49.0623 257.4792 0065530 192.4859 337.2124  1.00279186 40441
BEIDOU-2 IGSO-6 (C13)   
1 41434U 16021A   26276.87617786 -.00000159  00000+0  00000+0 0  9993
2 41434  60.3837  36.9680 0062455 228.8394 158.8521  1.00277787 38577
BEIDOU-2 G7 (C03)       
1 41586U 16037A   26276.98451111 -.00000365  00000+0  00000+0 0  9997
2 41586   1.9842  69.6602 0004832 348.4910  59.5099  1.00274806  7984
BEIDOU-3 M1 (C19)       
1 43001U 17069A   26276.06104512 -.00000003  00000+0  00000+0 0  9995
2 43001  56.7913  59.5388 0007230 318.9428  41.0063  1.86230698 60616
BEIDOU-3 M2 (C20)       
1 43002U 17069B   26276.00005115 -.00000003  00000+0  00000+0 0  9999
2 43002  56.7902  59.5767 0005686   0.0346 359.9689  1.86230569 60608
BEIDOU-3 M7 (C27)       
1 43107U 18003A   26276.81645950 -.00000017  00000+0  00000+0 0  9995
2 43107  54.2284 298.5169 0002838 103.9882 256.0861  1.86228051 59379
BEIDOU-3 M8 (C28)       
1 43108U 18003B   26276.22258323 -.00000016  00000+0  00000+0 0  9994
2 43108  54.2219 298.5185 0004510 265.0217  94.9691  1.86230981 59372
BEIDOU-3 M4 (C22)       
1 43207U 18018A   26273.98152258 -.00000006  00000+0  00000+0 0  9999
2 43207  56.7484  59.6674 0005388  43.6939 316.3492  1.86230659 58716
BEIDOU-3 M3 (C21)       
1 43208U 18018B   26277.26976727 -.00000004  00000+0  00000+0 0  9998
2 43208  56.7509  59.5632 0005170 341.9087  18.0768  1.86230707 58777
BEIDOU-3 M9 (C29)       
1 43245U 18029A   26276.95140204 -.00000013  00000+0  00000+0 0  9999
2 43245  54.0938 296.1333 0001835 241.1324 118.8891  1.86227904 57928
BEIDOU-3 M10 (C30)      
1 43246U 18029B   26276.88520703 -.00000013  00000+0  00000+0 0  9998
2 43246  54.0911 296.1628 0002915  11.0233 349.0229  1.86229069 57905
BEIDOU-2 IGSO-7 (C16)   
1 43539U 18057A   26276.61038697 -.00000137  00000+0  00000+0 0  9998
2 43539  55.2112 162.1303 0107986 236.3109 306.1831  1.00270707 30215
BEIDOU-3 M5 (C23)       
1 43581U 18062A   26277.10920828 -.00000020  00000+0  00000+0 0  9993
2 43581  54.0805 178.6030 0003447 321.7816  38.2419  1.86228527 55666
BEIDOU-3 M6 (C24)       
1 43582U 18062B   26276.97311672 -.00000019  00000+0  00000+0 0  9997
2 43582  54.0801 178.5967 0006975  36.7048 323.3914  1.86227863 55660
BEIDOU-3 M12 (C26)      
1 43602U 18067A   26276.91172832 -.00000018  00000+0  00000+0 0  9991
2 43602  54.1766 177.3553 0009116  39.4121 320.7049  1.86227532 55140
BEIDOU-3 M11 (C25)      
1 43603U 18067B   26277.04707773 -.00000019  00000+0  00000+0 0  9996
2 43603  54.1739 177.3141 0005490  30.3455 329.7366  1.86227038 55170
BEIDOU-3 M13 (C32)      
1 43622U 18072A   26277.00079072 -.00000005  00000+0  00000+0 0  9998
2 43622  56.7246  59.0764 0004041 320.9701  39.0045  1.86230790 54681
BEIDOU-3 M14 (C33)      
1 43623U 18072B   26276.86620657 -.00000005  00000+0  00000+0 0  9993
2 43623  56.7263  59.0753 0003213  22.7122 337.3058  1.86230782 54671
BEIDOU-3 M16 (C35)      
1 43647U 18078A   26277.01999550 -.00000014  00000+0  00000+0 0  9994
2 43647  53.9895 296.1588 0006206  29.3108 330.7639  1.86232222 54188
BEIDOU-3 M15 (C34)      
1 43648U 18078B   26277.15113850 -.00000014  00000+0  00000+0 0  9991
2 43648  53.9851 296.1542 0002761  31.0937 328.9626  1.86227305 54207
BEIDOU-3 G1 (C59)       
1 43683U 18085A   26277.33673554 -.00000121  00000+0  00000+0 0  9999
2 43683   2.6637  94.2741 0005109  28.3654 171.6871  1.00270691 29154
BEIDOU-3 M17 (C36)      
1 43706U 18093A   26276.36761834 -.00000012  00000+0  00000+0 0  9994
2 43706  54.1640 178.6285 0007867 306.4113 139.9258  1.86228163 53557
BEIDOU-3 M18 (C37)      
1 43707U 18093B   26276.10324881 -.00000009  00000+0  00000+0 0  9990
2 43707  54.1648 178.6298 0007187 344.1579  15.8715  1.86226525 53549
BEIDOU-3 IGSO-1 (C38)   
1 44204U 19023A   26276.74233656 -.00000212  00000+0  00000+0 0  9992
2 44204  58.8494  36.5415 0028278 224.4771 136.5121  1.00259561  8301
BEIDOU-2 G8 (C01)       
1 44231U 19027A   26277.34191655 -.00000260  00000+0  00000+0 0  9998
2 44231   1.9284  74.1930 0008897 275.2359 291.2447  1.00274287 27176
BEIDOU-3 IGSO-2 (C39)   
1 44337U 19035A   26276.88461395 -.00000146  00000+0  00000+0 0  9996
2 44337  55.2496 157.9072 0038654 210.3956  82.2484  1.00266463 26753
BEIDOU-3 M24 (C46)      
1 44542U 19061A   26266.50572373 -.00000008  00000+0  00000+0 0  9997
2 44542  54.4306 179.4090 0020747  95.6918 264.5686  1.86175926 47622
BEIDOU-3 M23 (C45)      
1 44543U 19061B   26277.07719566 -.00000020  00000+0  00000+0 0  9993
2 44543  54.3901 179.0261 0006092   9.5296 149.4088  1.86227521 47827
BEIDOU-3 IGSO-3 (C40)   
1 44709U 19073A   26276.41522309 -.00000161  00000+0  00000+0 0  9990
2 44709  54.6205 279.7170 0046501 198.5774 161.2550  1.00257070 25546
BEIDOU-3 M22 (C44)      
1 44793U 19078A   26277.08549420 -.00000014  00000+0  00000+0 0  9992
2 44793  53.8350 295.9858 0004858  37.3879 322.6855  1.86227105 46677
BEIDOU-3 M21 (C43)      
1 44794U 19078B   26277.22513370 -.00000015  00000+0  00000+0 0  9995
2 44794  53.8080 295.9395 0002870  26.4145 333.6397  1.86227524 46680
BEIDOU-3 M19 (C41)      
1 44864U 19090A   26277.16164838 -.00000005  00000+0  00000+0 0  9990
2 44864  56.6594  59.1962 0016006 291.2210 224.3893  1.86231104 46260
BEIDOU-3 M20 (C42)      
1 44865U 19090B   26274.64695360 -.00000005  00000+0  00000+0 0  9990
2 44865  56.6584  59.3138 0013063 306.5891  52.6240  1.86231074 46198
BEIDOU-3 G2 (C60)       
1 45344U 20017A   26276.90540752 -.00000151  00000+0  00000+0 0  9991
2 45344   2.6258  48.7083 0002665 157.0423 212.8758  1.00272143 24353
BEIDOU-3 G3 (C61)       
1 45807U 20040A   26277.05575144 -.00000365  00000+0  00000+0 0  9998
2 45807   2.7092  67.3456 0003093 274.4106 161.6248  1.00268250 23160
BEIDOU-3 G4 (C62)       
1 56564U 23066A   26277.34191655 -.00000295  00000+0  00000+0 0  9996
2 56564   0.4455   3.6252 0005810 209.7951  62.7846  1.00272617 12485
BEIDOU-3 M28 (C50)      
1 58654U 23207A   26277.30168102 -.00000009  00000+0  00000+0 0  9995
2 58654  55.8549  58.6296 0000072 355.6379   4.3658  1.86229491 18871
BEIDOU-3 M26 (C48)      
1 58655U 23207B   26276.56224877 -.00000007  00000+0  00000+0 0  9993
2 58655  55.8562  58.6411 0001539 243.0280 116.9602  1.86229366 18843
BEIDOU-3 M25 (C47)      
1 61186U 24168B   26276.65269970 -.00000016  00000+0  00000+0 0  9996
2 61186  54.3744 298.4620 0004773 290.5849 247.8726  1.86229792 13804
BEIDOU-3 M27 (C49)      
1 61187U 24168C   26277.30960097 -.00000017  00000+0  00000+0 0  9999
2 61187  54.3692 298.4214 0001236 322.9550  70.9815  1.86229928 11292
