COSMOS 1408 DEB         
1 50032U 82092RU  26262.79486316  .00002971  00000+0  55093-4 0  9997
2 50032  82.5620 129.7850 0013155 271.0159  88.9584 15.48397940269499
COSMOS 1408 DEB         
1 50058U 82092SW  26262.05311980  .00134925  58317-5  30126-3 0  9992
2 50058  82.6022 129.9017 0008597 111.9834 248.2358 15.97673981272239
COSMOS 1408 DEB         
1 50621U 82092ALR 26262.10037058  .00043637  00000+0  26817-3 0  9996
2 50621  82.5616 138.0125 0016233 173.9427 186.2038 15.76853959266383
