CUTE-1 (CO-55)          
1 27844U 03031E   26277.97299507  .00000186  00000+0  99190-4 0  9990
2 27844  98.6771 285.1723 0008734 221.9892 138.0618 14.24389855207306
CUBESAT XI-IV (CO-57)   
1 27848U 03031J   26278.57909010  .00000148  00000+0  84210-4 0  9993
2 27848  98.6804 285.3945 0008442 240.9891 119.0442 14.23667535207083
CUBESAT XI-V            
1 28895U 05043F   26278.39834367  .00000939  00000+0  15486-3 0  9999
2 28895  98.3125  76.4517 0013365 211.8950 148.1449 14.72863710117971
CUTE-1.7+APD II (CO-65) 
1 32785U 08021C   26278.58995804  .00003955  00000+0  24529-3 0  9995
2 32785  97.8404 262.4546 0009247  23.7097 336.4556 15.10308216  1862
CANX-2                  
1 32790U 08021H   26278.51974741  .00002616  00000+0  18258-3 0  9996
2 32790  97.8767 260.5733 0011091  38.3182 321.8831 15.06251196  1418
SEEDS II (CO-66)        
1 32791U 08021J   26278.53591691  .00018349  00000+0  52249-3 0  9996
2 32791  97.7575 282.0353 0000295 345.0668  15.0566 15.36168680  4208
SWISSCUBE               
1 35932U 09051B   26278.58753752  .00000592  00000+0  12615-3 0  9997
2 35932  98.3942 188.3496 0005661 222.9271 137.1489 14.62651235905294
BEESAT-1                
1 35933U 09051C   26278.31328029  .00000562  00000+0  12223-3 0  9996
2 35933  98.3867 187.4715 0004010 240.1875 119.8927 14.61863047905271
ITUPSAT1                
1 35935U 09051E   26277.71594026  .00000428  00000+0  98064-4 0  9992
2 35935  98.3947 185.9376 0006174 258.7642 101.2864 14.60571746904723
TISAT 1                 
1 36799U 10035E   26278.44356251  .00025977  00000+0  74929-3 0  9991
2 36799  98.0806 235.1828 0002212 141.7043 218.4356 15.35692152884607
STRAND-1                
1 39090U 13009E   26278.47396649  .00000178  00000+0  74029-4 0  9998
2 39090  98.3970  96.0443 0007486 260.3891  99.6450 14.37214959712906
BRITE-AUSTRIA           
1 39091U 13009F   26278.46551931  .00000116  00000+0  54047-4 0  9995
2 39091  98.4049  95.2235 0009008 271.3481  88.6673 14.36577001712885
NEE-01 PEGASO           
1 39151U 13018B   26278.64919353  .00001564  00000+0  15199-3 0  9990
2 39151  98.1384  66.5960 0012895 154.8579 205.3271 14.94097824727194
POPACS 2                
1 39269U 13055E   26278.56291506  .00025026 -50145-6  40747-3 0  9994
2 39269  80.9938  17.5095 0403929 198.4159 160.2080 14.94578391679683
POPACS 3                
1 39270U 13055F   26277.86176296  .00009094  00000+0  21095-3 0  9995
2 39270  80.9978 110.0970 0545775  95.2782 271.0906 14.57727875654528
ZACUBE-1 (TSHEPISOSAT)  
1 39417U 13066B   26278.62971487  .00002948  00000+0  22688-3 0  9990
2 39417  97.8192 241.5838 0037521 240.4222 119.3261 15.01942941697301
WNISAT-1                
1 39423U 13066H   26278.41651785  .00000681  00000+0  13263-3 0  9991
2 39423  97.7368  59.8609 0161485 244.5123 113.9299 14.58214786682798
TRITON-1                
1 39427U 13066M   26278.62655902  .00000988  00000+0  12313-3 0  9998
2 39427  97.8139 185.8810 0087850 233.7073 125.6004 14.82102858690448
GOMX-1                  
1 39430U 13066Q   26278.62284378  .00000899  00000+0  13998-3 0  9998
2 39430  97.6423 112.1235 0129436  82.5365 279.0527 14.69743985686133
CUBEBUG-2 (LO-74)       
1 39440U 13066AA  26278.43224706  .00003285  00000+0  30097-3 0  9998
2 39440  97.9022 227.9858 0057672  23.2293 337.1514 14.94385903693457
NEE-02 KRYSAOR          
1 39441U 13066AB  26278.31081542  .00001513  00000+0  16862-3 0  9991
2 39441  97.8969 216.8022 0067114  68.8632 291.9740 14.86960805692561
FUNCUBE-1 (AO-73)       
1 39444U 13066AE  26278.44507374  .00005686  00000+0  34169-3 0  9999
2 39444  97.8417 252.3841 0034946 185.0638 175.0243 15.10789636696306
UWE-3                   
1 39446U 13066AG  26278.61208984  .00003132  00000+0  26680-3 0  9998
2 39446  97.8824 235.5514 0047295 312.2364  47.4849 14.97678222694103
BRITE-CA1 (TORONTO)     
1 40020U 14033L   26278.30531902  .00000549  00000+0  90173-4 0  9996
2 40020  97.9888  45.3032 0077064 284.6254  74.6418 14.72833734658426
NANOSATC-BR1            
1 40024U 14033Q   26278.38061903  .00020489  00000+0  61306-3 0  9997
2 40024  98.0626 320.7587 0004493 143.9376 216.2169 15.34582128670861
QB50P1                  
1 40025U 14033R   26278.55437488  .00006126  00000+0  29065-3 0  9990
2 40025  98.0960 297.5657 0007946 196.7560 163.3412 15.19660469669789
QB50P2                  
1 40032U 14033Y   26278.53971548  .00005354  00000+0  27950-3 0  9999
2 40032  98.0817 282.4395 0008088 147.8155 212.3571 15.16377017669383
PERSEUS-M2              
1 40037U 14033AD  26278.65163052  .00000039  00000+0  90366-5 0  9998
2 40037  98.0098 231.5281 0010502 298.9249  61.0917 14.95780793667290
PERSEUS-M1              
1 40039U 14033AF  26278.41424967  .00001411  00000+0  13140-3 0  9997
2 40039  97.9755 224.4279 0009988 295.7894  64.2295 14.95929415667116
POLYITAN-1              
1 40042U 14033AJ  26278.60804366  .00018953  00000+0  53003-3 0  9998
2 40042  98.0867 315.5860 0007851 117.2612 242.9431 15.36703964670539
TIGRISAT                
1 40043U 14033AK  26278.39494508  .00001289  00000+0  15232-3 0  9994
2 40043  97.7988  66.0135 0050191  73.5060 287.1662 14.85491191661984
AEROCUBE 6A             
1 40045U 14033AM  26278.39562922  .00004384  00000+0  36123-3 0  9993
2 40045  97.7319  84.3292 0036924   6.3762 353.7923 14.99054434663120
AEROCUBE 6B             
1 40046U 14033AN  26278.42226946  .00005316  00000+0  41834-3 0  9992
2 40046  97.7411  84.3756 0040195 350.1523   9.8908 15.00622386663288
CANX-4                  
1 40055U 14034C   26278.59101786  .00000542  00000+0  76553-4 0  9998
2 40055  98.2926 157.8604 0013236  21.5219 338.6546 14.81418772660873
CANX-5                  
1 40056U 14034D   26278.58815526  .00000545  00000+0  76886-4 0  9994
2 40056  98.2929 157.9077 0013256  21.6960 338.4810 14.81436222651689
UKUBE-1                 
1 40074U 14037F   26278.58479074  .00006546  00000+0  35528-3 0  9995
2 40074  98.4263 293.6061 0002594 124.3032 235.8443 15.14947644665260
BRITE-PL2 (HEWELIUSZ)   
1 40119U 14049B   26278.55915113  .00000734  00000+0  72647-4 0  9991
2 40119  97.9189  31.4884 0015223 102.1221 258.1706 14.94908567657932
AEROCUBE 5C             
1 40965U 15058B   26278.38651502  .00002284  00000+0  20133-3 0  9995
2 40965  64.7646 279.6119 0139952  21.9911 338.7125 14.91930360382093
AEROCUBE 7              
1 40966U 15058C   26278.32727430  .00004690  00000+0  36136-3 0  9997
2 40966  64.7607 259.6173 0129623  20.0683 340.5461 14.96413795382434
FOX-1A (AO-85)          
1 40967U 15058D   26278.40259785  .00001942  00000+0  17537-3 0  9991
2 40967  64.7729 296.3130 0140599  15.6532 344.8859 14.91449705130006
SINOD-D 1               
1 40968U 15058E   26278.35839886  .00004667  00000+0  35802-3 0  9994
2 40968  64.7735 273.6806 0129396  11.8266 348.5837 14.96604137133148
LMRST-SAT               
1 40971U 15058H   26278.45410265  .00001868  00000+0  17050-3 0  9990
2 40971  64.7734 292.7081 0142007  17.5095 343.0839 14.91045546129993
PROPCUBE 3              
1 40973U 15058K   26278.34741047  .00003745  00000+0  30090-3 0  9990
2 40973  64.7668 268.1652 0133625  18.4837 342.1063 14.94853559131268
BISONSAT                
1 40974U 15058L   26278.42470946  .00015671  00000+0  68928-3 0  9999
2 40974  64.7572 176.5454 0087785   1.0457 359.0835 15.18588378132341
SNAP-3 JIMI             
1 40975U 15058M   26278.58585770  .00007086  00000+0  46059-3 0  9991
2 40975  64.7633 230.1577 0115737  13.2677 347.1439 15.03353761130819
PROPCUBE 1 (FLORA)      
1 40976U 15058N   26278.44392906  .00001457  00000+0  14196-3 0  9997
2 40976  64.7731 313.3816 0140355  19.7547 340.8923 14.89659382132686
SINOD-D 3               
1 40977U 15058P   26278.46230662  .00003280  00000+0  27004-3 0  9998
2 40977  64.7711 291.2658 0129036  16.5697 343.9572 14.94647192131233
RAVAN                   
1 41849U 16067B   26278.64122816  .00100912  00000+0  89551-3 0  9994
2 41849  97.9695 181.9525 0002218  51.3603 308.7855 15.68239792544927
CELTEE 1                
1 41850U 16067C   26278.59399213  .00004195  00000+0  19505-3 0  9995
2 41850  98.0482 152.6634 0001169 121.3545 238.7803 15.20588009542657
OPTICUBE 04             
1 41851U 16067D   26278.55569792  .00001544  00000+0  99075-4 0  9999
2 41851  98.0544 136.5542 0016843 102.8192 257.4919 15.10031217541820
AEROCUBE 8D             
1 41852U 16067E   26278.51422021  .00006482  00000+0  25741-3 0  9993
2 41852  98.0486 157.0831 0004828 104.5165 255.6608 15.25714412542887
AEROCUBE 8C             
1 41853U 16067F   26278.38956156  .00007687  00000+0  30217-3 0  9992
2 41853  98.0364 154.0389 0006258  49.7381 310.4402 15.25978957542863
CORVUS BC2              
1 42846U 17042X   26278.04870437  .00003113  00000+0  21225-3 0  9998
2 42846  97.4201  75.2680 0014311  95.6026 264.6834 15.06862221503605
CORVUS BC1              
1 42847U 17042Y   26278.43005661  .00002061  00000+0  14137-3 0  9996
2 42847  97.4229  76.5191 0013213  73.0950 287.1726 15.07012586503694
MAKERSAT 0              
1 43016U 17073D   26278.61006808  .00021302  00000+0  51916-3 0  9998
2 43016  97.4432 162.1871 0095915 238.3219 120.8645 15.36192670483391
SIRION PATHFINDER-2     
1 43759U 18099B   26278.61812488  .00003574  00000+0  19314-3 0  9997
2 43759  97.4139 325.0377 0006937 277.6190  82.4254 15.15315311429340
CORVUS BC4              
1 43767U 18099K   26278.57824465  .00003110  00000+0  17864-3 0  9993
2 43767  97.3956 318.3151 0007618 351.2375   8.8723 15.13211419429098
M2 PATHFINDER           
1 45727U 20037E   26278.48937085  .00002059  00000+0  14910-3 0  9999
2 45727  97.8111 110.9981 0012247 136.0410 224.1793 15.05080791342085
NETSAT-4                
1 46504U 20068U   26278.57409332  .00019521  00000+0  38363-3 0  9996
2 46504  97.8602 295.9857 0002778 286.1923  73.9019 15.47340953332821
NETSAT-3                
1 46505U 20068V   26278.59795980  .00018479  00000+0  37857-3 0  9994
2 46505  97.8660 294.1023 0002891 319.2536  40.8496 15.46140948332728
NETSAT-1                
1 46506U 20068W   26278.57256889  .00012350  00000+0  34473-3 0  9996
2 46506  97.8787 287.0144 0004062   4.6122 355.5158 15.36886302332240
NETSAT-2                
1 46507U 20068X   26278.55964589  .00021041  00000+0  37463-3 0  9997
2 46507  97.8609 296.3433 0002367 339.0900  21.0253 15.50163753332811
GREENCUBE (IO-117)      
1 53109U 22080E   26276.97409515 -.00000003  00000+0  00000+0 0  9995
2 53109  70.1208 260.3996 0009162 266.6515  93.3097  6.42583783 99052
SITRO-AIS 5 (KATYS)     
1 57176U 23091L   26278.55726181  .00011466  00000+0  37725-3 0  9995
2 57176  97.4943 343.6079 0011972  75.2948 284.9620 15.31613154181226
SITRO-AIS 6 (CHIRKIN)   
1 57192U 23091AC  26278.60843132  .00008830  00000+0  32830-3 0  9998
2 57192  97.4951 342.1596 0012459  80.2107 280.0538 15.27693172181133
SITRO-AIS 8 (ANOKHIN)   
1 57193U 23091AD  26278.56122199  .00014105  00000+0  42024-3 0  9995
2 57193  97.4943 345.6890 0010700  71.6064 288.6341 15.34740673181361
SITRO-AIS 7 (FARTUSHNIY)
1 57194U 23091AE  26278.57037146  .00008283  00000+0  31154-3 0  9996
2 57194  97.4946 341.8835 0012408  81.4568 278.8077 15.27332988181115
SITRO-AIS 10 (BURDAEV)  
1 57199U 23091AK  26278.60544405  .00018501  00000+0  42864-3 0  9990
2 57199  97.4975 352.0345 0006235  47.2258 312.9513 15.42467252181765
SITRO-AIS 9 (SHCHUKIN)  
1 57201U 23091AM  26278.60618222  .00018328  00000+0  43343-3 0  9993
2 57201  97.4973 351.6686 0006532  47.4145 312.7652 15.41850668181743
SITRO-AIS 12 (SMIRENNIY)
1 57204U 23091AQ  26278.57502397  .00019422  00000+0  45439-3 0  9991
2 57204  97.4987 352.1763 0006031  42.4818 317.6894 15.42165811181763
SITRO-AIS 11 (SHEFFER)  
1 57208U 23091AU  26278.61951535  .00019733  00000+0  45349-3 0  9997
2 57208  97.4986 352.5467 0005943  41.3372 318.8324 15.42699633181793
SITRO-AIS 25            
1 59066U 24039R   26278.63515031  .00002885  00000+0  22424-3 0  9992
2 59066  95.3791 310.9452 0141163 301.9919  56.7651 14.94133652141211
SITRO-AIS 26            
1 59067U 24039S   26278.51829514  .00002850  00000+0  22267-3 0  9991
2 59067  95.3795 310.7391 0141517 303.1510  55.6204 14.93915210141185
SITRO-AIS 27            
1 59068U 24039T   26278.59073520  .00002602  00000+0  20167-3 0  9990
2 59068  95.3795 311.1130 0140513 301.2356  57.5165 14.94353657141228
SITRO-AIS 28            
1 59071U 24039U   26278.63261546  .00002765  00000+0  21402-3 0  9999
2 59071  95.3794 311.1950 0140441 300.8699  57.8775 14.94385048141236
GRBBETA                 
1 60237U 24128C   26278.49976486  .00002498  00000+0  17803-3 0  9997
2 60237  61.9896 189.0347 0024327 159.0471 201.1625 15.07272683122896
OOV-CUBE (TUBSAT-30)    
1 60240U 24128F   26278.49560419  .00001124  00000+0  97666-4 0  9997
2 60240  61.9942 200.8143 0028772 159.7183 200.5059 15.03152692122698
ROBUSTA-3A (MEDITERRAN*)
1 60243U 24128J   26278.42138581  .00006428  00000+0  37275-3 0  9995
2 60243  61.9860 178.0283 0025692 149.5410 210.7185 15.12908169123095
LASARSAT                
1 62391U 24247Q   26278.51698087  .00044597  00000+0  68551-3 0  9995
2 62391  44.9733 358.9867 0009802 323.1518  36.8700 15.53537553100435
CROCUBE                 
1 62394U 24247T   26277.50446834  .00047886  00000+0  65549-3 0  9995
2 62394  44.9705 359.7387 0010348 328.4210  31.6061 15.56657973100331
FORESAIL-1 PRIME        
1 66778U 25276DS  26278.19714045  .00004033  00000+0  19327-3 0  9996
2 66778  97.4099 349.4500 0003816  88.4309 271.7363 15.19477528 47109
KNACKSAT-2              
1 67683U 98067YA  26278.22736150  .00096553  00000+0  73654-3 0  9996
2 67683  51.6238  96.5702 0008629 253.3834 106.6216 15.71385225 37516
MARINA                  
1 69920U 26156BD  26278.47318257  .00001600  00000+0  16240-3 0  9990
2 69920  97.7427 177.4352 0006494 205.2263 154.8640 14.92224920 13441
