BEIJING 1               
1 28890U 05043A   26278.63186937  .00000426  00000+0  91568-4 0  9991
2 28890  98.3073  52.5626 0013443 299.3159  60.6699 14.63585613116802
HUANJING 1A (HJ-1A)     
1 33320U 08041A   26278.60425469  .00000425  00000+0  56824-4 0  9994
2 33320  97.6823 260.2604 0019939 132.2066 228.0846 14.84188569974788
HUANJING 1B (HJ-1B)     
1 33321U 08041B   26278.62470177 -.00000156  00000+0 -12419-4 0  9998
2 33321  97.6651 263.1105 0036000 178.4746 181.6585 14.83481836974787
YAOGAN-4                
1 33446U 08061A   26278.52973524  .00000609  00000+0  80769-4 0  9995
2 33446  97.9355 211.2532 0015641  72.7190 287.5734 14.83369382962021
DEIMOS-1                
1 35681U 09041A   26278.67289236  .00000629  00000+0  99809-4 0  9990
2 35681  97.7556  71.2202 0001611 133.9834 226.1509 14.75330220923172
UK-DMC 2                
1 35683U 09041C   26278.65053456  .00000191  00000+0  34866-4 0  9999
2 35683  97.8995  51.0259 0001058  94.6262 265.5068 14.76160603922862
DMC3-FM1                
1 40715U 15032A   26278.65244934  .00000805  00000+0  98316-4 0  9993
2 40715  97.6284 139.4065 0006924  57.4027 302.7857 14.85834568606319
DMC3-FM2                
1 40716U 15032B   26278.60660976 -.00000116  00000+0 -74862-5 0  9995
2 40716  97.6334 141.0093 0007505  60.9599 299.2368 14.85840770606303
DMC3-FM3                
1 40717U 15032C   26278.63078863 -.00000143  00000+0 -10580-4 0  9993
2 40717  97.6379 142.8526 0006623  61.6975 298.4909 14.85826306606311
