SAUDISAT 1C (SO-50)     
1 27607U 02058C   26277.92760786  .00000492  00000+0  76005-4 0  9992
2 27607  64.5516 149.3997 0070781 242.2231 117.1687 14.83240500280730
SAUDISAT 2              
1 28371U 04025F   26278.54805564  .00000140  00000+0  42287-4 0  9995
2 28371  98.5572 281.4212 0023903 320.0367  39.9071 14.56733971181811
SAUDISAT 3              
1 31118U 07012B   26278.42003499  .00000169  00000+0  35457-4 0  9993
2 31118  98.1587 228.9573 0013488 234.2160 125.7793 14.71479214 43957
PISAT                   
1 41784U 16059B   26278.55252005  .00000534  00000+0  98265-4 0  9999
2 41784  97.8262 274.3187 0028126 210.5099 149.4472 14.69148826535943
FLYING LAPTOP           
1 42831U 17042G   26278.68262051  .00001739  00000+0  13788-3 0  9996
2 42831  97.5029  70.3082 0018927 103.8950 256.4382 15.01660015503031
SALSAT                  
1 46495U 20068K   26278.57211251  .00006483  00000+0  21820-3 0  9999
2 46495  97.8888 288.4997 0007565 275.7985  84.2392 15.31144676332241
