PROBA-1                 
1 26958U 01049B   26278.57251269  .00001723  00000+0  11304-3 0  9990
2 26958  97.9629 291.0042 0055924 108.9195 251.8106 15.07856679360253
CUTE-1 (CO-55)          
1 27844U 03031E   26277.97299507  .00000186  00000+0  99190-4 0  9990
2 27844  98.6771 285.1723 0008734 221.9892 138.0618 14.24389855207306
CUBESAT XI-IV (CO-57)   
1 27848U 03031J   26278.57909010  .00000148  00000+0  84210-4 0  9993
2 27848  98.6804 285.3945 0008442 240.9891 119.0442 14.23667535207083
APRIZESAT 4             
1 35684U 09041D   26278.50309841  .00000332  00000+0  46372-4 0  9998
2 35684  98.1327 355.9740 0042331 325.1793  34.6652 14.84007643927724
APRIZESAT 3             
1 35686U 09041F   26278.43340680  .00000709  00000+0  65903-4 0  9997
2 35686  98.2207  77.0672 0062239  63.5136 297.2450 14.96497552932862
PROBA-2                 
1 36037U 09059B   26278.48621068  .00000109  00000+0  36021-4 0  9997
2 36037  98.2476 100.3476 0012225 303.3285  56.6741 14.54899613897568
APRIZESAT 5             
1 37792U 11044E   26278.32519643  .00000778  00000+0  10510-3 0  9997
2 37792  98.2509 214.5170 0052334   9.5228 350.6963 14.81239672815094
APRIZESAT 6             
1 37793U 11044F   26278.52672432  .00000414  00000+0  65624-4 0  9990
2 37793  98.2285 191.2345 0044337  92.6240  81.5765 14.77040676813437
PROBA-V                 
1 39159U 13021A   26278.53565799  .00000042  00000+0  36583-4 0  9992
2 39159  98.3743 251.7713 0004469 154.9601 205.1796 14.23616016696818
APRIZESAT 7             
1 39416U 13066A   26278.63486412  .00000667  00000+0  71174-4 0  9990
2 39416  97.7842 230.3505 0034970 203.0072 156.9582 14.91781242697699
APRIZESAT 8             
1 39425U 13066K   26278.37640162  .00000694  00000+0  80889-4 0  9998
2 39425  97.8335 224.3718 0044268 283.9028  75.7267 14.87826410696054
BUGSAT-1 (TITA)         
1 40014U 14033E   26278.58699345  .00004253  00000+0  21997-3 0  9998
2 40014  98.0426  17.6692 0027864 160.7763 199.4527 15.16527134672566
SAUDISAT 4              
1 40016U 14033G   26278.35090298  .00000413  00000+0  60946-4 0  9999
2 40016  97.7751  60.7946 0046056  75.4454 285.1860 14.79659754662361
APRIZESAT 9             
1 40018U 14033J   26278.63376347  .00000422  00000+0  69410-4 0  9999
2 40018  97.9220  49.2402 0065445 204.1833 155.6300 14.74324150659832
APRIZESAT 10            
1 40019U 14033K   26278.59914582  .00000281  00000+0  52279-4 0  9992
2 40019  97.9795  43.1875 0077306 281.4498  77.8034 14.70978305658483
TECHDEMOSAT-1 (TDS-1)   
1 40076U 14037H   26278.59668790  .00006137  00000+0  33609-3 0  9997
2 40076  98.3888 281.9250 0004434 248.5716 111.5040 15.14650594664938
TECHNOSAT               
1 42829U 17042E   26278.60056039  .00001726  00000+0  12379-3 0  9993
2 42829  97.4417  72.2021 0018844  78.1132 282.2206 15.05491208503319
FLYING LAPTOP           
1 42831U 17042G   26278.68262051  .00001739  00000+0  13788-3 0  9996
2 42831  97.5029  70.3082 0018927 103.8950 256.4382 15.01660015503031
HAWK-A                  
1 43765U 18099H   26278.62880642  .00005431  00000+0  21207-3 0  9990
2 43765  97.3790 329.4399 0032195 255.0662 104.7011 15.25836526429931
HAWK-B                  
1 43794U 18099AN  26278.58947156  .00004735  00000+0  19674-3 0  9992
2 43794  97.3842 328.5761 0029490 275.4983  84.2891 15.23904874429848
HAWK-C                  
1 43799U 18099AT  26278.60741353  .00006951  00000+0  24021-3 0  9995
2 43799  97.3767 330.8958 0037458 253.0273 106.6860 15.29567568430781
SALSAT                  
1 46495U 20068K   26278.57211251  .00006483  00000+0  21820-3 0  9999
2 46495  97.8888 288.4997 0007565 275.7985  84.2392 15.31144676332241
HAWK-2C                 
1 47502U 21006CT  26278.62830812  .00005386  00000+0  15670-3 0  9995
2 47502  97.2172 320.7566 0007517 151.1958 208.9703 15.35818897316449
HAWK-2A                 
1 47505U 21006CW  26278.36750673  .00006164  00000+0  17881-3 0  9996
2 47505  97.2213 321.2461 0006910 155.1404 205.0174 15.35857655316405
HAWK-2B                 
1 47508U 21006CZ  26278.61391905  .00005946  00000+0  17152-3 0  9994
2 47508  97.2087 319.6506 0007483 153.0144 207.1491 15.36042008316440
HAWK-3B                 
1 48931U 21059BE  26278.53880760  .00065095  00000+0  35423-3 0  9998
2 48931  97.6513 126.4637 0002081 255.6997 104.4038 15.79784828295219
HAWK-3C                 
1 48948U 21059BX  26278.53849072  .00062566  00000+0  34061-3 0  9994
2 48948  97.6619 132.3239 0002274 256.8453 103.2560 15.79783798295214
HAWK-3A                 
1 48957U 21059CG  26278.53835806  .00062756  00000+0  34166-3 0  9991
2 48957  97.6565 129.4449 0002286 261.4491  98.6516 15.79781787295215
HAWK-5C                 
1 52754U 22057Y   26278.47110606  .00019327  00000+0  29030-3 0  9997
2 52754  97.6687  85.6408 0004053  42.6073 317.5494 15.54925353243467
HAWK-5B                 
1 52756U 22057AA  26278.47096299  .00021172  00000+0  31762-3 0  9996
2 52756  97.6707  84.0102 0004710  33.0595 327.0952 15.54936338243469
HAWK-5A                 
1 52757U 22057AB  26278.40639169  .00021523  00000+0  32293-3 0  9999
2 52757  97.6699  84.7662 0004603  37.3480 322.8093 15.54930036243456
HAWK-6B                 
1 55324U 23011A   26278.58276214  .00003325  00000+0  14342-3 0  9995
2 55324  40.4990  67.7492 0000815  79.2418 280.8484 15.23747731204681
HAWK-6C                 
1 55326U 23011C   26278.58212647  .00003378  00000+0  14559-3 0  9995
2 55326  40.4974  64.5799 0001902  69.1062 290.9951 15.23746694204690
HAWK-6A                 
1 55327U 23011D   26278.58216737  .00003379  00000+0  14562-3 0  9995
2 55327  40.4986  66.2142 0001550  54.2568 305.8385 15.23745905204691
HAWK-7A                 
1 56191U 23054P   26278.59710768  .00004892  00000+0  17992-3 0  9997
2 56191  97.2517 163.0934 0003585  35.9736 324.1745 15.28329344193881
HAWK-7B                 
1 56193U 23054R   26278.59703020  .00004900  00000+0  18020-3 0  9995
2 56193  97.2540 161.3948 0003238  51.5946 308.5584 15.28333545193882
HAWK-7C                 
1 56200U 23054Y   26278.59691621  .00004888  00000+0  17978-3 0  9993
2 56200  97.2519 162.1296 0003122  40.8745 319.2729 15.28331139193889
