EUTELSAT 174A           
1 28924U 05052A   26253.62807049 -.00000008  00000+0  00000+0 0  9998
2 28924   4.4294  75.4224 0005947  94.4124 219.9006  1.00272013 53183
EUTELSAT 33F            
1 29270U 06032A   26253.51881623  .00000137  00000+0  00000+0 0  9992
2 29270   1.8761  81.1707 0003315  89.3929  38.8480  1.00273006 48160
EUTELSAT HOTBIRD 13C    
1 33459U 08065A   26253.50226281 -.00000301  00000+0  00000+0 0  9990
2 33459   3.1639  78.1114 0003550  99.4720 302.4857  1.00271469 48207
EUTELSAT 36B            
1 36101U 09065A   26253.45095594  .00000092  00000+0  00000+0 0  9999
2 36101   0.7006  81.1836 0005704  90.5114  30.6658  1.00274958 61561
EUTELSAT KA-SAT 9A      
1 37258U 10069A   26253.22889417  .00000041  00000+0  00000+0 0  9993
2 37258   0.0741 348.7698 0005427 183.1907 268.7110  1.00272035 44868
EUTELSAT 7 WEST A       
1 37816U 11051A   26253.36818891 -.00000080  00000+0  00000+0 0  9992
2 37816   0.0644 343.2577 0005963 189.6736 301.7026  1.00271417 54736
EUTELSAT 16A            
1 37836U 11057A   26253.51526287  .00000085  00000+0  00000+0 0  9996
2 37836   0.0836  60.5745 0005553 109.3523  21.1497  1.00274820  8190
EUTELSAT 21B            
1 38992U 12062B   26253.73449830  .00000111  00000+0  00000+0 0  9999
2 38992   0.0705 343.2878 0002677 172.6482 119.8825  1.00274743 50683
EUTELSAT 70B            
1 39020U 12069A   26253.69852573 -.00000063  00000+0  00000+0 0  9993
2 39020   0.0648 357.9112 0003672 172.7930 140.9941  1.00272080 50361
EUTELSAT 117 WEST A     
1 39122U 13012A   26253.48908941 -.00000033  00000+0  00000+0 0  9990
2 39122   0.0478 302.4940 0002812 230.9412 235.3616  1.00272002 49287
EUTELSAT 7B             
1 39163U 13022A   26253.23002083  .00000098  00000+0  00000+0 0  9991
2 39163   0.0712 335.3396 0002169  41.3453  69.9151  1.00454777 48800
EXPRESS-AT1             
1 39612U 14010A   26253.70271170 -.00000111  00000+0  00000+0 0  9992
2 39612   0.4719  84.5977 0004901  81.9541 150.6505  1.00314729 45677
EXPRESS-AT2             
1 39613U 14010B   26253.70113447  .00000059  00000+0  00000+0 0  9995
2 39613   0.0281 256.7195 0000721  31.3378  10.0751  1.00273117 45358
EUTELSAT 3B             
1 39773U 14030A   26253.37026891  .00000000  00000+0  00000+0 0  9999
2 39773   0.0652 353.8888 0004082 176.1400 315.7616  1.00271888 44923
EUTELSAT 115 WEST B     
1 40425U 15010B   26253.54003132 -.00000045  00000+0  00000+0 0  9996
2 40425   0.0406 357.8686 0000275  89.5421 341.6802  1.00273811 42231
EUTELSAT 8 WEST B       
1 40875U 15039B   26253.36810226 -.00000085  00000+0  00000+0 0  9990
2 40875   0.0681 343.1369 0003515 184.2664 306.5667  1.00272848 40510
EUTELSAT 9B             
1 41310U 16005A   26253.22889417  .00000041  00000+0  00000+0 0  9993
2 41310   0.0466  69.5546 0002393 138.5081 232.5930  1.00272006 38963
EUTELSAT 65 WEST A      
1 41382U 16014A   26253.51780853 -.00000296  00000+0  00000+0 0  9991
2 41382   0.0793 308.9515 0002191 217.1169 304.6919  1.00273768 38388
EUTELSAT 117 WEST B     
1 41589U 16038B   26253.48908941 -.00000031  00000+0  00000+0 0  9999
2 41589   0.0390   5.8552 0000037 159.8330 242.9097  1.00271151 37512
EUTELSAT 172B           
1 42741U 17029B   26253.69787000 -.00000025  00000+0  00000+0 0  9998
2 42741   0.0219 144.2553 0000017 311.8032 316.9138  1.00270128 34607
EUTELSAT 7C             
1 44334U 19034B   26253.22846082  .00000028  00000+0  00000+0 0  9993
2 44334   0.0713 178.5438 0003112 337.5306 282.4233  1.00270889  7681
EUTELSAT 5 WEST B       
1 44624U 19067A   26253.22612081 -.00000063  00000+0  00000+0 0  9991
2 44624   0.0839 317.3745 0003123 213.3094 254.9876  1.00271132 25277
EUTELSAT KONNECT        
1 45027U 20005B   26253.37096227  .00000029  00000+0  00000+0 0  9998
2 45027   0.0660  99.7831 0001028  68.7259 321.6441  1.00268046 25192
EUTELSAT QUANTUM        
1 49056U 21069B   26253.52167624  .00000106  00000+0  00000+0 0  9998
2 49056   0.0173  87.5365 0002254  85.6222  51.8981  1.00271450 18785
EUTELSAT KONNECT VHTS   
1 53765U 22110A   26253.37018226 -.00000003  00000+0  00000+0 0  9991
2 53765   0.0542 104.7165 0002812  38.2161 342.4437  1.00269675  7692
EUTELSAT HOTBIRD 13F    
1 54048U 22134A   26253.22967418  .00000067  00000+0  00000+0 0  9991
2 54048   0.0678 291.5116 0001982  69.4346  84.0071  1.00270331 14227
EUTELSAT HOTBIRD 13G    
1 54225U 22146A   26253.22967418  .00000067  00000+0  00000+0 0  9991
2 54225   0.0526 235.1441 0002005 305.5464 264.2572  1.00270269  8314
EUTELSAT 10B            
1 54259U 22157A   26253.22906750  .00000048  00000+0  00000+0 0  9991
2 54259   0.0555 102.2355 0001580   7.7511 331.7742  1.00270556 13877
EUTELSAT 36D            
1 59346U 24059A   26253.51933623  .00000136  00000+0  00000+0 0  9995
2 59346   0.0172 154.8221 0000164 143.6896 273.8780  1.00270945  9002
