STARLETTE               
1 07646U 75010A   26278.62680258 -.00000150  00000+0 -31205-5 0  9991
2 07646  49.8249  28.6667 0205561  67.8961 294.3618 13.82351485609819
LAGEOS 1                
1 08820U 76039A   26278.15101856 -.00000006  00000+0  00000+0 0  9990
2 08820 109.8225 216.9723 0044587 278.7199  63.9977  6.38664855920157
AJISAI (EGS)            
1 16908U 86061A   26278.62873252 -.00000089  00000+0  58319-4 0  9992
2 16908  50.0084 167.7903 0011421 100.9594 288.2935 12.44517521494144
COSMOS 1989 (ETALON 1)  
1 19751U 89001C   26278.49291760  .00000031  00000+0  00000+0 0  9996
2 19751  65.0164  68.4278 0023422 217.4697 151.5249  2.13155864293726
COSMOS 2024 (ETALON 2)  
1 20026U 89039C   26278.33921486 -.00000002  00000+0  00000+0 0  9991
2 20026  64.8633 306.7332 0020918 212.1046 215.7558  2.13204544290854
LAGEOS 2                
1 22195U 92070B   26278.33420679 -.00000009  00000+0  00000+0 0  9994
2 22195  52.6456 197.0403 0138158 235.4923 253.1026  6.47293799802552
STELLA                  
1 22824U 93061B   26278.60339576 -.00000059  00000+0 -55384-5 0  9996
2 22824  98.7604 343.1829 0005276 276.8724 216.1717 14.27472716720522
LARETS                  
1 27944U 03042F   26278.64101110  .00000011  00000+0  11787-4 0  9993
2 27944  98.4280  83.2537 0013277  55.3048 304.9403 14.63883684229526
LARES                   
1 38077U 12006A   26278.59937212 -.00000026  00000+0  76454-4 0  9995
2 38077  69.4880 103.6549 0011221 291.6797  68.3034 12.54932430670929
LARES-2                 
1 53105U 22080A   26274.28803811  .00000018  00000+0  00000+0 0  9995
2 53105  70.1458 268.9262 0005584 314.3603  45.6535  6.38965223 98445
