COSMOS 2433 (720)       
1 32275U 07052A   26277.25266365 -.00000011  00000+0  00000+0 0  9993
2 32275  65.5098 312.2577 0005932 232.1197 127.8908  2.13104090147383
COSMOS 2434 (721)       
1 32393U 07065A   26277.08697407 -.00000014  00000+0  00000+0 0  9997
2 32393  64.3178 188.2456 0002290  52.7500  69.4168  2.13101237146091
COSMOS 2436 (723)       
1 32395U 07065C   26274.83739057  .00000017  00000+0  00000+0 0  9999
2 32395  64.3266 188.3950 0017585   2.1813 326.0183  2.13100019145994
COSMOS 2456 (730)       
1 36111U 09070A   26275.77866545  .00000032  00000+0  00000+0 0  9991
2 36111  65.0806  67.3066 0001327 338.6413  18.5871  2.13103500130715
COSMOS 2457 (733)       
1 36112U 09070B   26277.20478376  .00000033  00000+0  00000+0 0  9994
2 36112  65.0672  67.0998 0005924 136.0578   1.6497  2.13100731130751
COSMOS 2460 (732)       
1 36402U 10007C   26265.40205623 -.00000008  00000+0  00000+0 0  9993
2 36402  65.3592 311.1726 0002578 222.5647 222.5420  2.13101986128805
COSMOS 2476 (744)       
1 37867U 11064A   26277.32665850  .00000038  00000+0  00000+0 0  9991
2 37867  65.3386  69.1912 0022996 230.5166 142.5944  2.13103545116093
COSMOS 2477 (745)       
1 37868U 11064B   26277.22963791  .00000038  00000+0  00000+0 0  9996
2 37868  65.3448  69.2749 0019905 230.4082 248.2773  2.13102715116085
COSMOS 2475 (743)       
1 37869U 11064C   26267.52397483  .00000043  00000+0  00000+0 0  9994
2 37869  65.3462  69.6239 0024905 245.5374 301.9912  2.13101751115885
COSMOS 2485 (747)       
1 39155U 13019A   26276.77806360  .00000040  00000+0  00000+0 0  9999
2 39155  65.4872  69.9644 0023556 225.9607 133.8588  2.13102890104598
COSMOS 2492 (754)       
1 39620U 14012A   26277.20625091 -.00000008  00000+0  00000+0 0  9994
2 39620  65.2287 310.2246 0012441 306.1614  53.7863  2.13103195 97567
COSMOS 2500 (755)       
1 40001U 14032A   26276.43661667 -.00000008  00000+0  00000+0 0  9994
2 40001  65.1644 309.9893 0009559 208.2030 151.8072  2.13101405 95765
COSMOS 2501 (702K)      
1 40315U 14075A   26277.16889824 -.00000015  00000+0  00000+0 0  9995
2 40315  63.6156 186.6023 0021797 208.8439 151.0734  2.13101232 92173
COSMOS 2514 (751)       
1 41330U 16008A   26277.15351345 -.00000006  00000+0  00000+0 0  9992
2 41330  64.9522 309.2594 0013761 212.8097 147.1664  2.13102569 82941
COSMOS 2522 (752)       
1 42939U 17055A   26276.99103807 -.00000013  00000+0  00000+0 0  9998
2 42939  64.0783 188.1841 0008669 233.4183 126.5379  2.13101897 70294
COSMOS 2527 (756)       
1 43508U 18053A   26276.95334939  .00000041  00000+0  00000+0 0  9998
2 43508  65.6446  70.2835 0007499 213.8886 146.0774  2.13101916 64590
COSMOS 2529 (757)       
1 43687U 18086A   26277.04930760 -.00000013  00000+0  00000+0 0  9997
2 43687  64.2947 188.9218 0009600 253.5567 106.3725  2.13101831 61604
COSMOS 2534 (758)       
1 44299U 19030A   26277.06913633 -.00000014  00000+0  00000+0 0  9990
2 44299  64.3681 188.9537 0010847 276.7975 232.9843  2.13102037 57240
COSMOS 2544 (759)       
1 44850U 19088A   26276.89762172  .00000041  00000+0  00000+0 0  9995
2 44850  65.6324  70.1070 0012395 244.2616 115.6241  2.13102709 53035
COSMOS 2545 (760)       
1 45358U 20018A   26277.09252216 -.00000007  00000+0  00000+0 0  9993
2 45358  64.2845 308.5846 0012235 238.4109 121.5302  2.13102462 50987
COSMOS 2547 (705K)      
1 46805U 20075A   26275.87541425  .00000003  00000+0  00000+0 0  9996
2 46805  64.5996 188.8847 0007945 234.0044 125.9608  2.13099739 46206
COSMOS 2557 (706K)      
1 52984U 22075A   26276.97724722 -.00000011  00000+0  00000+0 0  9998
2 52984  64.2293 310.6462 0013029 270.1115  89.8012  2.13101995 33038
COSMOS 2559 (707K)      
1 54031U 22130A   26277.26640451 -.00000011  00000+0  00000+0 0  9994
2 54031  64.2017 310.7148 0013368 190.2357 169.7990  2.13101524 31012
COSMOS 2564 (761)       
1 54377U 22161A   26277.10937978 -.00000014  00000+0  00000+0 0  9990
2 54377  64.7413 189.0999 0010393 215.0568 144.9091  2.13101954 29950
COSMOS 2569 (703K)      
1 57517U 23114A   26277.12138207  .00000038  00000+0  00000+0 0  9993
2 57517  65.3708  68.9512 0008772 286.4094  73.5069  2.13102495 24580
COSMOS 2584 (704K)      
1 63130U 25042A   26275.60017059  .00000035  00000+0  00000+0 0  9992
2 63130  65.1526  69.1546 0006783 203.8155 156.1648  2.13103208 12339
COSMOS 2596 (708K)      
1 65590U 25206B   26276.62837278 -.00000012  00000+0  00000+0 0  9998
2 65590  64.5662 311.2030 0012811 301.5604 242.4760  2.13100475  8228
