GLOBALSTAR M069         
1 31573U 07020C   26269.16028119 -.00000098  00000+0 -47990-4 0  9992
2 31573  52.0053 326.3328 0001639   4.4648  23.1206 12.23474739891169
GLOBALSTAR M072         
1 31574U 07020D   26269.14306376 -.00000084  00000+0  13347-5 0  9999
2 31574  51.9922 191.4730 0001345 116.7653  20.9944 11.91659969887015
GLOBALSTAR M066         
1 32265U 07048C   26267.92746086 -.00000071  00000+0  19697-3 0  9995
2 32265  51.9571 131.5865 0003873 248.6771 223.6035 12.30390865872503
GLOBALSTAR M079         
1 37188U 10054A   26269.11869448 -.00000076  00000+0  15286-3 0  9991
2 37188  52.0023 161.4201 0000563  87.9612  76.6087 12.62262611735292
GLOBALSTAR M074         
1 37189U 10054B   26269.14521581 -.00000072  00000+0  17627-3 0  9995
2 37189  52.0006 160.5908 0000706  61.8390 102.2238 12.62263346735909
GLOBALSTAR M076         
1 37190U 10054C   26269.08856895 -.00000081  00000+0  12600-3 0  9995
2 37190  52.0016 160.9751 0000469  64.0326  82.5364 12.62263788735610
GLOBALSTAR M077         
1 37191U 10054D   26269.05231308 -.00000090  00000+0 -21238-3 0  9997
2 37191  51.9955 283.2869 0002787   5.4712  27.2621 11.67547528732927
GLOBALSTAR M075         
1 37192U 10054E   26269.17890472 -.00000100  00000+0  21522-4 0  9992
2 37192  51.9937 202.6961 0000663  69.6443  68.5337 12.62260695734691
GLOBALSTAR M073         
1 37193U 10054F   26268.94152529 -.00000071  00000+0  18316-3 0  9994
2 37193  52.0041 117.5959 0000585  91.2259  46.7902 12.62268300736655
GLOBALSTAR M083         
1 37739U 11033A   26268.62542425 -.00000110  00000+0 -33699-4 0  9998
2 37739  51.9860  66.6487 0000481 117.8946 322.6298 12.62269165705639
GLOBALSTAR M088         
1 37740U 11033B   26269.13957197 -.00000077  00000+0  15211-3 0  9993
2 37740  52.0238 331.7563 0000445 100.8655 277.8848 12.62270491701241
GLOBALSTAR M091         
1 37741U 11033C   26269.07588255 -.00000086  00000+0  96882-4 0  9996
2 37741  51.9993 294.7686 0000392 113.4864 275.2304 12.62265050702026
GLOBALSTAR M085         
1 37742U 11033D   26269.15349733 -.00000112  00000+0 -46881-4 0  9997
2 37742  52.0113 245.9112 0000382  98.5708 342.8928 12.62265430702546
GLOBALSTAR M081         
1 37743U 11033E   26269.09957022 -.00000113  00000+0 -50157-4 0  9999
2 37743  51.9946 248.3958 0000283  61.6769  14.9862 12.62266546702680
GLOBALSTAR M089         
1 37744U 11033F   26269.12494846 -.00000105  00000+0 -67147-5 0  9993
2 37744  51.9921 202.4577 0000717  43.2354 329.7517 12.62263795703532
GLOBALSTAR M084         
1 38040U 11080A   26268.93422144 -.00000102  00000+0  79964-5 0  9991
2 38040  52.0005  70.5701 0000572  78.6034  87.3412 12.62264192681488
GLOBALSTAR M080         
1 38041U 11080B   26268.71416270 -.00000099  00000+0  28719-4 0  9997
2 38041  52.0056  72.9967 0001163 102.2017 271.2315 12.62268669681587
GLOBALSTAR M082         
1 38042U 11080C   26268.67038365 -.00000119  00000+0 -86463-4 0  9992
2 38042  52.0095  28.6383 0000793 122.0132 344.2412 12.62262700682284
GLOBALSTAR M092         
1 38043U 11080D   26268.96945693 -.00000068  00000+0  19933-3 0  9995
2 38043  52.0065 118.1323 0000812  82.9176  62.5674 12.62266310680778
GLOBALSTAR M090         
1 38044U 11080E   26269.02799649 -.00000117  00000+0 -73321-4 0  9990
2 38044  52.0145  21.5378 0000688 129.7687  41.5418 12.62268024682446
GLOBALSTAR M086         
1 38045U 11080F   26268.63719418 -.00000103  00000+0  36547-5 0  9997
2 38045  51.9922  22.4906 0000542 256.7657 206.9792 12.62289337682343
GLOBALSTAR M097         
1 39072U 13005A   26269.12231522 -.00000087  00000+0  92569-4 0  9993
2 39072  52.0046 296.0792 0000334 117.8863 242.2037 12.62271508629651
GLOBALSTAR M093         
1 39073U 13005B   26269.01664624 -.00000086  00000+0  10062-3 0  9991
2 39073  52.0102 289.7893 0000312 152.0228 208.0656 12.62267379629599
GLOBALSTAR M094         
1 39074U 13005C   26269.09576625 -.00000116  00000+0 -67941-4 0  9997
2 39074  51.9948 203.5630 0000404  80.7009 279.3903 12.62264732631213
GLOBALSTAR M096         
1 39075U 13005D   26269.10907816 -.00000115  00000+0 -63132-4 0  9997
2 39075  52.0060 252.4023 0000409  98.3513 261.7400 12.62264601630132
GLOBALSTAR M078         
1 39076U 13005E   26268.92427633 -.00000062  00000+0  23282-3 0  9992
2 39076  51.9900 336.8409 0001420 122.0077 238.0928 12.62259283628738
GLOBALSTAR M095         
1 39077U 13005F   26268.87159919 -.00000085  00000+0  10669-3 0  9996
2 39077  52.0106 334.7461 0000751 135.2415 224.8512 12.62264565628586
GLOBALSTAR M087         
1 52888U 22064A   26268.96391595 -.00000079  00000+0  13596-3 0  9999
2 52888  51.9976 115.6443 0000796 102.3800 257.7156 12.62263202203868
