GPS BIIR-5  (PRN 22)    
1 26407U 00040A   26277.20229534 -.00000015  00000+0  00000+0 0  9999
2 26407  54.8341 210.8364 0117201 304.2454 212.1215  2.00558425192135
GPS BIIR-8  (PRN 16)    
1 27663U 03005A   26276.55172929 -.00000004  00000+0  00000+0 0  9998
2 27663  54.8641 210.6674 0151306  53.8634 128.5961  2.00554592173482
GPS BIIR-11 (PRN 19)    
1 28190U 04009A   26277.11352288  .00000016  00000+0  00000+0 0  9992
2 28190  54.7470 271.2761 0118367 177.0571 205.6740  2.00572810165134
GPS BIIR-13 (PRN 02)    
1 28474U 04045A   26277.06394726 -.00000053  00000+0  00000+0 0  9996
2 28474  55.0654 320.5028 0172996 319.1844  91.0126  2.00560491160616
GPS BIIRM-1 (PRN 17)    
1 28874U 05038A   26277.12262648  .00000018  00000+0  00000+0 0  9997
2 28874  54.7977 268.7715 0128658 298.0547 119.9728  2.00558079154026
INMARSAT 4-F2 (SOUTHPA*)
1 28899U 05044A   26276.70591326 -.00000269  00000+0  00000+0 0  9991
2 28899   5.2367  43.7243 0002820 165.6494 200.6850  1.00271954 76611
GPS BIIRM-2 (PRN 31)    
1 29486U 06042A   26276.42833594  .00000012  00000+0  00000+0 0  9993
2 29486  54.7173 147.0384 0109282  57.7946 119.5072  2.00564424146569
GPS BIIRM-3 (PRN 12)    
1 29601U 06052A   26277.10976011 -.00000014  00000+0  00000+0 0  9994
2 29601  54.9192 209.6926 0086052  91.1812 269.8056  2.00563998145599
GPS BIIRM-4 (PRN 15)    
1 32260U 07047A   26276.91949197  .00000020  00000+0  00000+0 0  9993
2 32260  54.1832  75.5880 0168294  89.7720 272.1782  2.00575066138994
COSMOS 2433 (720)       
1 32275U 07052A   26277.25266365 -.00000011  00000+0  00000+0 0  9993
2 32275  65.5098 312.2577 0005932 232.1197 127.8908  2.13104090147383
GPS BIIRM-5 (PRN 29)    
1 32384U 07062A   26277.33040300  .00000016  00000+0  00000+0 0  9997
2 32384  54.9526 269.7555 0035860 170.3258 256.7008  2.00565874137703
COSMOS 2434 (721)       
1 32393U 07065A   26277.08697407 -.00000014  00000+0  00000+0 0  9997
2 32393  64.3178 188.2456 0002290  52.7500  69.4168  2.13101237146091
COSMOS 2436 (723)       
1 32395U 07065C   26274.83739057  .00000017  00000+0  00000+0 0  9999
2 32395  64.3266 188.3950 0017585   2.1813 326.0183  2.13100019145994
GPS BIIRM-6 (PRN 07)    
1 32711U 08012A   26276.82855448  .00000013  00000+0  00000+0 0  9994
2 32711  54.5065 145.5821 0211634 248.6916 109.1166  2.00553277135936
GPS BIIRM-8 (PRN 05)    
1 35752U 09043A   26277.31103573 -.00000080  00000+0  00000+0 0  9992
2 35752  56.2725  23.1750 0050764  86.4826 273.5618  2.00575687125544
COSMOS 2456 (730)       
1 36111U 09070A   26275.77866545  .00000032  00000+0  00000+0 0  9991
2 36111  65.0806  67.3066 0001327 338.6413  18.5871  2.13103500130715
COSMOS 2457 (733)       
1 36112U 09070B   26277.20478376  .00000033  00000+0  00000+0 0  9994
2 36112  65.0672  67.0998 0005924 136.0578   1.6497  2.13100731130751
COSMOS 2460 (732)       
1 36402U 10007C   26265.40205623 -.00000008  00000+0  00000+0 0  9993
2 36402  65.3592 311.1726 0002578 222.5647 222.5420  2.13101986128805
GPS BIIF-1  (PRN 25)    
1 36585U 10022A   26277.12451416 -.00000018  00000+0  00000+0 0  9998
2 36585  54.2552 204.1764 0116785  56.0456 293.7306  2.00610892119773
BEIDOU-2 IGSO-1 (C06)   
1 36828U 10036A   26256.66970756 -.00000130  00000+0  00000+0 0  9997
2 36828  54.3037 162.1610 0058541 217.4777 320.7749  1.00289463 58981
BEIDOU-2 G4 (C04)       
1 37210U 10057A   26277.30380183 -.00000124  00000+0  00000+0 0  9992
2 37210   3.9123  68.1477 0009060 181.6726  32.5633  1.00272625 58383
BEIDOU-2 IGSO-2 (C07)   
1 37256U 10068A   26276.79648902 -.00000172  00000+0  00000+0 0  9995
2 37256  47.3553 270.4706 0056823 216.6104 276.3377  1.00246455 57882
BEIDOU-2 IGSO-3 (C08)   
1 37384U 11013A   26277.26912575 -.00000176  00000+0  00000+0 0  9995
2 37384  62.5682  39.1344 0034854 185.0232 352.6809  1.00286657 56756
GSAT-8 (GAGAN/PRN 127)  
1 37605U 11022A   26277.18731204  .00000072  00000+0  00000+0 0  9994
2 37605   2.4057  80.3431 0007250 163.3529 251.7277  1.00270463 54310
BEIDOU-2 IGSO-4 (C09)   
1 37763U 11038A   26276.70233380 -.00000085  00000+0  00000+0 0  9990
2 37763  54.6008 164.7074 0160907 230.8100 323.4766  1.00263744 55735
GSAT0101 (GALILEO-PFM)  
1 37846U 11060A   26276.95323911 -.00000082  00000+0  00000+0 0  9991
2 37846  56.9497 338.8100 0000858 301.6803  58.3720  1.70475515 92972
GSAT0102 (GALILEO-FM2)  
1 37847U 11060B   26276.28762954 -.00000080  00000+0  00000+0 0  9990
2 37847  56.9506 338.8286 0002544 308.6002  48.6826  1.70475866 92968
COSMOS 2476 (744)       
1 37867U 11064A   26277.32665850  .00000038  00000+0  00000+0 0  9991
2 37867  65.3386  69.1912 0022996 230.5166 142.5944  2.13103545116093
COSMOS 2477 (745)       
1 37868U 11064B   26277.22963791  .00000038  00000+0  00000+0 0  9996
2 37868  65.3448  69.2749 0019905 230.4082 248.2773  2.13102715116085
COSMOS 2475 (743)       
1 37869U 11064C   26267.52397483  .00000043  00000+0  00000+0 0  9994
2 37869  65.3462  69.6239 0024905 245.5374 301.9912  2.13101751115885
BEIDOU-2 IGSO-5 (C10)   
1 37948U 11073A   26275.87592986 -.00000134  00000+0  00000+0 0  9996
2 37948  47.4897 270.1981 0116313 224.3445 288.3052  1.00273327 54214
LUCH 5A (SDCM/PRN 140)  
1 37951U 11074B   26277.20949881 -.00000057  00000+0  00000+0 0  9994
2 37951   9.0248  72.1810 0004573 140.7097  42.5326  1.00274298 54145
BEIDOU-2 G5 (C05)       
1 38091U 12008A   26277.11676505  .00000045  00000+0  00000+0 0  9994
2 38091   3.8394  68.8832 0007741 233.0600 171.6196  1.00273996 53464
BEIDOU-2 M3 (C11)       
1 38250U 12018A   26277.19108839 -.00000018  00000+0  00000+0 0  9991
2 38250  55.6610 301.1917 0023632 273.9637  85.8134  1.86229837 97975
BEIDOU-2 M4 (C12)       
1 38251U 12018B   26277.12355316 -.00000017  00000+0  00000+0 0  9998
2 38251  55.5608 300.3994 0014876 274.3082  85.5681  1.86229534 97975
SES-5 (EGNOS/PRN 136)   
1 38652U 12036A   26276.89230796  .00000000  00000+0  00000+0 0  9991
2 38652   0.0141 353.2306 0002334 206.8140 138.7568  1.00269504 45540
BEIDOU-2 M6 (C14)       
1 38775U 12050B   26276.29575256 -.00000004  00000+0  00000+0 0  9995
2 38775  56.6444  59.3271 0010548   2.5092 357.4996  1.86230714 95328
GSAT-10 (GAGAN/PRN 128) 
1 38779U 12051B   26276.90782138 -.00000178  00000+0  00000+0 0  9999
2 38779   0.0182 142.6863 0004116 339.9412 299.8404  1.00270447 51186
GPS BIIF-3  (PRN 24)    
1 38833U 12053A   26277.00641054  .00000020  00000+0  00000+0 0  9990
2 38833  53.6011 139.1369 0186757  67.8340 294.2224  2.00557204101627
GSAT0103 (GALILEO-FM3)  
1 38857U 12055A   26274.06143115  .00000044  00000+0  00000+0 0  9992
2 38857  55.8745  98.6386 0001492 306.3470  53.6908  1.70473312 86818
BEIDOU-2 G6 (C02)       
1 38953U 12059A   26276.88760065 -.00000186  00000+0  00000+0 0  9992
2 38953   4.6904  72.2706 0006463 318.5920  25.3174  1.00273336 50994
LUCH 5B (SDCM/PRN 125)  
1 38977U 12061A   26277.17318530 -.00000146  00000+0  00000+0 0  9996
2 38977  10.7150  48.7696 0006869 173.3385 196.8067  1.00271241 50706
COSMOS 2485 (747)       
1 39155U 13019A   26276.77806360  .00000040  00000+0  00000+0 0  9999
2 39155  65.4872  69.9644 0023556 225.9607 133.8588  2.13102890104598
GPS BIIF-4  (PRN 27)    
1 39166U 13023A   26276.87330857  .00000020  00000+0  00000+0 0  9998
2 39166  54.4281 264.5378 0143134  51.1975 310.0740  2.00563013 98068
IRNSS-1A                
1 39199U 13034A   26274.47906318  .00000078  00000+0  00000+0 0  9994
2 39199  35.9548  62.3510 0021227 181.6443 353.8436  1.00269028 48434
GPS BIIF-5  (PRN 30)    
1 39533U 14008A   26276.87462744  .00000013  00000+0  00000+0 0  9993
2 39533  53.6658 144.8829 0083564 231.5346 127.7938  2.00566794 91864
ASTRA 5B (EGNOS/PRN 123)
1 39617U 14011B   26277.10669667  .00000124  00000+0  00000+0 0  9993
2 39617   0.0784 303.6925 0003590 272.6389 218.3924  1.00272390 45753
COSMOS 2492 (754)       
1 39620U 14012A   26277.20625091 -.00000008  00000+0  00000+0 0  9994
2 39620  65.2287 310.2246 0012441 306.1614  53.7863  2.13103195 97567
IRNSS-1B                
1 39635U 14017A   26274.47888985  .00000108  00000+0  00000+0 0  9994
2 39635  28.7451 238.5781 0019588 191.5696 167.5751  1.00275866 45856
LUCH 5V (SDCM/PRN 141)  
1 39727U 14023A   26276.98130442 -.00000279  00000+0  00000+0 0  9999
2 39727   5.3992  68.5425 0003019 160.4043 231.7835  1.00272646 45454
GPS BIIF-6  (PRN 06)    
1 39741U 14026A   26277.15513438 -.00000063  00000+0  00000+0 0  9999
2 39741  56.4372 327.2697 0040033 323.9746  35.8178  2.00553059 90722
COSMOS 2500 (755)       
1 40001U 14032A   26276.43661667 -.00000008  00000+0  00000+0 0  9994
2 40001  65.1644 309.9893 0009559 208.2030 151.8072  2.13101405 95765
GPS BIIF-7  (PRN 09)    
1 40105U 14045A   26276.74485430  .00000035  00000+0  00000+0 0  9998
2 40105  55.4323  84.1416 0036636 120.6655 239.7270  2.00565281 88259
GSAT0201 (GALILEO 5)    
1 40128U 14050A   26261.66135895  .00000005  00000+0  00000+0 0  9998
2 40128  48.7780 269.5934 1687122 183.0003 175.8597  1.85519745 80051
GSAT0202 (GALILEO 6)    
1 40129U 14050B   26275.93014135  .00000011  00000+0  00000+0 0  9994
2 40129  48.7803 268.0930 1690531 184.2440 174.1283  1.85520101 82485
IRNSS-1C                
1 40269U 14061A   26277.05029141 -.00000170  00000+0  00000+0 0  9996
2 40269   6.7896  86.8361 0019477  10.7335  16.1704  1.00267822 43787
GPS BIIF-8  (PRN 03)    
1 40294U 14068A   26275.61953024 -.00000064  00000+0  00000+0 0  9999
2 40294  57.0563  26.8261 0066706  73.9643 286.7826  2.00557884 87361
COSMOS 2501 (702K)      
1 40315U 14075A   26277.16889824 -.00000015  00000+0  00000+0 0  9995
2 40315  63.6156 186.6023 0021797 208.8439 151.0734  2.13101232 92173
GPS BIIF-9  (PRN 26)    
1 40534U 15013A   26274.75621902  .00000013  00000+0  00000+0 0  9991
2 40534  53.1539 199.7736 0113903  41.5507 319.3294  2.00569592 83960
GSAT0203 (GALILEO 7)    
1 40544U 15017A   26273.79769036 -.00000072  00000+0  00000+0 0  9996
2 40544  56.7433 338.7158 0005862 259.5183 100.4835  1.70476060 71006
GSAT0204 (GALILEO 8)    
1 40545U 15017B   26258.80260670 -.00000102  00000+0  00000+0 0  9996
2 40545  56.7566 339.1450 0004699 240.9831 119.0222  1.70476021 33792
BEIDOU-3S IGSO-1S (C31) 
1 40549U 15019A   26277.00113421 -.00000163  00000+0  00000+0 0  9993
2 40549  48.9898 294.1397 0039026 201.4028 334.2533  1.00283571 42165
GPS BIIF-10 (PRN 08)    
1 40730U 15033A   26276.91631431  .00000018  00000+0  00000+0 0  9994
2 40730  53.9067 262.5957 0118228  30.7617 329.9245  2.00550384 82177
BEIDOU-3S M2S (C58)     
1 40748U 15037A   26276.25020859 -.00000014  00000+0  00000+0 0  9997
2 40748  54.7725 298.3158 0012165 262.6513  97.2528  1.86232109 76133
BEIDOU-3S M1S (C57)     
1 40749U 15037B   26275.37063080 -.00000014  00000+0  00000+0 0  9993
2 40749  54.7701 298.3319 0001844  34.1091 325.9452  1.86254815 76126
GSAT0206 (GALILEO 10)   
1 40890U 15045B   26259.96432677  .00000017  00000+0  00000+0 0  9990
2 40890  54.9240 219.0714 0002624 353.2075   6.7586  1.70473245 68605
BEIDOU-3S IGSO-2S (C56) 
1 40938U 15053A   26276.88403028 -.00000126  00000+0  00000+0 0  9992
2 40938  49.0623 257.4792 0065530 192.4859 337.2124  1.00279186 40441
GPS BIIF-11 (PRN 10)    
1 41019U 15062A   26276.96659045 -.00000071  00000+0  00000+0 0  9993
2 41019  57.0277  26.6305 0117013 231.3694 127.5932  2.00566752 80019
GSAT-15 (GAGAN/PRN 139) 
1 41028U 15065A   26277.06433941 -.00000271  00000+0  00000+0 0  9995
2 41028   0.0237 102.7720 0002083  91.2313 295.4475  1.00270407 39896
GSAT0209 (GALILEO 12)   
1 41174U 15079A   26275.97072623  .00000042  00000+0  00000+0 0  9991
2 41174  55.8972  98.3038 0003264  23.0658 336.9981  1.70473900 66614
GSAT0208 (GALILEO 11)   
1 41175U 15079B   26276.77772798  .00000043  00000+0  00000+0 0  9992
2 41175  55.8963  98.2784 0003033  33.4110 326.6588  1.70473745 67048
IRNSS-1E                
1 41241U 16003A   26276.74617836 -.00000295  00000+0  00000+0 0  9992
2 41241  33.4715  58.1834 0022468 180.5004 154.1407  1.00278309 39167
GPS BIIF-12 (PRN 32)    
1 41328U 16007A   26277.05461579  .00000038  00000+0  00000+0 0  9992
2 41328  55.5997  85.1445 0098252 247.3183 111.6716  2.00571435 78028
COSMOS 2514 (751)       
1 41330U 16008A   26277.15351345 -.00000006  00000+0  00000+0 0  9992
2 41330  64.9522 309.2594 0013761 212.8097 147.1664  2.13102569 82941
BEIDOU-2 IGSO-6 (C13)   
1 41434U 16021A   26276.87617786 -.00000159  00000+0  00000+0 0  9993
2 41434  60.3837  36.9680 0062455 228.8394 158.8521  1.00277787 38577
IRNSS-1G                
1 41469U 16027A   26276.37892076 -.00000343  00000+0  00000+0 0  9994
2 41469   5.4590  94.9520 0002427  48.2424 134.8624  1.00271293 38269
GSAT0211 (GALILEO 14)   
1 41549U 16030A   26275.14134772  .00000013  00000+0  00000+0 0  9996
2 41549  55.0694 218.7555 0003819 342.9952  16.9793  1.70472874 64490
GSAT0210 (GALILEO 13)   
1 41550U 16030B   26271.29228813  .00000016  00000+0  00000+0 0  9993
2 41550  55.0701 218.8591 0003477 255.7678 104.1641  1.70473473 64429
BEIDOU-2 G7 (C03)       
1 41586U 16037A   26276.98451111 -.00000365  00000+0  00000+0 0  9997
2 41586   1.9842  69.6602 0004832 348.4910  59.5099  1.00274806  7984
EUTELSAT 117 WEST B (W*)
1 41589U 16038B   26277.13862251 -.00000026  00000+0  00000+0 0  9994
2 41589   0.0115  51.1488 0000237  56.5693 198.0398  1.00274196 37759
GSAT0207 (GALILEO 15)   
1 41859U 16069A   26262.77251085  .00000026  00000+0  00000+0 0  9998
2 41859  55.5593  98.4673 0002817   1.3541 358.7217  1.70473989 61019
GSAT0212 (GALILEO 16)   
1 41860U 16069B   26275.53065538  .00000041  00000+0  00000+0 0  9991
2 41860  55.5673  98.1094 0003735  45.7024 314.3770  1.70473990 61487
GSAT0213 (GALILEO 17)   
1 41861U 16069C   26258.30017772  .00000003  00000+0  00000+0 0  9993
2 41861  55.5571  98.5941 0002003 331.4312  28.6313  1.70474479 61056
GSAT0214 (GALILEO 18)   
1 41862U 16069D   26264.89902317  .00000042  00000+0  00000+0 0  9996
2 41862  55.5585  98.4041 0001465   3.2419 356.8418  1.70474219 61295
SES-15 (WAAS/PRN 133)   
1 42709U 17026A   26277.30008714  .00000046  00000+0  00000+0 0  9993
2 42709   0.0364 333.6502 0000494 252.8464 125.3880  1.00267983  8525
QZS-2 (QZSS/PRN 194)    
1 42738U 17028A   26276.77481358 -.00000188  00000+0  00000+0 0  9994
2 42738  39.2714 241.5568 0747489 270.7063 279.5768  1.00255682  8716
QZS-3 (QZSS/PRN 199)    
1 42917U 17048A   26277.20152544 -.00000361  00000+0  00000+0 0  9999
2 42917   0.0545 201.8720 0002112   7.9591   2.6471  1.00275218 33356
COSMOS 2522 (752)       
1 42939U 17055A   26276.99103807 -.00000013  00000+0  00000+0 0  9998
2 42939  64.0783 188.1841 0008669 233.4183 126.5379  2.13101897 70294
QZS-4 (QZSS/PRN 195)    
1 42965U 17062A   26276.58449667 -.00000312  00000+0  00000+0 0  9999
2 42965  40.0363 342.0993 0750214 270.0863 110.9334  1.00268275 32893
BEIDOU-3 M1 (C19)       
1 43001U 17069A   26276.06104512 -.00000003  00000+0  00000+0 0  9995
2 43001  56.7913  59.5388 0007230 318.9428  41.0063  1.86230698 60616
BEIDOU-3 M2 (C20)       
1 43002U 17069B   26276.00005115 -.00000003  00000+0  00000+0 0  9999
2 43002  56.7902  59.5767 0005686   0.0346 359.9689  1.86230569 60608
GSAT0215 (GALILEO 19)   
1 43055U 17079A   26277.11977852 -.00000006  00000+0  00000+0 0  9990
2 43055  55.0466 218.5116 0002811 290.3289  69.6237  1.70473673 54846
GSAT0216 (GALILEO 20)   
1 43056U 17079B   26261.57308714  .00000017  00000+0  00000+0 0  9990
2 43056  55.0525 218.9384 0004502 291.2688  68.6566  1.70474060 54593
GSAT0217 (GALILEO 21)   
1 43057U 17079C   26265.89999000  .00000011  00000+0  00000+0 0  9998
2 43057  55.0493 218.8172 0003908 307.6838  52.2454  1.70473918 54653
GSAT0218 (GALILEO 22)   
1 43058U 17079D   26276.67860965 -.00000002  00000+0  00000+0 0  9995
2 43058  55.0455 218.5190 0004531 289.9808  69.9550  1.70473731 54869
BEIDOU-3 M7 (C27)       
1 43107U 18003A   26276.81645950 -.00000017  00000+0  00000+0 0  9995
2 43107  54.2284 298.5169 0002838 103.9882 256.0861  1.86228051 59379
BEIDOU-3 M8 (C28)       
1 43108U 18003B   26276.22258323 -.00000016  00000+0  00000+0 0  9994
2 43108  54.2219 298.5185 0004510 265.0217  94.9691  1.86230981 59372
BEIDOU-3 M4 (C22)       
1 43207U 18018A   26273.98152258 -.00000006  00000+0  00000+0 0  9999
2 43207  56.7484  59.6674 0005388  43.6939 316.3492  1.86230659 58716
BEIDOU-3 M3 (C21)       
1 43208U 18018B   26277.26976727 -.00000004  00000+0  00000+0 0  9998
2 43208  56.7509  59.5632 0005170 341.9087  18.0768  1.86230707 58777
BEIDOU-3 M9 (C29)       
1 43245U 18029A   26276.95140204 -.00000013  00000+0  00000+0 0  9999
2 43245  54.0938 296.1333 0001835 241.1324 118.8891  1.86227904 57928
BEIDOU-3 M10 (C30)      
1 43246U 18029B   26276.88520703 -.00000013  00000+0  00000+0 0  9998
2 43246  54.0911 296.1628 0002915  11.0233 349.0229  1.86229069 57905
IRNSS-1I                
1 43286U 18035A   26273.82550137  .00000090  00000+0  00000+0 0  9998
2 43286  28.9997  72.5521 0021176 177.3911 111.9514  1.00269041 31130
COSMOS 2527 (756)       
1 43508U 18053A   26276.95334939  .00000041  00000+0  00000+0 0  9998
2 43508  65.6446  70.2835 0007499 213.8886 146.0774  2.13101916 64590
BEIDOU-2 IGSO-7 (C16)   
1 43539U 18057A   26276.61038697 -.00000137  00000+0  00000+0 0  9998
2 43539  55.2112 162.1303 0107986 236.3109 306.1831  1.00270707 30215
GSAT0221 (GALILEO 25)   
1 43564U 18060A   26265.43785046 -.00000078  00000+0  00000+0 0  9999
2 43564  57.1298 339.1540 0004899 270.7276  89.2757  1.70476363 50811
GSAT0222 (GALILEO 26)   
1 43565U 18060B   26276.21615640 -.00000079  00000+0  00000+0 0  9991
2 43565  57.1287 338.8658 0005461 248.8761 111.1275  1.70475516 51053
GSAT0219 (GALILEO 23)   
1 43566U 18060C   26277.02348734 -.00000082  00000+0  00000+0 0  9993
2 43566  57.1277 338.8452 0004360 274.9994  85.0117  1.70476045 51041
GSAT0220 (GALILEO 24)   
1 43567U 18060D   26259.06046684 -.00000101  00000+0  00000+0 0  9999
2 43567  57.1352 339.3320 0003721 269.4250  90.5848  1.70476412 50724
BEIDOU-3 M5 (C23)       
1 43581U 18062A   26277.10920828 -.00000020  00000+0  00000+0 0  9993
2 43581  54.0805 178.6030 0003447 321.7816  38.2419  1.86228527 55666
BEIDOU-3 M6 (C24)       
1 43582U 18062B   26276.97311672 -.00000019  00000+0  00000+0 0  9997
2 43582  54.0801 178.5967 0006975  36.7048 323.3914  1.86227863 55660
BEIDOU-3 M12 (C26)      
1 43602U 18067A   26276.91172832 -.00000018  00000+0  00000+0 0  9991
2 43602  54.1766 177.3553 0009116  39.4121 320.7049  1.86227532 55140
BEIDOU-3 M11 (C25)      
1 43603U 18067B   26277.04707773 -.00000019  00000+0  00000+0 0  9996
2 43603  54.1739 177.3141 0005490  30.3455 329.7366  1.86227038 55170
BEIDOU-3 M13 (C32)      
1 43622U 18072A   26277.00079072 -.00000005  00000+0  00000+0 0  9998
2 43622  56.7246  59.0764 0004041 320.9701  39.0045  1.86230790 54681
BEIDOU-3 M14 (C33)      
1 43623U 18072B   26276.86620657 -.00000005  00000+0  00000+0 0  9993
2 43623  56.7263  59.0753 0003213  22.7122 337.3058  1.86230782 54671
BEIDOU-3 M16 (C35)      
1 43647U 18078A   26277.01999550 -.00000014  00000+0  00000+0 0  9994
2 43647  53.9895 296.1588 0006206  29.3108 330.7639  1.86232222 54188
BEIDOU-3 M15 (C34)      
1 43648U 18078B   26277.15113850 -.00000014  00000+0  00000+0 0  9991
2 43648  53.9851 296.1542 0002761  31.0937 328.9626  1.86227305 54207
BEIDOU-3 G1 (C59)       
1 43683U 18085A   26277.33673554 -.00000121  00000+0  00000+0 0  9999
2 43683   2.6637  94.2741 0005109  28.3654 171.6871  1.00270691 29154
COSMOS 2529 (757)       
1 43687U 18086A   26277.04930760 -.00000013  00000+0  00000+0 0  9997
2 43687  64.2947 188.9218 0009600 253.5567 106.3725  2.13101831 61604
BEIDOU-3 M17 (C36)      
1 43706U 18093A   26276.36761834 -.00000012  00000+0  00000+0 0  9994
2 43706  54.1640 178.6285 0007867 306.4113 139.9258  1.86228163 53557
BEIDOU-3 M18 (C37)      
1 43707U 18093B   26276.10324881 -.00000009  00000+0  00000+0 0  9990
2 43707  54.1648 178.6298 0007187 344.1579  15.8715  1.86226525 53549
GPS BIII-1  (PRN 04)    
1 43873U 18109A   26276.94482241  .00000041  00000+0  00000+0 0  9994
2 43873  55.7569  87.8971 0040497 196.2712 336.0584  2.00565478 57251
BEIDOU-3 IGSO-1 (C38)   
1 44204U 19023A   26276.74233656 -.00000212  00000+0  00000+0 0  9992
2 44204  58.8494  36.5415 0028278 224.4771 136.5121  1.00259561  8301
BEIDOU-2 G8 (C01)       
1 44231U 19027A   26277.34191655 -.00000260  00000+0  00000+0 0  9998
2 44231   1.9284  74.1930 0008897 275.2359 291.2447  1.00274287 27176
COSMOS 2534 (758)       
1 44299U 19030A   26277.06913633 -.00000014  00000+0  00000+0 0  9990
2 44299  64.3681 188.9537 0010847 276.7975 232.9843  2.13102037 57240
BEIDOU-3 IGSO-2 (C39)   
1 44337U 19035A   26276.88461395 -.00000146  00000+0  00000+0 0  9996
2 44337  55.2496 157.9072 0038654 210.3956  82.2484  1.00266463 26753
GPS BIII-2  (PRN 18)    
1 44506U 19056A   26277.23746891 -.00000064  00000+0  00000+0 0  9993
2 44506  55.5764 326.8023 0066414 200.7311  88.9790  2.00571511 52259
BEIDOU-3 M24 (C46)      
1 44542U 19061A   26266.50572373 -.00000008  00000+0  00000+0 0  9997
2 44542  54.4306 179.4090 0020747  95.6918 264.5686  1.86175926 47622
BEIDOU-3 M23 (C45)      
1 44543U 19061B   26277.07719566 -.00000020  00000+0  00000+0 0  9993
2 44543  54.3901 179.0261 0006092   9.5296 149.4088  1.86227521 47827
EUTELSAT 5 WEST B (EGN*)
1 44624U 19067A   26277.24667897 -.00000056  00000+0  00000+0 0  9996
2 44624   0.0643   5.4206 0003215 192.2973 259.0486  1.00271766 25524
BEIDOU-3 IGSO-3 (C40)   
1 44709U 19073A   26276.41522309 -.00000161  00000+0  00000+0 0  9990
2 44709  54.6205 279.7170 0046501 198.5774 161.2550  1.00257070 25546
BEIDOU-3 M22 (C44)      
1 44793U 19078A   26277.08549420 -.00000014  00000+0  00000+0 0  9992
2 44793  53.8350 295.9858 0004858  37.3879 322.6855  1.86227105 46677
BEIDOU-3 M21 (C43)      
1 44794U 19078B   26277.22513370 -.00000015  00000+0  00000+0 0  9995
2 44794  53.8080 295.9395 0002870  26.4145 333.6397  1.86227524 46680
COSMOS 2544 (759)       
1 44850U 19088A   26276.89762172  .00000041  00000+0  00000+0 0  9995
2 44850  65.6324  70.1070 0012395 244.2616 115.6241  2.13102709 53035
BEIDOU-3 M19 (C41)      
1 44864U 19090A   26277.16164838 -.00000005  00000+0  00000+0 0  9990
2 44864  56.6594  59.1962 0016006 291.2210 224.3893  1.86231104 46260
BEIDOU-3 M20 (C42)      
1 44865U 19090B   26274.64695360 -.00000005  00000+0  00000+0 0  9990
2 44865  56.6584  59.3138 0013063 306.5891  52.6240  1.86231074 46198
BEIDOU-3 G2 (C60)       
1 45344U 20017A   26276.90540752 -.00000151  00000+0  00000+0 0  9991
2 45344   2.6258  48.7083 0002665 157.0423 212.8758  1.00272143 24353
COSMOS 2545 (760)       
1 45358U 20018A   26277.09252216 -.00000007  00000+0  00000+0 0  9993
2 45358  64.2845 308.5846 0012235 238.4109 121.5302  2.13102462 50987
BEIDOU-3 G3 (C61)       
1 45807U 20040A   26277.05575144 -.00000365  00000+0  00000+0 0  9998
2 45807   2.7092  67.3456 0003093 274.4106 161.6248  1.00268250 23160
GPS BIII-3  (PRN 23)    
1 45854U 20041A   26277.15955233 -.00000076  00000+0  00000+0 0  9992
2 45854  56.7351  24.7248 0068788 206.6263 321.0757  2.00572797 46222
GALAXY 30 (WAAS/PRN 135)
1 46114U 20056C   26277.30141973  .00000000  00000+0  00000+0 0  9999
2 46114   0.0194 184.2183 0002504  18.7733 153.5141  1.00270572 22388
COSMOS 2547 (705K)      
1 46805U 20075A   26275.87541425  .00000003  00000+0  00000+0 0  9996
2 46805  64.5996 188.8847 0007945 234.0044 125.9608  2.13099739 46206
GPS BIII-4  (PRN 14)    
1 46826U 20078A   26277.19225763 -.00000018  00000+0  00000+0 0  9990
2 46826  53.9632 206.3620 0076558 208.4289 322.0725  2.00564841 43692
GPS BIII-5  (PRN 11)    
1 48859U 21054A   26277.28834799 -.00000067  00000+0  00000+0 0  9992
2 48859  55.1142 328.0681 0029088 231.7855 193.8200  2.00562252 38941
QZS-1R (QZSS/PRN 196)   
1 49336U 21096A   26276.33844385 -.00000222  00000+0  00000+0 0  9999
2 49336  37.6872  77.9862 0745233 270.2015 280.5640  1.00280412 18091
GSAT0223 (GALILEO 27)   
1 49809U 21116A   26276.49635788 -.00000080  00000+0  00000+0 0  9991
2 49809  57.1161 338.7480 0004417 229.7943 121.9438  1.70475928 30024
GSAT0224 (GALILEO 28)   
1 49810U 21116B   26276.34895508 -.00000080  00000+0  00000+0 0  9995
2 49810  57.1169 338.7508 0003647 227.7416 146.1828  1.70476067 30052
COSMOS 2557 (706K)      
1 52984U 22075A   26276.97724722 -.00000011  00000+0  00000+0 0  9998
2 52984  64.2293 310.6462 0013029 270.1115  89.8012  2.13101995 33038
COSMOS 2559 (707K)      
1 54031U 22130A   26277.26640451 -.00000011  00000+0  00000+0 0  9994
2 54031  64.2017 310.7148 0013368 190.2357 169.7990  2.13101524 31012
COSMOS 2564 (761)       
1 54377U 22161A   26277.10937978 -.00000014  00000+0  00000+0 0  9990
2 54377  64.7413 189.0999 0010393 215.0568 144.9091  2.13101954 29950
GPS BIII-6  (PRN 28)    
1 55268U 23009A   26276.89040128  .00000016  00000+0  00000+0 0  9990
2 55268  55.1308 144.2429 0005691 330.4244 207.4091  2.00563647 27428
BEIDOU-3 G4 (C62)       
1 56564U 23066A   26277.34191655 -.00000295  00000+0  00000+0 0  9996
2 56564   0.4455   3.6252 0005810 209.7951  62.7846  1.00272617 12485
NVS-01 (IRNSS-1J)       
1 56759U 23076A   26277.27337243 -.00000353  00000+0  00000+0 0  9995
2 56759   1.9162 239.2284 0006685   6.0352 355.5889  1.00265726 12212
COSMOS 2569 (703K)      
1 57517U 23114A   26277.12138207  .00000038  00000+0  00000+0 0  9993
2 57517  65.3708  68.9512 0008772 286.4094  73.5069  2.13102495 24580
BEIDOU-3 M28 (C50)      
1 58654U 23207A   26277.30168102 -.00000009  00000+0  00000+0 0  9995
2 58654  55.8549  58.6296 0000072 355.6379   4.3658  1.86229491 18871
BEIDOU-3 M26 (C48)      
1 58655U 23207B   26276.56224877 -.00000007  00000+0  00000+0 0  9993
2 58655  55.8562  58.6411 0001539 243.0280 116.9602  1.86229366 18843
GSAT0225 (GALILEO 29)   
1 59598U 24079A   26276.08766956  .00000040  00000+0  00000+0 0  9990
2 59598  55.1917  98.0636 0001740 130.4849  76.2186  1.70474015 15150
GSAT0227 (GALILEO 30)   
1 59600U 24079C   26276.52101073  .00000041  00000+0  00000+0 0  9997
2 59600  55.1859  98.0495 0004338  99.3745 260.7245  1.70474200 15215
GSAT0232 (GALILEO 32)   
1 61182U 24167A   26276.45702278  .00000001  00000+0  00000+0 0  9995
2 61182  55.1590 218.3461 0005042 234.4061 301.9791  1.70473243 12724
GSAT0226 (GALILEO 31)   
1 61183U 24167B   26277.24278604 -.00000008  00000+0  00000+0 0  9993
2 61183  55.1576 218.3317 0001769 246.8167 143.1381  1.70473242 12714
BEIDOU-3 M25 (C47)      
1 61186U 24168B   26276.65269970 -.00000016  00000+0  00000+0 0  9996
2 61186  54.3744 298.4620 0004773 290.5849 247.8726  1.86229792 13804
BEIDOU-3 M27 (C49)      
1 61187U 24168C   26277.30960097 -.00000017  00000+0  00000+0 0  9999
2 61187  54.3692 298.4214 0001236 322.9550  70.9815  1.86229928 11292
GPS BIII-7  (PRN 01)    
1 62339U 24242A   26277.08270822 -.00000070  00000+0  00000+0 0  9996
2 62339  54.7942 329.7612 0019957   2.5366  37.0278  2.00555182 13446
QZS-6 (QZSS/PRN 200)    
1 62876U 25023A   26277.06433941 -.00000246  00000+0  00000+0 0  9996
2 62876   0.0019 109.9197 0002186 102.8172 273.7233  1.00269198  6048
COSMOS 2584 (704K)      
1 63130U 25042A   26275.60017059  .00000035  00000+0  00000+0 0  9992
2 63130  65.1526  69.1546 0006783 203.8155 156.1648  2.13103208 12339
GPS BIII-8  (PRN 21)    
1 64202U 25116A   26260.32003325 -.00000081  00000+0  00000+0 0  9991
2 64202  55.2945  27.4305 0009051 334.7424  24.4974  2.00569444  9710
COSMOS 2596 (708K)      
1 65590U 25206B   26276.62837278 -.00000012  00000+0  00000+0 0  9998
2 65590  64.5662 311.2030 0012811 301.5604 242.4760  2.13100475  8228
GSAT0233 (GALILEO 33)   
1 67160U 25302A   26276.46131672  .00000039  00000+0  00000+0 0  9995
2 67160  54.4075  99.0448 0003147 141.5900 225.4748  1.70473982  4979
GSAT0234 (GALILEO 34)   
1 67162U 25302C   26275.56730789  .00000038  00000+0  00000+0 0  9990
2 67162  54.4082  99.0694 0000468  93.1844 265.3020  1.70473970  5002
GPS BIII-9  (PRN 20)    
1 67588U 26017A   26276.88425860  .00000035  00000+0  00000+0 0  9990
2 67588  55.1658  84.3947 0020845 264.6059  95.1871  2.00568204433796
GPS BIII-10 (PRN 13)    
1 68791U 26087A   26264.30264354 -.00000012  00000+0  00000+0 0  9993
2 68791  54.9540 203.9902 0021764 102.4142  19.8323  2.00578319  2765
