EWS-G3 (GOES 14)        
1 35491U 09033A   26277.22614139 -.00000002  00000+0  00000+0 0  9990
2 35491   1.9651  81.4783 0002270 117.4563 324.4963  1.00070174  7687
EWS-G2 (GOES 15)        
1 36411U 10008A   26277.24280987  .00000008  00000+0  00000+0 0  9994
2 36411   1.5722  81.7392 0004800  93.6919 348.2543  1.00272449 60737
GOES 16                 
1 41866U 16071A   26277.30947663 -.00000105  00000+0  00000+0 0  9997
2 41866   0.6053  83.9994 0002277 148.9944 146.7397  1.00270957 36197
GOES 17                 
1 43226U 18022A   26277.31639499 -.00000196  00000+0  00000+0 0  9993
2 43226   1.2122  83.8371 0001267 159.5559 154.0304  1.00272363 31513
GOES 18                 
1 51850U 22021A   26277.32227709  .00000082  00000+0  00000+0 0  9990
2 51850   0.0395   1.6401 0000617 260.9864  89.4276  1.00270861  7681
GOES 19                 
1 60133U 24119A   26277.23281223 -.00000262  00000+0  00000+0 0  9996
2 60133   0.0401  26.0211 0000969 246.3790 109.1645  1.00270062  8054
