HULIANWANG DIGUI-01     
1 62323U 24240A   26275.72999301  .00000049  00000+0  80178-4 0  9990
2 62323  86.4959 306.9692 0001575  91.4232 268.7083 13.24414904 86878
HULIANWANG DIGUI-02     
1 62324U 24240B   26275.51081614  .00000057  00000+0  97528-4 0  9993
2 62324  86.4990 307.2327 0001602  90.6964 269.4354 13.24414922 86854
HULIANWANG DIGUI-03     
1 62325U 24240C   26275.57140101  .00000052  00000+0  86684-4 0  9993
2 62325  86.4942 306.9066 0001561  93.9724 266.1589 13.24413576 86850
HULIANWANG DIGUI-04     
1 62326U 24240D   26275.56384933  .00000046  00000+0  72848-4 0  9996
2 62326  86.4951 306.9597 0001445  95.9794 264.1505 13.24413804 86850
HULIANWANG DIGUI-05     
1 62327U 24240E   26275.55625664  .00000026  00000+0  27078-4 0  9998
2 62327  86.5004 307.2883 0001444  99.9069 260.2228 13.24414595 86858
HULIANWANG DIGUI-06     
1 62328U 24240F   26275.54129621  .00000009  00000+0 -13918-4 0  9990
2 62328  86.4941 306.8850 0001409  89.7866 270.3430 13.24412037 86856
HULIANWANG DIGUI-07     
1 62329U 24240G   26275.53357298  .00000014  00000+0 -62068-6 0  9991
2 62329  86.4911 306.6954 0001522  91.6734 268.4574 13.24414747 86856
HULIANWANG DIGUI-08     
1 62330U 24240H   26275.54867894  .00000022  00000+0  17385-4 0  9990
2 62330  86.4996 307.2308 0001390 101.3763 258.7528 13.24414933 86853
HULIANWANG DIGUI-09     
1 62331U 24240J   26275.52609196  .00000023  00000+0  19614-4 0  9996
2 62331  86.4962 307.0641 0001574  93.4041 266.7274 13.24413487 86848
HULIANWANG DIGUI-10     
1 62332U 24240K   26275.51849270  .00000042  00000+0  64212-4 0  9990
2 62332  86.4992 307.2511 0001469  91.3029 268.8273 13.24414372 86842
HULIANWANG DIGUI-11     
1 62971U 25030A   26275.51649086 -.00000103  00000+0  45372-4 0  9995
2 62971  50.0001 210.8560 0000714  82.1793 277.9160 13.29327951 80133
HULIANWANG DIGUI-12     
1 62972U 25030B   26275.52494313 -.00000094  00000+0  63930-4 0  9997
2 62972  50.0017 210.9708 0000712  79.1541 280.9412 13.29325750 80130
HULIANWANG DIGUI-13     
1 62973U 25030C   26275.50803243 -.00000097  00000+0  58862-4 0  9993
2 62973  50.0021 210.9006 0000649  63.9809 296.1130 13.29327573 80135
HULIANWANG DIGUI-14     
1 62974U 25030D   26275.55818041 -.00000093  00000+0  67302-4 0  9996
2 62974  50.0026 210.5266 0000597  63.8232 296.2701 13.29328100 80149
HULIANWANG DIGUI-15     
1 62975U 25030E   26275.49968915 -.00000085  00000+0  83076-4 0  9993
2 62975  50.0021 210.8604 0000619  72.5509 287.5431 13.29327978 80137
HULIANWANG DIGUI-16     
1 62976U 25030F   26275.70022845 -.00000090  00000+0  73895-4 0  9995
2 62976  50.0043 210.0241 0000633  62.5900 297.5037 13.29328967 80166
HULIANWANG DIGUI-17     
1 62977U 25030G   26275.54140701 -.00000093  00000+0  66747-4 0  9991
2 62977  50.0056 210.5784 0000746  70.3692 289.7261 13.29329357 80142
HULIANWANG DIGUI-18     
1 62978U 25030H   26275.53316453 -.00000093  00000+0  66503-4 0  9990
2 62978  50.0060 210.5528 0000779  71.2987 288.7970 13.29326709 80141
HULIANWANG DIGUI-19     
1 62979U 25030J   26275.56698066 -.00000087  00000+0  79687-4 0  9997
2 62979  50.0045 210.6610 0000766  63.1877 296.9073 13.29322300 80140
HULIANWANG DIGUI-20     
1 63687U 25086A   26275.52981993 -.00000163  00000+0 -41389-3 0  9998
2 63687  86.4976 276.9615 0001592  77.6439 282.4873 13.24409360 69080
HULIANWANG DIGUI-21     
1 63688U 25086B   26275.53748848 -.00000066  00000+0 -18779-3 0  9999
2 63688  86.5004 277.0460 0001671  74.3236 285.8082 13.24408069 69074
HULIANWANG DIGUI-22     
1 63689U 25086C   26275.54498521 -.00000156  00000+0 -39792-3 0  9999
2 63689  86.4969 276.8752 0001544  78.4124 281.7184 13.24408184 69071
HULIANWANG DIGUI-23     
1 63690U 25086D   26275.56008453 -.00000058  00000+0 -16961-3 0  9998
2 63690  86.5011 277.0917 0001596  78.1560 281.9753 13.24408300 69070
HULIANWANG DIGUI-24     
1 63691U 25086E   26275.56764105 -.00000054  00000+0 -15945-3 0  9999
2 63691  86.5018 277.1297 0001634  75.1264 285.0051 13.24408808 69070
HULIANWANG DIGUI-25     
1 63692U 25086F   26275.72632446 -.00000054  00000+0 -16026-3 0  9991
2 63692  86.4956 276.7731 0001652  78.5405 281.5914 13.24408275 69092
HULIANWANG DIGUI-26     
1 63693U 25086G   26275.55258737 -.00000054  00000+0 -15913-3 0  9994
2 63693  86.5005 277.0574 0001484  69.8373 290.2921 13.24407398 69076
HULIANWANG DIGUI-27     
1 63694U 25086H   26275.50709892 -.00000148  00000+0 -37839-3 0  9998
2 63694  86.4966 276.9009 0001597  75.7141 284.4171 13.24409971 69067
HULIANWANG DIGUI-28     
1 63695U 25086J   26275.52225130 -.00000063  00000+0 -17988-3 0  9998
2 63695  86.4930 276.7275 0001544  78.8806 281.2502 13.24409082 69062
HULIANWANG DIGUI-29     
1 63696U 25086K   26275.59025837 -.00000059  00000+0 -17150-3 0  9994
2 63696  86.4959 276.8415 0001698  76.5900 283.5423 13.24409562 69072
HULIANWANG DIGUI-30     
1 64283U 25121A   26275.52231304  .00000049  00000+0  79149-4 0  9992
2 64283  86.5027 337.3674 0001812 109.2879 250.8451 13.24411416 64365
HULIANWANG DIGUI-31     
1 64284U 25121B   26275.51458025  .00000050  00000+0  83253-4 0  9996
2 64284  86.5047 337.4622 0001790 108.8026 251.3303 13.24412762 64363
HULIANWANG DIGUI-32     
1 64285U 25121C   26275.50702039  .00000059  00000+0  10307-3 0  9991
2 64285  86.4988 337.1746 0001724 104.9688 255.1637 13.24413370 64367
HULIANWANG DIGUI-33     
1 64286U 25121D   26275.57504697  .00000055  00000+0  94565-4 0  9994
2 64286  86.5046 337.4246 0001784 109.1790 250.9537 13.24412969 64375
HULIANWANG DIGUI-34     
1 64287U 25121E   26275.56748844  .00000030  00000+0  35050-4 0  9995
2 64287  86.5023 337.3135 0001924 118.3371 241.7957 13.24413367 64377
HULIANWANG DIGUI-35     
1 64956U 25159A   26275.52989759  .00000035  00000+0  46891-4 0  9997
2 64956  86.4917 246.1463 0003159 153.0558 207.0741 13.24404913 57338
HULIANWANG DIGUI-36     
1 64957U 25159B   26275.52625718  .00000028  00000+0  30507-4 0  9999
2 64957  86.4936 246.2283 0002243  78.3788 281.7598 13.24400702 57339
HULIANWANG DIGUI-37     
1 64958U 25159C   26275.51864323  .00000035  00000+0  47397-4 0  9999
2 64958  86.4878 245.9736 0002129  82.2591 277.8785 13.24401380 57330
HULIANWANG DIGUI-38     
1 64959U 25159D   26275.58668538  .00000042  00000+0  63490-4 0  9997
2 64959  86.4937 246.1956 0002071  82.0831 278.0538 13.24401463 57347
HULIANWANG DIGUI-39     
1 64960U 25159E   26275.57913148  .00000056  00000+0  96977-4 0  9999
2 64960  86.4913 246.0888 0002082  79.3478 280.7891 13.24400913 57345
HULIANWANG DIGUI-40     
1 65043U 25162A   26275.52230789 -.00000094  00000+0  65646-4 0  9996
2 65043  49.9986 240.9431 0000846 333.0587  27.0241 13.29328398 57629
HULIANWANG DIGUI-41     
1 65044U 25162B   26275.43875649 -.00000098  00000+0  56377-4 0  9992
2 65044  49.9996 241.2028 0000882 333.4856  26.5971 13.29325510 57627
HULIANWANG DIGUI-42     
1 65045U 25162C   26275.58085277 -.00000093  00000+0  67588-4 0  9990
2 65045  49.9961 240.5035 0000850 331.7237  28.3589 13.29326088 57647
HULIANWANG DIGUI-43     
1 65046U 25162D   26275.42203774 -.00000086  00000+0  81721-4 0  9995
2 65046  49.9978 241.0579 0000776 332.6819  27.4012 13.29327035 57620
HULIANWANG DIGUI-44     
1 65047U 25162E   26275.41398012 -.00000089  00000+0  76071-4 0  9990
2 65047  50.0005 241.1061 0000980 254.6374 105.4390 13.29322895 57634
HULIANWANG DIGUI-45     
1 65048U 25162F   26275.40535601 -.00000087  00000+0  80724-4 0  9995
2 65048  50.0036 241.1626 0000846 331.6147  28.4678 13.29327703 57626
HULIANWANG DIGUI-46     
1 65049U 25162G   26275.39698732 -.00000083  00000+0  88798-4 0  9994
2 65049  50.0053 241.1797 0000807 335.2644  24.8190 13.29322548 57625
HULIANWANG DIGUI-47     
1 65050U 25162H   26275.46377381 -.00000088  00000+0  78181-4 0  9998
2 65050  50.0018 240.7481 0000827 337.0167  23.0668 13.29331077 57634
HULIANWANG DIGUI-48     
1 65051U 25162J   26275.45545671 -.00000099  00000+0  54188-4 0  9990
2 65051  50.0028 240.7379 0000808 332.8372  27.2457 13.29327063 57634
HULIANWANG DIGUI-49     
1 65106U 25168A   26275.51788095 -.00000087  00000+0  78983-4 0  9999
2 65106  50.0032 301.0152 0007432  61.0825 299.0792 13.29326978 56964
HULIANWANG DIGUI-50     
1 65107U 25168B   26275.58465419 -.00000090  00000+0  74433-4 0  9999
2 65107  50.0002 300.5981 0008252  46.3824 313.7732 13.29326763 56973
HULIANWANG DIGUI-51     
1 65108U 25168C   26275.50066153 -.00000079  00000+0  96170-4 0  9993
2 65108  50.0039 300.9491 0009593  46.3348 313.8318 13.29323801 56964
HULIANWANG DIGUI-52     
1 65109U 25168D   26275.56780138 -.00000092  00000+0  69650-4 0  9994
2 65109  50.0033 300.6102 0009614  59.9303 300.2521 13.29328180 56972
HULIANWANG DIGUI-53     
1 65110U 25168E   26275.55913266 -.00000091  00000+0  71076-4 0  9999
2 65110  50.0041 300.5993 0008274  49.4171 310.7420 13.29325513 56979
HULIANWANG DIGUI-54     
1 65111U 25168F   26275.53417512 -.00000085  00000+0  84017-4 0  9993
2 65111  49.9991 300.3008 0009982  54.9303 305.2504 13.29331790 56977
HULIANWANG DIGUI-55     
1 65112U 25168G   26275.55105095 -.00000091  00000+0  71149-4 0  9995
2 65112  49.9997 300.4049 0011074  51.3971 308.7892 13.29317518 56977
HULIANWANG DIGUI-56     
1 65113U 25168H   26275.54277171 -.00000093  00000+0  66730-4 0  9992
2 65113  49.9988 300.3330 0011000  72.6548 287.5527 13.29327230 56976
HULIANWANG DIGUI-57     
1 65114U 25168J   26275.52586546 -.00000081  00000+0  92658-4 0  9995
2 65114  50.0016 300.3454 0008711  63.0512 297.1249 13.29331703 56988
HULIANWANG DIGUI-58     
1 65164U 25174A   26275.54550231  .00000062  00000+0  11058-3 0  9993
2 65164  86.5012 215.7703 0002096  70.3973 289.7387 13.24400784 55004
HULIANWANG DIGUI-59     
1 65165U 25174B   26275.55309376  .00000072  00000+0  13409-3 0  9990
2 65165  86.4974 215.6179 0002005  71.2469 288.8883 13.24400750 55001
HULIANWANG DIGUI-60     
1 65166U 25174C   26275.56066775  .00000072  00000+0  13419-3 0  9996
2 65166  86.5006 215.7495 0002072  68.5429 291.5926 13.24400067 55000
HULIANWANG DIGUI-61     
1 65167U 25174D   26275.56820822  .00000062  00000+0  11040-3 0  9995
2 65167  86.5014 215.7867 0002250  69.9975 290.1401 13.24400610 55009
HULIANWANG DIGUI-62     
1 65168U 25174E   26275.72663576  .00000051  00000+0  85566-4 0  9998
2 65168  86.4956 215.5037 0002161  66.5649 293.5712 13.24402549 55020
HULIANWANG DIGUI-63     
1 65169U 25174F   26275.58336734  .00000037  00000+0  52786-4 0  9998
2 65169  86.5008 215.7686 0002269  67.0873 293.0500 13.24396655 55004
HULIANWANG DIGUI-64     
1 65170U 25174G   26275.51528845  .00000028  00000+0  30367-4 0  9990
2 65170  86.4967 215.6332 0002098  67.1646 292.9709 13.24400880 54997
HULIANWANG DIGUI-65     
1 65171U 25174H   26275.53035577  .00000041  00000+0  60413-4 0  9998
2 65171  86.4931 215.4935 0002197  71.0282 289.1090 13.24400512 54999
HULIANWANG DIGUI-66     
1 65172U 25174J   26275.52286029  .00000032  00000+0  40724-4 0  9991
2 65172  86.4966 215.6336 0002069  68.8327 291.3028 13.24400293 54999
HULIANWANG DIGUI-67     
1 65173U 25174K   26275.53784885  .00000054  00000+0  91968-4 0  9996
2 65173  86.4977 215.6857 0002091  70.3407 289.7953 13.24401750 54966
HULIANWANG DIGUI-68     
1 65228U 25178A   26275.55990978  .00000026  00000+0  26315-4 0  9998
2 65228  86.5019 337.3114 0001717 108.9427 251.1893 13.24414124 54524
HULIANWANG DIGUI-69     
1 65229U 25178B   26275.55236723  .00000013  00000+0 -49854-5 0  9991
2 65229  86.5039 337.3898 0001764 106.2659 253.8670 13.24416011 54525
HULIANWANG DIGUI-70     
1 65230U 25178C   26275.54491759  .00000011  00000+0 -85920-5 0  9996
2 65230  86.4978 337.1364 0001756 109.6653 250.4670 13.24413483 54529
HULIANWANG DIGUI-71     
1 65231U 25178D   26275.53735326  .00000017  00000+0  65016-5 0  9996
2 65231  86.5037 337.3726 0001754 108.8673 251.2651 13.24414371 54527
HULIANWANG DIGUI-72     
1 65232U 25178E   26275.52983517  .00000026  00000+0  27602-4 0  9991
2 65232  86.5020 337.2988 0001744 108.9003 251.2321 13.24413661 54521
HULIANWANG DIGUI-73     
1 65305U 25187A   26275.56886610 -.00000094  00000+0  65785-4 0  9992
2 65305  50.0046 180.7629 0000877  43.2981 316.7960 13.29327202 53986
HULIANWANG DIGUI-74     
1 65306U 25187B   26275.55238759 -.00000096  00000+0  60279-4 0  9992
2 65306  50.0088 180.8099 0000875  45.3829 314.7114 13.29325141 53986
HULIANWANG DIGUI-75     
1 65307U 25187C   26275.53562466 -.00000082  00000+0  91299-4 0  9997
2 65307  50.0080 180.6985 0000876  44.5660 315.5283 13.29326261 53986
HULIANWANG DIGUI-76     
1 65308U 25187D   26275.51889070 -.00000102  00000+0  47951-4 0  9998
2 65308  50.0005 181.0313 0000889  39.0638 321.0298 13.29327367 53977
HULIANWANG DIGUI-77     
1 65309U 25187E   26275.51045506 -.00000099  00000+0  54204-4 0  9991
2 65309  50.0039 181.0957 0001072  44.0560 316.0398 13.29327339 53978
HULIANWANG DIGUI-78     
1 65310U 25187F   26275.54407266 -.00000097  00000+0  58824-4 0  9991
2 65310  50.0105 180.8182 0000871  44.1370 315.9572 13.29326090 53983
HULIANWANG DIGUI-79     
1 65311U 25187G   26275.52744182 -.00000099  00000+0  53233-4 0  9992
2 65311  50.0034 181.1683 0000822  46.1823 313.9117 13.29323121 53970
HULIANWANG DIGUI-80     
1 65312U 25187H   26275.57734702 -.00000095  00000+0  63211-4 0  9998
2 65312  50.0024 180.7383 0001070  44.5714 315.5244 13.29326303 53984
HULIANWANG DIGUI-81     
1 65313U 25187J   26275.56092502 -.00000094  00000+0  64332-4 0  9997
2 65313  50.0064 180.7792 0000870  44.4836 315.6106 13.29322974 53993
HULIANWANG DIGUI-82     
1 65817U 25220A   26274.76292446  .00000065  00000+0  11777-3 0  9995
2 65817  86.5042   7.8868 0001166 101.5640 258.5625 13.24412242 49025
HULIANWANG DIGUI-83     
1 65818U 25220B   26274.75542538  .00000074  00000+0  13828-3 0  9994
2 65818  86.5065   7.9656 0001163 103.3766 256.7498 13.24412357 49028
HULIANWANG DIGUI-84     
1 65819U 25220C   26275.50333259  .00000054  00000+0  90961-4 0  9999
2 65819  86.5002   7.4773 0001190 102.2836 257.8432 13.24411830 49127
HULIANWANG DIGUI-85     
1 65820U 25220D   26275.49583904  .00000042  00000+0  64069-4 0  9990
2 65820  86.5063   7.6977 0001184  98.2533 261.8735 13.24410886 49126
HULIANWANG DIGUI-86     
1 65821U 25220E   26275.56380583  .00000029  00000+0  33506-4 0  9994
2 65821  86.5041   7.5902 0001643 114.7543 245.3763 13.24413728 49132
HULIANWANG DIGUI-87     
1 65995U 25231A   26274.99499086 -.00000098  00000+0  55076-4 0  9996
2 65995  49.9990 152.7389 0000575  86.4963 273.5975 13.29329061 47098
HULIANWANG DIGUI-88     
1 65996U 25231B   26275.37941501 -.00000101  00000+0  50011-4 0  9993
2 65996  49.9975 151.4003 0000683  96.6504 263.4446 13.29327402 47149
HULIANWANG DIGUI-89     
1 65997U 25231C   26275.36254560 -.00000107  00000+0  36980-4 0  9990
2 65997  49.9953 151.2519 0000584  97.2182 262.8757 13.29328317 47149
HULIANWANG DIGUI-90     
1 65998U 25231D   26275.35421942 -.00000105  00000+0  40780-4 0  9991
2 65998  49.9985 151.2884 0000634  99.4901 260.6043 13.29330243 47144
HULIANWANG DIGUI-91     
1 65999U 25231E   26275.34584245 -.00000104  00000+0  42799-4 0  9998
2 65999  50.0001 151.2982 0000657  98.0022 262.0924 13.29330468 47143
HULIANWANG DIGUI-92     
1 66000U 25231F   26275.33749628 -.00000100  00000+0  50752-4 0  9993
2 66000  50.0043 151.3643 0000596  98.5796 261.5144 13.29328108 47149
HULIANWANG DIGUI-93     
1 66001U 25231G   26275.39595050 -.00000108  00000+0  33828-4 0  9991
2 66001  50.0014 150.9234 0000629  99.4684 260.6259 13.29328732 47153
HULIANWANG DIGUI-94     
1 66002U 25231H   26275.40445095 -.00000098  00000+0  56194-4 0  9996
2 66002  50.0048 151.0731 0000634 100.1378 259.9566 13.29329698 47155
HULIANWANG DIGUI-95     
1 66003U 25231J   26275.38762118 -.00000100  00000+0  51699-4 0  9991
2 66003  50.0021 150.9123 0000607  95.0571 265.0371 13.29328359 47152
HULIANWANG DIGUI-96     
1 66412U 25258A   26275.26086900 -.00000087  00000+0  80475-4 0  9997
2 66412  50.0036 271.6157 0000218 349.2966  10.7902 13.29331552 43970
HULIANWANG DIGUI-97     
1 66413U 25258B   26274.99358306 -.00000097  00000+0  58567-4 0  9997
2 66413  50.0002 272.7795 0000141  39.0143 321.0739 13.29322834 43935
HULIANWANG DIGUI-98     
1 66414U 25258C   26274.30892870 -.00000092  00000+0  69257-4 0  9995
2 66414  50.0039 275.2642 0000212  46.9590 313.1300 13.29327781 43849
HULIANWANG DIGUI-99     
1 66415U 25258D   26275.25257670 -.00000088  00000+0  78495-4 0  9993
2 66415  50.0038 271.5756 0000113  12.8307 347.2568 13.29331344 43969
HULIANWANG DIGUI-100    
1 66416U 25258E   26274.97717539 -.00000084  00000+0  87360-4 0  9994
2 66416  50.0040 272.7997 0000058 303.3436  56.7430 13.29327992 43944
HULIANWANG DIGUI-101    
1 66417U 25258F   26274.96853943 -.00000083  00000+0  87817-4 0  9990
2 66417  49.9991 272.6180 0000240 323.1624  36.9231 13.29329043 43940
HULIANWANG DIGUI-102    
1 66418U 25258G   26275.24443878 -.00000090  00000+0  73084-4 0  9994
2 66418  50.0007 271.4428 0000202 354.9669   5.1201 13.29327551 43973
HULIANWANG DIGUI-103    
1 66419U 25258H   26275.23582553 -.00000090  00000+0  73298-4 0  9995
2 66419  50.0000 271.3793 0000021 319.2235  40.8635 13.29325151 43974
HULIANWANG DIGUI-104    
1 66420U 25258J   26275.15228865 -.00000096  00000+0  61163-4 0  9995
2 66420  50.0016 271.6551 0000193   5.4379 354.6495 13.29330459 43956
HULIANWANG DIGUI-105    
1 66915U 25285A   26275.00625011 -.00000111  00000+0  27729-4 0  9990
2 66915  50.0035 123.1212 0000107 161.8487 198.2389 13.29326621 40264
HULIANWANG DIGUI-106    
1 66916U 25285B   26275.14820037 -.00000115  00000+0  20214-4 0  9997
2 66916  50.0048 122.5656 0000105 174.5621 185.5252 13.29326694 40283
HULIANWANG DIGUI-107    
1 66917U 25285C   26274.83884958 -.00000112  00000+0  25525-4 0  9992
2 66917  50.0013 123.5166 0000066 143.2358 216.8519 13.29328261 40241
HULIANWANG DIGUI-108    
1 66918U 25285D   26274.90562694 -.00000115  00000+0  18547-4 0  9990
2 66918  50.0034 123.2541 0000050 138.4956 221.5920 13.29329766 40253
HULIANWANG DIGUI-109    
1 66919U 25285E   26274.82252670 -.00000116  00000+0  17918-4 0  9994
2 66919  50.0058 123.5415 0000140  44.3061 315.7822 13.29320813 40256
HULIANWANG DIGUI-110    
1 66920U 25285F   26274.81377231 -.00000115  00000+0  19933-4 0  9994
2 66920  50.0090 123.5714 0000086 107.1379 252.9502 13.29330258 40245
HULIANWANG DIGUI-111    
1 66921U 25285G   26274.80548972 -.00000113  00000+0  23687-4 0  9995
2 66921  50.0108 123.5679 0000095 102.7573 257.3310 13.29329810 40241
HULIANWANG DIGUI-112    
1 66922U 25285H   26275.32333768 -.00000111  00000+0  27376-4 0  9996
2 66922  50.0069 121.5512 0000074 147.7960 212.2917 13.29329792 40318
HULIANWANG DIGUI-113    
1 66923U 25285J   26275.31518593 -.00000109  00000+0  32580-4 0  9997
2 66923  50.0079 121.5312 0000083 162.1747 197.9128 13.29328291 40318
HULIANWANG DIGUI-114    
1 66953U 25287A   26275.19375572  .00000068  00000+0  12507-3 0  9995
2 66953  86.4905 246.1869 0001685  86.7992 273.3335 13.24403054 39509
HULIANWANG DIGUI-115    
1 66954U 25287B   26275.18648162  .00000068  00000+0  12450-3 0  9990
2 66954  86.4921 246.2309 0001443  94.2465 265.8834 13.24393714 39500
HULIANWANG DIGUI-116    
1 66955U 25287C   26275.17864294  .00000070  00000+0  12826-3 0  9996
2 66955  86.4861 246.0481 0001613  90.4377 269.6942 13.24402437 39507
HULIANWANG DIGUI-117    
1 66956U 25287D   26274.94437300  .00000067  00000+0  12237-3 0  9997
2 66956  86.4921 246.3018 0003229  87.7116 272.4387 13.24405431 39477
HULIANWANG DIGUI-118    
1 66957U 25287E   26275.16347937  .00000054  00000+0  92703-4 0  9992
2 66957  86.4897 246.1505 0001609  88.0603 272.0716 13.24404813 39503
HULIANWANG DIGUI-119    
1 67059U 25295A   26275.51284601 -.00000091  00000+0  71918-4 0  9999
2 67059  50.0059   0.8517 0000497 125.9349 234.1570 13.29326614 39777
HULIANWANG DIGUI-120    
1 67060U 25295B   26274.51869641 -.00000104  00000+0  43645-4 0  9994
2 67060  50.0063   4.2828 0000557 120.4629 239.6299 13.29328662 39644
HULIANWANG DIGUI-121    
1 67061U 25295C   26275.50439903 -.00000092  00000+0  68539-4 0  9994
2 67061  50.0026   0.7244 0000512 120.4657 239.6266 13.29327715 39775
HULIANWANG DIGUI-122    
1 67062U 25295D   26275.48772553 -.00000097  00000+0  58484-4 0  9996
2 67062  50.0056   0.7215 0000483 123.4717 236.6202 13.29326416 39778
HULIANWANG DIGUI-123    
1 67063U 25295E   26274.50209928 -.00000097  00000+0  58771-4 0  9999
2 67063  50.0062   4.1878 0000498 127.3923 232.6995 13.29326220 39641
HULIANWANG DIGUI-124    
1 67064U 25295F   26274.41842267 -.00000103  00000+0  45871-4 0  9994
2 67064  50.0023   4.3114 0000547 121.3285 238.7641 13.29326897 39638
HULIANWANG DIGUI-125    
1 67065U 25295G   26275.53772993 -.00000099  00000+0  54930-4 0  9997
2 67065  50.0015   0.2017 0000500 122.5013 237.5908 13.29326571 39786
HULIANWANG DIGUI-126    
1 67066U 25295H   26275.52951372 -.00000094  00000+0  65529-4 0  9998
2 67066  50.0015   0.1654 0000445 116.6418 243.4500 13.29327030 39789
HULIANWANG DIGUI-127    
1 67067U 25295J   26275.52109451 -.00000202  00000+0 -16832-3 0  9996
2 67067  50.0038   0.1666 0000511 120.6354 239.4569 13.29323257 39783
HULIANWANG DIGUI-128    
1 67236U 25311A   26274.71622880 -.00000119  00000+0  10208-4 0  9997
2 67236  50.0069  93.5136 0000120  49.5721 310.5162 13.29327823 37518
HULIANWANG DIGUI-129    
1 67237U 25311B   26274.72443573 -.00000123  00000+0  21804-5 0  9999
2 67237  50.0060  93.5315 0000162  68.6493 291.4396 13.29329028 37518
HULIANWANG DIGUI-130    
1 67238U 25311C   26275.75201463 -.00000117  00000+0  15470-4 0  9998
2 67238  50.0042  90.2377 0000105  40.5145 319.5735 13.29327906 37647
HULIANWANG DIGUI-131    
1 67239U 25311D   26274.78306477 -.00000117  00000+0  14948-4 0  9991
2 67239  50.0037  93.7761 0000138  26.1639 333.9241 13.29327450 37513
HULIANWANG DIGUI-132    
1 67240U 25311E   26275.20900653 -.00000123  00000+0  26620-5 0  9995
2 67240  50.0046  92.0555 0000099  60.0426 300.0456 13.29328289 37575
HULIANWANG DIGUI-133    
1 67241U 25311F   26275.19234234 -.00000126  00000+0 -41804-5 0  9994
2 67241  50.0091  92.0695 0000147  60.0421 300.0466 13.29328309 37574
HULIANWANG DIGUI-134    
1 67242U 25311G   26275.20073007 -.00000126  00000+0 -46936-5 0  9997
2 67242  50.0020  91.9559 0000112  56.6638 303.4245 13.29325982 37573
HULIANWANG DIGUI-135    
1 67243U 25311H   26274.91666040 -.00000118  00000+0  12334-4 0  9994
2 67243  50.0007  93.0891 0000098  43.8869 316.2011 13.29327641 37531
HULIANWANG DIGUI-136    
1 67244U 25311J   26275.18391975 -.00000126  00000+0 -45251-5 0  9992
2 67244  50.0080  91.9990 0000176  67.0077 293.0814 13.29328586 37572
HULIANWANG DIGUI-137    
1 67435U 26007A   26274.68499325 -.00000120  00000+0  80472-5 0  9996
2 67435  50.0079  63.9204 0000307  64.7466 295.3438 13.29331088 34958
HULIANWANG DIGUI-138    
1 67436U 26007B   26275.15289705 -.00000123  00000+0  17135-5 0  9998
2 67436  50.0062  62.3472 0000293  66.9246 293.1657 13.29329339 35018
HULIANWANG DIGUI-139    
1 67437U 26007C   26275.36978572 -.00000116  00000+0  17004-4 0  9995
2 67437  50.0028  61.4309 0000092  58.5720 301.5161 13.29330969 35049
HULIANWANG DIGUI-140    
1 67438U 26007D   26274.63492453 -.00000120  00000+0  82292-5 0  9991
2 67438  50.0053  64.2676 0000304  71.2118 288.8787 13.29330158 34944
HULIANWANG DIGUI-141    
1 67439U 26007E   26274.67660540 -.00000122  00000+0  49845-5 0  9999
2 67439  50.0047  63.8073 0000308  67.6477 292.4427 13.29331089 34952
HULIANWANG DIGUI-142    
1 67440U 26007F   26274.66832103 -.00000128  00000+0 -79746-5 0  9996
2 67440  50.0123  63.9250 0000298  72.3016 287.7889 13.29330958 34950
HULIANWANG DIGUI-143    
1 67441U 26007G   26274.66010594 -.00000132  00000+0 -16288-4 0  9995
2 67441  50.0107  63.8414 0000346  95.7119 264.3793 13.29329111 34955
HULIANWANG DIGUI-144    
1 67442U 26007H   26274.65143235 -.00000132  00000+0 -18064-4 0  9998
2 67442  50.0092  63.7748 0000344  69.0634 291.0275 13.29330356 34957
HULIANWANG DIGUI-145    
1 67443U 26007J   26274.79370206 -.00000120  00000+0  77952-5 0  9992
2 67443  50.0096  63.2011 0000292  79.5138 280.5768 13.29330081 34974
HULIANWANG DIGUI-146    
1 67522U 26013A   26274.38745048 -.00000087  00000+0  79673-4 0  9995
2 67522  50.0098 335.0384 0000560 140.5779 219.5134 13.29329993 34176
HULIANWANG DIGUI-147    
1 67523U 26013B   26275.43138936 -.00000087  00000+0  79927-4 0  9997
2 67523  50.0066 331.1541 0000481 148.4354 211.6547 13.29323519 34317
HULIANWANG DIGUI-148    
1 67524U 26013C   26275.12227512 -.00000082  00000+0  90442-4 0  9993
2 67524  50.0105 332.2749 0000448 149.1054 210.9845 13.29331716 34278
HULIANWANG DIGUI-149    
1 67525U 26013D   26275.41477716 -.00000081  00000+0  92147-4 0  9992
2 67525  50.0101 331.1416 0000631 135.6296 224.4627 13.29330338 34318
HULIANWANG DIGUI-150    
1 67526U 26013E   26275.47340166 -.00000094  00000+0  65401-4 0  9994
2 67526  50.0063 330.7053 0000511 148.4830 211.6073 13.29329181 34341
HULIANWANG DIGUI-151    
1 67527U 26013F   26275.40644534 -.00000088  00000+0  78668-4 0  9996
2 67527  50.0106 331.1094 0000496 151.2946 208.7954 13.29331098 34314
HULIANWANG DIGUI-152    
1 67528U 26013G   26275.46476223 -.00000091  00000+0  72267-4 0  9994
2 67528  50.0055 330.6457 0000491 149.1346 210.9555 13.29332091 34327
HULIANWANG DIGUI-153    
1 67529U 26013H   26275.45672776 -.00000090  00000+0  72780-4 0  9994
2 67529  50.0058 330.6086 0000545 150.7044 209.3858 13.29328583 34310
HULIANWANG DIGUI-154    
1 67530U 26013J   26275.44812623 -.00000088  00000+0  78383-4 0  9994
2 67530  50.0082 330.6170 0000480 149.9580 210.1320 13.29330311 34312
HULIANWANG DIGUI-155    
1 68129U 26047A   26275.58522096 -.00000108  00000+0  34107-4 0  9992
2 68129  50.0055  31.1889 0001089 130.6040 229.4928 13.29330213 27355
HULIANWANG DIGUI-156    
1 68130U 26047B   26275.57717605 -.00000111  00000+0  28649-4 0  9993
2 68130  50.0052  31.1491 0001130 135.2901 224.8063 13.29320312 27344
HULIANWANG DIGUI-157    
1 68131U 26047C   26275.56874604 -.00000113  00000+0  24252-4 0  9994
2 68131  50.0021  31.0587 0001042 134.5691 225.5267 13.29326007 27358
HULIANWANG DIGUI-158    
1 68132U 26047D   26274.58297733 -.00000117  00000+0  14965-4 0  9992
2 68132  50.0064  34.5947 0001112 126.1101 233.9874 13.29328748 27211
HULIANWANG DIGUI-159    
1 68133U 26047E   26274.57476702 -.00000121  00000+0  65818-5 0  9996
2 68133  50.0036  34.5024 0001069 122.0401 238.0575 13.29324662 27222
HULIANWANG DIGUI-160    
1 68134U 26047F   26275.61028569 -.00000107  00000+0  37617-4 0  9996
2 68134  50.0094  30.7334 0000937 114.5163 245.5807 13.29330156 27353
HULIANWANG DIGUI-161    
1 68135U 26047G   26274.56618996 -.00000112  00000+0  25841-4 0  9991
2 68135  50.0113  34.5839 0000993 125.9881 234.1084 13.29329284 27220
HULIANWANG DIGUI-162    
1 68136U 26047H   26275.60239477 -.00000101  00000+0  48916-4 0  9997
2 68136  50.0083  30.6762 0001137 133.2962 226.8006 13.29325074 27351
HULIANWANG DIGUI-163    
1 68137U 26047J   26275.59361308 -.00000104  00000+0  42675-4 0  9994
2 68137  50.0091  30.6365 0001061 135.7054 224.3903 13.29330157 27363
HULIANWANG DIGUI-164    
1 68656U 26076A   26275.55645910  .00000024  00000+0  22381-4 0  9994
2 68656  86.5037   7.6350 0001878 116.0846 244.0481 13.24407710 23583
HULIANWANG DIGUI-165    
1 68657U 26076B   26275.54875301  .00000027  00000+0  27779-4 0  9992
2 68657  86.5060   7.6715 0001597 119.8774 240.2519 13.24410544 23583
HULIANWANG DIGUI-166    
1 68658U 26076C   26275.69244657  .00000038  00000+0  54697-4 0  9994
2 68658  86.5001   7.5096 0001616 119.0030 241.1266 13.24409336 23608
HULIANWANG DIGUI-167    
1 68659U 26076D   26275.53361632  .00000049  00000+0  80656-4 0  9997
2 68659  86.5056   7.6578 0001614 118.9217 241.2079 13.24411003 23582
HULIANWANG DIGUI-168    
1 68660U 26076E   26275.52622724  .00000060  00000+0  10470-3 0  9999
2 68660  86.5037   7.6196 0001606 119.2682 240.8613 13.24407998 23576
GUOWANG TEST OBJECT A   
1 69320U 26120A   26275.05095127  .00006048  00000+0  29758-3 0  9993
2 69320  55.0055 274.7278 0009375 197.6182 162.4514 15.19305463 19029
GUOWANG TEST OBJECT B   
1 69321U 26120B   26274.46775818  .00002167  00000+0  88686-4 0  9994
2 69321  54.9964 271.2316 0006531 201.8068 158.2679 15.28830107 19027
GUOWANG TEST OBJECT C   
1 69322U 26120C   26275.36978425  .00008822  00000+0  24380-3 0  9998
2 69322  54.9957 265.7272 0007746 223.1255 136.9166 15.37847427 19187
GUOWANG TEST OBJECT D   
1 69323U 26120D   26275.37862741  .00000982  00000+0  60867-4 0  9993
2 69323  55.0015 272.5800 0010029 232.8802 127.1301 15.19274742 19087
HULIANWANG DIGUI-169    
1 69572U 26137A   26275.52054926 -.00000089  00000+0  75761-4 0  9990
2 69572  50.0007 211.1818 0000456  42.6876 317.4031 13.29327349 14606
HULIANWANG DIGUI-170    
1 69573U 26137B   26275.51221035 -.00000091  00000+0  70463-4 0  9994
2 69573  50.0003 211.1357 0000450  41.6100 318.4807 13.29328949 14614
HULIANWANG DIGUI-171    
1 69574U 26137C   26275.50381967 -.00000087  00000+0  80651-4 0  9990
2 69574  49.9965 211.0516 0000408 181.8524 178.2347 13.29329678 14605
HULIANWANG DIGUI-172    
1 69575U 26137D   26275.57072866 -.00000088  00000+0  76601-4 0  9994
2 69575  49.9963 210.7411 0000446  40.8463 319.2443 13.29324804 14613
HULIANWANG DIGUI-173    
1 69576U 26137E   26275.56233638 -.00000086  00000+0  82214-4 0  9995
2 69576  50.0023 210.7604 0000461  42.2182 317.8725 13.29327222 14613
HULIANWANG DIGUI-174    
1 69577U 26137F   26275.55400603 -.00000088  00000+0  77353-4 0  9993
2 69577  50.0015 210.7107 0000481  40.6094 319.4814 13.29326038 14621
HULIANWANG DIGUI-175    
1 69578U 26137G   26275.54559697 -.00000085  00000+0  83471-4 0  9996
2 69578  49.9966 210.6158 0000465  44.5637 315.5272 13.29328376 14629
HULIANWANG DIGUI-176    
1 69579U 26137H   26275.53729991 -.00000090  00000+0  73354-4 0  9997
2 69579  49.9999 210.6089 0000514  36.6222 323.4685 13.29326022 14617
HULIANWANG DIGUI-177    
1 69580U 26137J   26275.52892086 -.00000091  00000+0  70679-4 0  9992
2 69580  49.9979 210.5457 0000435  42.7999 317.2907 13.29327037 14622
