INTELSAT 902 (IS-902)   
1 26900U 01039A   26278.35322419 -.00000295  00000+0  00000+0 0  9999
2 26900   6.3889  70.3884 0004008 125.3286 255.4127  1.00273103 91803
INTELSAT 904 (IS-904)   
1 27380U 02007A   26278.29516899 -.00000237  00000+0  00000+0 0  9994
2 27380   7.1899  67.8169 0003564 139.9023 241.0439  1.00271200 52876
DIRECTV 5 (TEMPO 1)     
1 27426U 02023A   26278.58009145 -.00000071  00000+0  00000+0 0  9992
2 27426   5.1542  73.8753 0003316 131.2975 267.8379  1.00271414 89238
INTELSAT 905 (IS-905)   
1 27438U 02027A   26278.58047328  .00000081  00000+0  00000+0 0  9994
2 27438   7.0255  68.4215 0003831 159.9747 217.6447  1.00272102 52472
GALAXY 3C (G-3C)        
1 27445U 02030A   26278.14568074 -.00000166  00000+0  00000+0 0  9999
2 27445   4.0212  76.5985 0001145  58.9137 195.9405  1.00271214 47593
INTELSAT 906 (IS-906)   
1 27513U 02041A   26278.51016975  .00000000  00000+0  00000+0 0  9992
2 27513   6.0776  71.5104 0004022 145.5963  44.9161  1.00271589 88133
GALAXY 13 (HORIZONS-1)  
1 27954U 03044A   26278.50097251  .00000117  00000+0  00000+0 0  9999
2 27954   1.6975  82.2746 0002335 134.5906 187.6716  1.00272169 47675
INTELSAT 10-02          
1 28358U 04022A   26278.26780965 -.00000027  00000+0  00000+0 0  9990
2 28358   0.0154 226.9926 0000379  56.7286 185.6608  1.00272159 81669
DIRECTV 8               
1 28659U 05019A   26278.50712588 -.00000016  00000+0  00000+0 0  9992
2 28659   0.0147 240.4760 0002877 317.8117 239.4332  1.00272043 78177
GALAXY 28 (G-28)        
1 28702U 05022A   26277.81252042 -.00000213  00000+0  00000+0 0  9991
2 28702   3.5744  77.5002 0001862 111.9231  89.5242  1.00271039 53078
GALAXY 16 (G-16)        
1 29236U 06023A   26278.58234479 -.00000144  00000+0  00000+0 0  9998
2 29236   0.0147 204.4323 0002770 356.1051 284.3812  1.00268525 74087
DIRECTV 9S              
1 29494U 06043A   26278.61109074 -.00000256  00000+0  00000+0 0  9996
2 29494   2.7015  79.4410 0008226 194.4051  84.9252  0.99095288 52481
GALAXY 17 (G-17)        
1 31307U 07016B   26278.51379925 -.00000221  00000+0  00000+0 0  9998
2 31307   3.2444  78.4196 0004486 149.2389 246.5347  1.00271663 70910
INTELSAT 11 (IS-11)     
1 32253U 07044B   26278.16572544 -.00000174  00000+0  00000+0 0  9990
2 32253   3.8456  77.2420 0008420 140.8463 217.2983  0.99051211 69538
HORIZONS-2              
1 32388U 07063B   26278.37348528 -.00000268  00000+0  00000+0 0  9990
2 32388   2.8799  79.1640 0002042 144.0792 211.4905  1.00269462 68919
DIRECTV 11              
1 32729U 08013A   26278.58234479 -.00000143  00000+0  00000+0 0  9999
2 32729   0.0413  21.3703 0000121 268.4689 194.8984  1.00270169 46702
GALAXY 18 (G-18)        
1 32951U 08024A   26278.57757810  .00000008  00000+0  00000+0 0  9995
2 32951   0.0196 217.1223 0002983 341.6462 260.4283  1.00270953 46950
GALAXY 19 (G-19)        
1 33376U 08045A   26278.51145924 -.00000156  00000+0  00000+0 0  9996
2 33376   0.0283 244.0394 0002420 309.4259 267.8678  1.00268452 66007
FM-5                    
1 35493U 09034A   26278.51362591 -.00000217  00000+0  00000+0 0  9996
2 35493   0.0263 257.7485 0000238 180.3634  34.8665  1.00271604 47759
INTELSAT 14 (IS-14)     
1 36097U 09064A   26278.35322419 -.00000290  00000+0  00000+0 0  9998
2 36097   0.1933  83.6709 0002610 124.7965 247.7447  1.00270733 61712
INTELSAT 15 (IS-15)     
1 36106U 09067A   26278.53447591 -.00000203  00000+0  00000+0 0  9995
2 36106   0.0324  72.1403 0002779 147.5888  72.0563  1.00273532 42338
DIRECTV 12              
1 36131U 09075A   26278.58165146 -.00000121  00000+0  00000+0 0  9999
2 36131   0.0307  12.6523 0000190 160.1939 308.0874  1.00271952 47664
INTELSAT 16 (IS-16)     
1 36397U 10006A   26278.60678490  .00000054  00000+0  00000+0 0  9997
2 36397   0.0183 271.8156 0002429 316.5831  28.8981  1.01414952 60768
XM-5                    
1 37185U 10053A   26278.57913810 -.00000040  00000+0  00000+0 0  9995
2 37185   0.0700 269.7621 0000325 204.3278 353.4871  1.00271153 58590
INTELSAT 17 (IS-17)     
1 37238U 10065B   26278.61501826 -.00000019  00000+0  00000+0 0  9998
2 37238   0.0195 238.2427 0002405 312.5041 110.9720  1.00273813 54357
INTELSAT 28 (IS-28)     
1 37392U 11016A   26278.34072322 -.00000240  00000+0  00000+0 0  9996
2 37392   2.0844  81.1140 0003679 123.0152 260.8650  1.00270769 54398
INTELSAT 18 (IS-18)     
1 37834U 11056A   26278.53560667  .00000036  00000+0  00000+0 0  9998
2 37834   0.0197 251.8084 0002252 319.7441 175.4847  1.00270258 54912
INTELSAT 22 (IS-22)     
1 38098U 12011A   26278.61623161 -.00000076  00000+0  00000+0 0  9996
2 38098   0.0153 222.9980 0001612 324.2624 120.9977  1.00271184  8292
INTELSAT 19 (IS-19)     
1 38356U 12030A   26278.56353803 -.00000074  00000+0  00000+0 0  9999
2 38356   0.0188 242.5286 0003082 319.6943 180.9014  1.00270048 51552
INTELSAT 20 (IS-20)     
1 38740U 12043A   26278.61553826 -.00000041  00000+0  00000+0 0  9997
2 38740   0.0262 129.5126 0001420  50.3807 124.4921  1.00271262 51853
INTELSAT 21 (IS-21)     
1 38749U 12045A   26278.39836539 -.00000302  00000+0  00000+0 0  9998
2 38749   0.0178 200.6262 0002120  17.2932 241.5870  1.00268409 51638
INTELSAT 23 (IS-23)     
1 38867U 12057A   26278.52021260 -.00000302  00000+0  00000+0 0  9994
2 38867   0.0163 257.5353 0001366 345.9108 265.0299  1.00263849 51068
FM-6                    
1 39360U 13058A   26278.57887810 -.00000033  00000+0  00000+0 0  9992
2 39360   0.0270 254.5982 0000039  53.2354 158.4980  1.00269273 47186
INTELSAT 30 (IS-30)     
1 40271U 14062A   26278.30183611  .00000000  00000+0  00000+0 0  9993
2 40271   0.0117 172.4175 0001410 226.8775 348.3133  1.00270174  7896
DIRECTV 14              
1 40333U 14078B   26278.51102589  .00000000  00000+0  00000+0 0  9997
2 40333   0.0111 174.7016 0000384 236.5507  47.6653  1.00270340 43158
DIRECTV 15              
1 40663U 15026A   26278.50209420 -.00000119  00000+0  00000+0 0  9990
2 40663   0.0303  91.6466 0000237 120.6467 239.7748  1.00267915 41564
SKY MEXICO-1            
1 40664U 15026B   26278.37253194 -.00000251  00000+0  00000+0 0  9990
2 40664   0.0194 233.5482 0001839 324.3232 231.5030  1.00268912 41551
INTELSAT 34 (IS-34)     
1 40874U 15039A   26278.33750620 -.00000302  00000+0  00000+0 0  9996
2 40874   0.0243 297.5931 0000330 336.6755 165.7839  1.00271895 40737
INTELSAT 31 (IS-31)     
1 41581U 16035A   26278.51189257 -.00000168  00000+0  00000+0 0  9991
2 41581   0.0125 223.4890 0001920  19.7640 220.1954  1.00272089 37794
INTELSAT 36 (IS-36)     
1 41747U 16053A   26278.51016975 -.00000042  00000+0  00000+0 0  9992
2 41747   0.0064 171.9428 0002190 168.8396 285.5751  1.00273604 37062
INTELSAT 32E (IS-32E)   
1 41945U 17007B   26278.35322419 -.00000286  00000+0  00000+0 0  9997
2 41945   0.0196 220.0777 0000372 295.9332 302.0361  1.00271923 35324
INTELSAT 35E (IS-35E)   
1 42818U 17041A   26278.38128532  .00000000  00000+0  00000+0 0  9991
2 42818   0.0205 172.8497 0001969  36.4422 267.5210  1.00267864 33920
INTELSAT 37E (IS-37E)   
1 42950U 17059A   26278.37058704 -.00000158  00000+0  00000+0 0  9994
2 42950   0.0177 251.0850 0002933 313.0148 285.3807  1.00270442 33172
AZERSPACE 2 (IS-38)     
1 43632U 18074A   26278.53962603  .00000000  00000+0  00000+0 0  9995
2 43632   0.0223 184.4089 0001411  18.2540  50.9368  1.00269760 29551
HORIZONS-3E             
1 43633U 18074B   26278.35034517 -.00000047  00000+0  00000+0 0  9992
2 43633   0.0158 184.4989 0000770  19.8889 104.7782  1.00271208 29444
AT&T T-16               
1 44333U 19034A   26278.58199812 -.00000132  00000+0  00000+0 0  9997
2 44333   0.0162 114.9944 0000265 335.0612  32.8823  1.00268508 26748
INTELSAT 39 (IS-39)     
1 44476U 19049B   26278.18654443  .00000016  00000+0  00000+0 0  9993
2 44476   0.0207 222.6325 0000458 224.3420  56.0181  1.00275156 26233
GALAXY 30 (G-30)        
1 46114U 20056C   26278.36334523  .00000000  00000+0  00000+0 0  9991
2 46114   0.0203 179.4405 0002457  23.4191 176.9876  1.00270685 22390
GALAXY 33 (G-33)        
1 54026U 22128A   26278.57558476  .00000000  00000+0  00000+0 0  9992
2 54026   0.0168 202.3796 0001900 358.6588 247.4270  1.00270989 14845
GALAXY 34 (G-34)        
1 54027U 22128B   26278.50513253  .00000042  00000+0  00000+0 0  9996
2 54027   0.0234 246.8980 0001419 305.7839 234.3686  1.00272719 15014
GALAXY 31 (G-31)        
1 54243U 22153A   26278.57801144 -.00000004  00000+0  00000+0 0  9999
2 54243   0.0034 187.1856 0001351  15.0655 259.0972  1.00270866  8243
GALAXY 32 (G-32)        
1 54244U 22153B   26278.37010527 -.00000191  00000+0  00000+0 0  9992
2 54244   0.0172 253.0894 0000698  27.8213 135.3903  1.00270995 14246
GALAXY 35 (G-35)        
1 54741U 22170A   26278.36967192 -.00000179  00000+0  00000+0 0  9997
2 54741   0.0145 213.3222 0002054 348.8108 211.9118  1.00271048 13999
GALAXY 36 (G-36)        
1 54742U 22170B   26278.58433814 -.00000202  00000+0  00000+0 0  9998
2 54742   0.0238 221.7846 0001453 284.8369 349.0176  1.00271003 13895
GALAXY 37 (G-37)        
1 57493U 23112A   26278.50556587  .00000031  00000+0  00000+0 0  9995
2 57493   0.0188 248.0863 0002220 321.2825 219.8320  1.00271749 11645
