IRIDIUM 106             
1 41917U 17003A   26269.12030343  .00000183  00000+0  58250-4 0  9999
2 41917  86.3961  46.3244 0001815  90.9328 269.2076 14.34219115507674
IRIDIUM 103             
1 41918U 17003B   26269.10761718  .00000106  00000+0  30928-4 0  9992
2 41918  86.3961  46.2292 0002226  88.5627 271.5824 14.34218741507692
IRIDIUM 109             
1 41919U 17003C   26269.11397994  .00000176  00000+0  55838-4 0  9999
2 41919  86.3963  46.2877 0002144  92.1627 267.9815 14.34217135507666
IRIDIUM 102             
1 41920U 17003D   26268.31479425  .00000153  00000+0  47593-4 0  9996
2 41920  86.3959  46.5433 0002089  93.9583 266.1851 14.34218253507632
IRIDIUM 105             
1 41921U 17003E   26269.04084282  .00000198  00000+0  63662-4 0  9995
2 41921  86.4021  14.7004 0002389  96.3634 263.7834 14.34219918509592
IRIDIUM 104             
1 41922U 17003F   26268.81586012 -.00000236  00000+0 -91501-4 0  9996
2 41922  86.3962  46.3784 0002311  91.0483 269.0977 14.34217459507695
IRIDIUM 114             
1 41923U 17003G   26268.75243661  .00000181  00000+0  57666-4 0  9991
2 41923  86.3961  46.3873 0002200  90.6905 269.4543 14.34219227507660
IRIDIUM 108             
1 41924U 17003H   26269.12956580  .00000022  00000+0  82510-6 0  9997
2 41924  86.4016  14.5472 0002201  96.1614 263.9832 14.34217767509573
IRIDIUM 112             
1 41925U 17003J   26268.73974812  .00000002  00000+0 -63712-5 0  9993
2 41925  86.3952  46.2302 0002073  92.8835 267.2598 14.34217579507688
IRIDIUM 111             
1 41926U 17003K   26268.79683403  .00000181  00000+0  57545-4 0  9996
2 41926  86.3959  46.2791 0002124  91.3163 268.8276 14.34219184507676
IRIDIUM 113             
1 42803U 17039A   26269.12563795  .00000021  00000+0  49960-6 0  9996
2 42803  86.3912 279.9804 0002253  91.0542 269.0912 14.34217649485658
IRIDIUM 123             
1 42804U 17039B   26269.16711756  .00000096  00000+0  27256-4 0  9997
2 42804  86.3964 311.4486 0002165  90.6417 269.5027 14.34218133484427
IRIDIUM 120             
1 42805U 17039C   26269.11929418  .00000088  00000+0  24340-4 0  9991
2 42805  86.3901 279.7523 0002132  91.3362 268.8078 14.34218316485644
IRIDIUM 115             
1 42806U 17039D   26269.06427139  .00000129  00000+0  32474-4 0  9992
2 42806  86.4438 279.9179 0002223  86.0647 274.0808 14.43280832488812
IRIDIUM 118             
1 42807U 17039E   26269.12906576  .00000185  00000+0  59131-4 0  9998
2 42807  86.3959 311.4618 0002242  94.4273 265.7179 14.34217795484417
IRIDIUM 117             
1 42808U 17039F   26269.14808963  .00000063  00000+0  15356-4 0  9998
2 42808  86.3960 311.4105 0002241  92.3318 267.8134 14.34217916484449
IRIDIUM 126             
1 42809U 17039G   26269.17346074  .00000077  00000+0  20293-4 0  9993
2 42809  86.3956 311.4536 0002250  93.3818 266.7635 14.34217581484429
IRIDIUM 124             
1 42810U 17039H   26268.92875941  .00000147  00000+0  37712-4 0  9999
2 42810  86.4446 248.2129 0002289  85.6295 274.5168 14.43279589489649
IRIDIUM 128             
1 42811U 17039J   26268.74558651  .00000081  00000+0  21896-4 0  9999
2 42811  86.4021 343.1340 0002114  95.2886 264.8551 14.34218207484394
IRIDIUM 121             
1 42812U 17039K   26269.19248634  .00000175  00000+0  55252-4 0  9994
2 42812  86.3961 311.4739 0002349 110.1851 249.9597 14.34217997484306
IRIDIUM 133             
1 42955U 17061A   26269.12614038  .00000136  00000+0  41488-4 0  9998
2 42955  86.4022 343.0956 0002199  94.4716 265.6731 14.34219011469242
IRIDIUM 100             
1 42956U 17061B   26268.91049485  .00000033  00000+0  48027-5 0  9996
2 42956  86.4016 343.1016 0002197  94.9706 265.1741 14.34217686469215
IRIDIUM 122             
1 42957U 17061C   26269.01831845  .00000064  00000+0  15710-4 0  9994
2 42957  86.4018 343.0572 0002239  92.4386 267.7066 14.34218015469235
IRIDIUM 129             
1 42958U 17061D   26268.97392138  .00000046  00000+0  92542-5 0  9995
2 42958  86.4022 343.1440 0002466  95.8085 264.3392 14.34217783469248
IRIDIUM 119             
1 42959U 17061E   26269.15151326  .00000044  00000+0  87915-5 0  9995
2 42959  86.4018 343.0659 0002293  93.0283 267.1175 14.34217873469287
IRIDIUM 107             
1 42960U 17061F   26268.96123484  .00000098  00000+0  27817-4 0  9992
2 42960  86.4018 343.1673 0002128  89.4221 270.7219 14.34218317469265
IRIDIUM 132             
1 42961U 17061G   26268.75827296  .00000029  00000+0  32373-5 0  9990
2 42961  86.4020 343.2307 0002230  94.5098 265.6353 14.34217617469238
IRIDIUM 136             
1 42962U 17061H   26269.13882775  .00000021  00000+0  45738-6 0  9999
2 42962  86.4014 343.0788 0002074  95.5538 264.5894 14.34217676469300
IRIDIUM 139             
1 42963U 17061J   26268.72655912  .00000020  00000+0  15801-6 0  9992
2 42963  86.4016 343.3144 0002048  94.5173 265.6256 14.34217713469257
IRIDIUM 125             
1 42964U 17061K   26269.13248588  .00000037  00000+0  62175-5 0  9999
2 42964  86.4022 343.2081 0002453  83.9240 276.2235 14.34217761469327
IRIDIUM 135             
1 43070U 17083A   26269.10661102  .00000050  00000+0  10614-4 0  9995
2 43070  86.3907 279.8185 0002281  91.2703 268.8754 14.34217774458618
IRIDIUM 138             
1 43071U 17083B   26269.06221257  .00000010  00000+0 -36389-5 0  9999
2 43071  86.3921 279.5479 0002272  89.1648 270.9808 14.34217530458593
IRIDIUM 116             
1 43072U 17083C   26269.10026720  .00000054  00000+0  12357-4 0  9998
2 43072  86.3904 279.8060 0002016  91.9660 268.1766 14.34217917458631
IRIDIUM 130             
1 43073U 17083D   26269.13832336  .00000012  00000+0 -29252-5 0  9998
2 43073  86.3913 280.0753 0001963  87.7729 272.3691 14.34217567458583
IRIDIUM 151             
1 43074U 17083E   26269.11295304  .00000001  00000+0 -67550-5 0  9996
2 43074  86.3908 279.8606 0002082  91.1831 268.9603 14.34217454458609
IRIDIUM 134             
1 43075U 17083F   26269.08123978  .00000008  00000+0 -41914-5 0  9993
2 43075  86.3911 279.8836 0002103  90.1495 269.9942 14.34217555458562
IRIDIUM 137             
1 43076U 17083G   26269.09392477  .00000028  00000+0  28258-5 0  9994
2 43076  86.3910 279.9730 0002118  99.6319 260.5116 14.34217825458639
IRIDIUM 141             
1 43077U 17083H   26269.08758272  .00000020  00000+0 -59315-7 0  9996
2 43077  86.3903 279.8004 0002296  90.4644 269.6815 14.34217622458633
IRIDIUM 153             
1 43078U 17083J   26268.90021760  .00000160  00000+0  49998-4 0  9999
2 43078  86.3919 248.3420 0002373  83.1934 276.9532 14.34222345459716
IRIDIUM 131             
1 43079U 17083K   26269.07489756  .00000010  00000+0 -33283-5 0  9998
2 43079  86.3910 279.9987 0002184  91.8162 268.3284 14.34217469458567
IRIDIUM 144             
1 43249U 18030A   26268.90656700 -.00000016  00000+0 -12883-4 0  9995
2 43249  86.3924 248.2655 0002027  88.1741 271.9686 14.34217205444570
IRIDIUM 149             
1 43250U 18030B   26268.91290935  .00000011  00000+0 -31664-5 0  9995
2 43250  86.3921 248.2288 0002219  86.6206 273.5244 14.34217501444592
IRIDIUM 157             
1 43251U 18030C   26269.00170580 -.00000020  00000+0 -14288-4 0  9993
2 43251  86.3924 248.2469 0002125  87.0183 273.1256 14.34217124444581
IRIDIUM 140             
1 43252U 18030D   26268.95096339  .00000079  00000+0  21239-4 0  9992
2 43252  86.3920 248.2800 0002290  86.8668 273.2789 14.34217152444634
IRIDIUM 145             
1 43253U 18030E   26269.14758405  .00000062  00000+0  14967-4 0  9996
2 43253  86.3922 248.1701 0001974  87.9991 272.1431 14.34218167444599
IRIDIUM 146             
1 43254U 18030F   26268.91925028  .00000013  00000+0 -25161-5 0  9994
2 43254  86.3922 248.2778 0002027  87.4028 272.7400 14.34217281444577
IRIDIUM 148             
1 43255U 18030G   26268.88753940  .00000009  00000+0 -39708-5 0  9990
2 43255  86.3927 248.3358 0002139  89.3674 270.7767 14.34217311444602
IRIDIUM 142             
1 43256U 18030H   26268.99536175 -.00000012  00000+0 -11419-4 0  9995
2 43256  86.3919 248.1757 0001988  88.7125 271.4299 14.34217076444583
IRIDIUM 150             
1 43257U 18030J   26268.89388144  .00000101  00000+0  29066-4 0  9990
2 43257  86.3923 248.3377 0002200  86.2239 273.9209 14.34217463444595
IRIDIUM 143             
1 43258U 18030K   26269.01438925 -.00000003  00000+0 -80183-5 0  9990
2 43258  86.3927 248.3840 0002055  85.9283 274.2147 14.34217212444540
IRIDIUM 161             
1 43478U 18047C   26268.76803933  .00000226  00000+0  61306-4 0  9998
2 43478  86.4480  46.3797 0002336  94.1743 265.9725 14.43281741439643
IRIDIUM 152             
1 43479U 18047D   26269.12664588  .00000070  00000+0  17772-4 0  9996
2 43479  86.3958  46.0923 0002153  91.9184 268.2258 14.34218166436951
IRIDIUM 147             
1 43480U 18047E   26268.85393634  .00000247  00000+0  80997-4 0  9993
2 43480  86.3958  46.2132 0002020  93.8126 266.3301 14.34219355436912
IRIDIUM 110             
1 43481U 18047F   26268.79048891  .00000002  00000+0 -65155-5 0  9999
2 43481  86.3959  46.3347 0002255  94.5095 265.6359 14.34217950436897
IRIDIUM 162             
1 43482U 18047G   26268.76173977  .00000238  00000+0  64717-4 0  9993
2 43482  86.4479  46.2724 0002163  91.2595 268.8854 14.43278489439635
IRIDIUM 160             
1 43569U 18061A   26268.87586132  .00000075  00000+0  19829-4 0  9991
2 43569  86.4019  14.6940 0002173  96.2979 263.8464 14.34217635427806
IRIDIUM 166             
1 43570U 18061B   26269.04076925  .00000192  00000+0  61578-4 0  9995
2 43570  86.4019  14.5742 0002092  95.5173 264.6262 14.34218688427854
IRIDIUM 158             
1 43571U 18061C   26269.00905653  .00000071  00000+0  18156-4 0  9991
2 43571  86.4016  14.5972 0002194  92.6291 267.5155 14.34218113427811
IRIDIUM 165             
1 43572U 18061D   26269.03442653  .00000049  00000+0  10280-4 0  9996
2 43572  86.4019  14.6355 0002012  92.6802 267.4624 14.34217978427849
IRIDIUM 155             
1 43573U 18061E   26268.99637051  .00000009  00000+0 -37436-5 0  9999
2 43573  86.4011  14.5153 0001991  93.6362 266.5061 14.34217646427807
IRIDIUM 154             
1 43574U 18061F   26268.76803788  .00000012  00000+0 -29361-5 0  9999
2 43574  86.4016  14.7492 0001981  96.0588 264.0834 14.34217594427822
IRIDIUM 163             
1 43575U 18061G   26268.88854742  .00000025  00000+0  20218-5 0  9994
2 43575  86.4016  14.6107 0002236  94.5150 265.6301 14.34217771427819
IRIDIUM 156             
1 43576U 18061H   26269.00271382  .00000169  00000+0  53403-4 0  9993
2 43576  86.4016  14.5704 0002116  91.7877 268.3561 14.34218307427829
IRIDIUM 164             
1 43577U 18061J   26268.77438091  .00000058  00000+0  13694-4 0  9994
2 43577  86.4018  14.7077 0002058  97.1265 263.0165 14.34217454427838
IRIDIUM 159             
1 43578U 18061K   26269.02174186  .00000059  00000+0  14064-4 0  9999
2 43578  86.4016  14.5392 0002259  94.7038 265.4416 14.34217966427832
IRIDIUM 180             
1 43922U 19002A   26269.16077490  .00000056  00000+0  13084-4 0  9991
2 43922  86.3962 311.4107 0002274  94.3201 265.8255 14.34217945403467
IRIDIUM 176             
1 43923U 19002B   26269.09105056  .00000517  00000+0  78051-4 0  9991
2 43923  86.6081 311.3688 0002391  92.6950 267.4540 14.72255273414092
IRIDIUM 168             
1 43924U 19002C   26269.08466377  .00000120  00000+0  35673-4 0  9990
2 43924  86.3963 311.5224 0002273  94.3367 265.8088 14.34218246403439
IRIDIUM 173             
1 43925U 19002D   26269.14174757  .00000088  00000+0  24260-4 0  9999
2 43925  86.3958 311.3832 0002257  92.7208 267.4246 14.34218092403427
IRIDIUM 169             
1 43926U 19002E   26268.76033523  .00000210  00000+0  61978-4 0  9996
2 43926  86.4275 343.1719 0002161  84.7972 275.3473 14.38608992404686
IRIDIUM 172             
1 43927U 19002F   26269.13540451  .00000080  00000+0  21406-4 0  9999
2 43927  86.3958 311.3940 0002277  93.8058 266.3398 14.34218004403436
IRIDIUM 175             
1 43928U 19002G   26268.91954545  .00000134  00000+0  33641-4 0  9992
2 43928  86.4475 248.3903 0001259 216.1516 143.9600 14.43647843413511
IRIDIUM 171             
1 43929U 19002H   26269.11637625  .00000022  00000+0  89159-6 0  9996
2 43929  86.3966 311.7190 0002046  94.1418 266.0011 14.34217706403422
IRIDIUM 170             
1 43930U 19002J   26268.55346543  .00000507  00000+0  76558-4 0  9996
2 43930  86.6082 311.5953 0002465  92.5962 267.5538 14.72256758414022
IRIDIUM 167             
1 43931U 19002K   26268.55188401  .00000171  00000+0  53904-4 0  9991
2 43931  86.3962 311.6614 0002046  91.3567 268.7863 14.34218991403347
IRIDIUM 181             
1 56726U 23068S   26268.91139005  .00000237  00000+0  64541-4 0  9992
2 56726  86.4554  14.6825 0002260  98.7693 261.3764 14.43311952176969
IRIDIUM 177             
1 56727U 23068T   26269.10599628  .00000326  00000+0  42452-4 0  9992
2 56727  86.1912 280.9238 0002545  89.0726 271.0785 14.77169165181283
IRIDIUM 174             
1 56728U 23068U   26269.15282337  .00000546  00000+0  82713-4 0  9992
2 56728  86.6089 311.5022 0002557  88.9176 271.2334 14.72255831180873
IRIDIUM 178             
1 56729U 23068V   26268.91486116  .00000570  00000+0  71920-4 0  9992
2 56729  86.6586 343.3024 0002470  92.9145 267.2360 14.80046551181260
IRIDIUM 179             
1 56730U 23068W   26268.97712144  .00000815  00000+0  10432-3 0  9995
2 56730  86.6837 352.5501 0002381  91.2596 268.8898 14.80045798181272
