STARLINK-38024          
1 69975U 26159A   26222.11602229  .00124562  00000+0  82511-3 0  9995
2 69975  97.2824  62.2174 0002055  89.3431 270.8069 15.75154027  5950
STARLINK-37993          
1 69976U 26159B   26222.11426041  .00152859  00000+0  10095-2 0  9999
2 69976  97.2837  62.2192 0001998  79.0394 281.1095 15.75142260  5954
STARLINK-37995          
1 69977U 26159C   26222.09025456  .00182109  00000+0  11981-2 0  9998
2 69977  97.2828  62.0980 0002085  78.2608 281.8891 15.75146796  5943
STARLINK-38057          
1 69978U 26159D   26222.11990216  .00118422  00000+0  78574-3 0  9996
2 69978  97.2834  62.2122 0002583  94.4625 265.6935 15.75132085  5959
STARLINK-38063          
1 69979U 26159E   26222.13014147  .00181244  00000+0  11928-2 0  9990
2 69979  97.2828  62.1985 0002498  72.8362 287.3176 15.75142628  5954
STARLINK-38093          
1 69980U 26159F   26222.10366964  .00167258  00000+0  11022-2 0  9990
2 69980  97.2829  62.2342 0001908 102.9351 257.2128 15.75151744  5955
STARLINK-38050          
1 69981U 26159G   26222.08743219  .00146423  00000+0  96800-3 0  9999
2 69981  97.2832  62.1024 0002023  70.6971 289.4513 15.75136744  5941
STARLINK-38065          
1 69982U 26159H   26222.14673286  .00148254  00000+0  97911-3 0  9991
2 69982  97.2839  62.1757 0003927  54.5632 305.5999 15.75148868  5950
STARLINK-38077          
1 69983U 26159J   26222.10719847  .00122429  00000+0  81185-3 0  9994
2 69983  97.2853  62.2308 0001499  92.7401 267.4036 15.75136135  5952
STARLINK-38068          
1 69984U 26159K   26222.06413789  .00184051  00000+0  12100-2 0  9995
2 69984  97.2835  62.1354 0001980  79.9487 280.2002 15.75160038  5943
STARLINK-38089          
1 69985U 26159L   26222.07365633  .00168350  00000+0  11115-2 0  9990
2 69985  97.2833  62.1221 0002168 135.1022 225.0419 15.75105348  5946
STARLINK-38073          
1 69986U 26159M   26222.12237811  .00127095  00000+0  84230-3 0  9993
2 69986  97.2840  62.2106 0002246  71.8186 288.3323 15.75135011  5959
STARLINK-38099          
1 69987U 26159N   26222.08002109  .00160808  00000+0  10609-2 0  9996
2 69987  97.2828  62.1119 0001765  88.4499 271.6969 15.75144355  5946
STARLINK-38064          
1 69988U 26159P   26222.13225470  .00097445  00000+0  64794-3 0  9992
2 69988  97.2828  62.1951 0001857  98.1834 261.9642 15.75146626  5958
STARLINK-38080          
1 69989U 26159Q   26222.06237245  .00177969  00000+0  11715-2 0  9992
2 69989  97.2840  62.1380 0001838  90.2108 269.9367 15.75146910  5942
STARLINK-38070          
1 69990U 26159R   26222.06520007  .00162742  00000+0  10735-2 0  9999
2 69990  97.2840  62.1344 0002384  75.3937 284.7593 15.75141521  5944
STARLINK-38042          
1 69991U 26159S   26222.12130819  .00134821  00000+0  89276-3 0  9999
2 69991  97.2815  62.2096 0001242  80.5184 279.6221 15.75133290  5952
STARLINK-38071          
1 69992U 26159T   26222.07014176  .00176281  00000+0  11610-2 0  9993
2 69992  97.2833  62.1270 0002236  85.2510 274.9010 15.75138827  5949
STARLINK-38082          
1 69993U 26159U   26222.12414090  .00154372  00000+0  10188-2 0  9995
2 69993  97.2825  62.2060 0002356  79.7391 280.4140 15.75152530  5951
STARLINK-38090          
1 69994U 26159V   26222.11072909  .00164060  00000+0  10818-2 0  9999
2 69994  97.2847  62.2268 0001915  80.3599 279.7883 15.75146883  5953
STARLINK-38084          
1 69995U 26159W   26222.07578382  .00162736  00000+0  10734-2 0  9996
2 69995  97.2831  62.1186 0001635 101.6590 258.4859 15.75143842  5940
STARLINK-38085          
1 69996U 26159X   26222.11778631  .00165999  00000+0  10942-2 0  9996
2 69996  97.2831  62.2148 0002048  72.9864 287.1626 15.75148690  5951
STARLINK-38091          
1 69997U 26159Y   26222.09944705  .00135970  00000+0  90044-3 0  9999
2 69997  97.2817  62.2400 0002874  76.5888 283.5697 15.75124872  5954
STARLINK-38086          
1 69998U 26159Z   26222.12202382  .00153177  00000+0  10111-2 0  9997
2 69998  97.2827  62.2082 0001980  67.4254 292.7220 15.75152781  5959
