SAR-LUPE 2              
1 31797U 07030A   26278.58754822  .00051617  00000+0  53241-3 0  9990
2 31797  98.1107  38.1376 0003187 151.6636 208.4795 15.64656210 74125
SAPPHIRE                
1 39088U 13009C   26278.58929523  .00000047  00000+0  31566-4 0  9994
2 39088  98.4314  95.4737 0010046 281.6897  78.3162 14.35263800712410
PRAETORIAN SDA_602      
1 65565U 25203A   26278.49502330  .00000060  00000+0  43677-4 0  9996
2 65565  81.2992 268.6583 0004897 254.8672 105.1943 13.83894442 53951
PRAETORIAN SDA_603      
1 65566U 25203B   26278.44665112  .00000174  00000+0  14650-3 0  9994
2 65566  81.2999 268.6197 0008544 250.9620 109.0611 13.83967941 53953
PRAETORIAN SDA_604      
1 65567U 25203C   26278.46597179  .00000065  00000+0  48980-4 0  9997
2 65567  81.3013 269.1896 0004419 260.8873  99.1783 13.83058002 53926
PRAETORIAN SDA_605      
1 65568U 25203D   26278.49086859  .00000066  00000+0  49543-4 0  9996
2 65568  81.2979 268.7612 0007192 251.5538 108.4837 13.83135527 53948
PRAETORIAN SDA_606      
1 65569U 25203E   26278.47413148  .00000063  00000+0  46823-4 0  9995
2 65569  81.3015 269.0423 0004981 252.9443 107.1168 13.83212789 53936
PRAETORIAN SDA_607      
1 65570U 25203F   26278.50378898  .00000160  00000+0  13406-3 0  9991
2 65570  81.2996 268.5491 0007799 251.1196 108.9116 13.83765485 53961
PRAETORIAN SDA_608      
1 65571U 25203G   26278.48269164  .00000059  00000+0  42627-4 0  9999
2 65571  81.2968 268.6977 0004892 258.7902 101.2705 13.83826192 53941
PRAETORIAN SDA_609      
1 65572U 25203H   26278.45640703  .00000146  00000+0  12066-3 0  9999
2 65572  81.3012 268.6864 0005747 251.1839 108.8694 13.84217697 53950
PRAETORIAN SDA_610      
1 65573U 25203J   26278.48186529  .00000059  00000+0  42473-4 0  9993
2 65573  81.2970 268.7009 0005612 258.1770 101.8757 13.83535469 53948
PRAETORIAN SDA_611      
1 65574U 25203K   26278.50380905  .00000166  00000+0  14036-3 0  9993
2 65574  81.2970 268.8891 0004526 264.6679  95.3961 13.83316220 53937
PRAETORIAN SDA_612      
1 65575U 25203L   26278.42807991  .00000250  00000+0  21059-3 0  9991
2 65575  81.2992 268.2741 0008138 249.7676 110.2607 13.85040516 53976
PRAETORIAN SDA_613      
1 65576U 25203M   26278.48144217  .00000061  00000+0  44873-4 0  9993
2 65576  81.2960 268.9922 0004583 251.7594 108.3063 13.82773958 53921
PRAETORIAN SDA_614      
1 65577U 25203N   26278.43790064  .00000068  00000+0  49970-4 0  9996
2 65577  81.2974 268.3702 0006043 248.6692 111.3820 13.84785842 53971
PRAETORIAN SDA_615      
1 65578U 25203P   26278.51422312  .00000196  00000+0  16451-3 0  9993
2 65578  81.2985 268.3326 0007978 249.0601 110.9702 13.84444112 53975
PRAETORIAN SDA_616      
1 65579U 25203Q   26278.50622319  .00000180  00000+0  15354-3 0  9996
2 65579  81.3025 269.1050 0004410 261.3944  98.6713 13.83277101 53931
PRAETORIAN SDA_617      
1 65580U 25203R   26278.46489397  .00000065  00000+0  48352-4 0  9997
2 65580  81.2997 268.9645 0006328 249.8312 110.2164 13.83158250 53931
PRAETORIAN SDA_618      
1 65581U 25203S   26278.49421923  .00000165  00000+0  13728-3 0  9991
2 65581  81.2982 268.3090 0008683 253.5382 106.4821 13.84231033 53972
PRAETORIAN SDA_619      
1 65582U 25203T   26278.49761992  .00000177  00000+0  14924-3 0  9997
2 65582  81.3006 268.7158 0007115 249.5333 110.5060 13.83732196 54584
PRAETORIAN SDA_620      
1 65583U 25203U   26278.49258118  .00000189  00000+0  16208-3 0  9999
2 65583  81.2991 268.8101 0006422 247.1988 112.8490 13.83213715 53948
PRAETORIAN SDA_621      
1 65584U 25203V   26278.42384543  .00000067  00000+0  49659-4 0  9997
2 65584  81.2982 268.6885 0006329 243.2830 116.7679 13.83810882 53945
PRAETORIAN SDA_601      
1 65585U 25203W   26278.51731627 -.00014371  00000+0 -13155-1 0  9991
2 65585  81.3001 269.0255 0004395 268.0310  92.0343 13.83189031 53932
VICTUS HAZE PUMA        
1 69646U 26142A   26278.59777516  .00003886  00000+0  17517-3 0  9996
2 69646  97.4498 174.9604 0019686  78.0281 282.3161 15.21460500 16454
