COSMOS 2407             
1 28380U 04028A   26278.65777187  .00000046  00000+0  31867-4 0  9996
2 28380  82.9647 353.0139 0038010 304.4509 209.4192 13.76341799115071
COSMOS 2414             
1 28521U 05002A   26278.61955034  .00000070  00000+0  45251-4 0  9990
2 28521  82.9498 320.1210 0040413  16.5442 343.7029 13.87935904 99132
COSMOS 2463             
1 36519U 10017A   26278.62934649  .00000026  00000+0  11624-4 0  9996
2 36519  82.9636 168.5771 0035907 181.5029 242.8585 13.71671393823070
