OPS 7218 (TRANSIT 16)   
1 02807U 67048A   26278.41775841  .00000073  00000+0  98160-4 0  9991
2 02807  89.6763 344.2791 0019251 343.2908  28.3840 13.50782637922814
OPS 4947 (TRANSIT 17)   
1 02965U 67092A   26278.64087543  .00000049  00000+0  55058-4 0  9997
2 02965  89.2624   1.9750 0049614  93.9731  24.1534 13.53515186911135
OPS 7034 (TRANSIT 18)   
1 03133U 68012A   26278.58078847  .00000094  00000+0  12676-3 0  9996
2 03133  90.0207 274.3883 0074880  31.9917  85.9549 13.51626763609287
NNSS 19 (TRANSIT 19)    
1 04507U 70067A   26278.39502365  .00000136  00000+0  17613-3 0  9994
2 04507  90.0218 234.9237 0172382 152.5825 208.4555 13.51381513762284
NNSS 20 (TRANSIT 20)    
1 06909U 73081A   26278.47690899  .00000129  00000+0  12261-3 0  9996
2 06909  89.8624 250.6590 0152202 268.3954  89.9770 13.71537169844288
TRANSAT                 
1 10457U 77106A   26278.48676071  .00000074  00000+0  10192-3 0  9998
2 10457  89.6454  67.9739 0027038  59.9382   6.8719 13.48982784407446
NOVA 1                  
1 12458U 81044A   26278.51166411  .00000071  00000+0  14764-3 0  9999
2 12458  89.8385  86.9671 0014649  12.9583  48.0508 13.23311285191119
NOVA 3                  
1 15362U 84110A   26278.51469105  .00000061  00000+0  12581-3 0  9993
2 15362  90.1120  83.8631 0030152 229.3752 191.7206 13.23078307 26224
OSCAR 30                
1 15935U 85066A   26278.52236169  .00000077  00000+0  12610-3 0  9993
2 15935  90.1438 104.4057 0166824 326.8209  84.9035 13.36125777  4081
OSCAR 24                
1 15936U 85066B   26278.53987683  .00000080  00000+0  13071-3 0  9995
2 15936  90.1609  97.2978 0168022 333.4206  85.0115 13.35980791  6072
POLAR BEAR              
1 17070U 86088A   26278.60742920  .00000063  00000+0  54706-4 0  9994
2 17070  89.6246 172.0191 0037787 307.0627 115.4904 13.75303774   587
OSCAR 27                
1 18361U 87080A   26278.53875643  .00000094  00000+0  13962-3 0  9994
2 18361  90.3616  90.1930 0105638  94.3672 266.9554 13.44956901915466
OSCAR 29                
1 18362U 87080B   26278.57767859  .00000098  00000+0  14668-3 0  9996
2 18362  90.3624  90.6735 0106951 117.6017 311.9698 13.44492268914982
OSCAR 23                
1 19070U 88033A   26278.56714561  .00000026  00000+0  32652-4 0  9998
2 19070  90.3387  25.8165 0191123  75.1044 298.4434 13.27829314861924
OSCAR 32                
1 19071U 88033B   26278.58269066  .00000039  00000+0  58913-4 0  9998
2 19071  90.3390  25.9648 0189261  61.7997 310.9671 13.27990471862055
NOVA 2                  
1 19223U 88052A   26278.46565434  .00000076  00000+0  15957-3 0  9994
2 19223  89.9799  77.7667 0028696 276.1386 137.9600 13.22965670848719
OSCAR 25                
1 19419U 88074A   26278.56288471  .00000048  00000+0  65535-4 0  9996
2 19419  90.0513  21.4303 0097911 119.0590 253.5910 13.42672014866239
OSCAR 31                
1 19420U 88074B   26278.52227122  .00000054  00000+0  75248-4 0  9999
2 19420  90.0530  21.8288 0096154 113.5544 258.6611 13.42623361866338
