O3B FM5                 
1 39188U 13031A   26277.97975206 -.00000026  00000+0  00000+0 0  9993
2 39188   0.0749 312.5070 0002389 229.0945 178.4006  5.00115628242532
O3B FM4                 
1 39189U 13031B   26278.29907406 -.00000026  00000+0  00000+0 0  9997
2 39189   0.0409 359.9758 0004204 162.8706 197.1706  5.00115651242543
O3B FM2                 
1 39190U 13031C   26277.76481010 -.00000025  00000+0  00000+0 0  9997
2 39190   0.0364   6.1579 0002607 183.9658 169.8740  5.00116066242581
O3B PFM                 
1 39191U 13031D   26277.17926481 -.00000024  00000+0  00000+0 0  9998
2 39191   0.0582 336.7506 0004768 187.6342 195.6331  5.00115944242124
O3B FM3                 
1 40079U 14038A   26278.04556168 -.00000026  00000+0  00000+0 0  9993
2 40079   0.0485 355.5805 0003829 237.4523 126.9350  5.00115770218540
O3B FM7                 
1 40080U 14038B   26278.19160189 -.00000026  00000+0  00000+0 0  9995
2 40080   0.0413 353.1788 0002616 157.3203 209.5184  5.00115602223380
O3B FM6                 
1 40081U 14038C   26278.21855108 -.00000026  00000+0  00000+0 0  9991
2 40081   0.0456 355.3858 0002580 198.2700 166.3399  5.00115772223337
O3B FM8                 
1 40082U 14038D   26278.47161780 -.00000026  00000+0  00000+0 0  9996
2 40082   0.0446 355.0166 0002769 199.5491 165.4290  5.00116129223467
O3B FM10                
1 40348U 14083A   26278.29905697 -.00000026  00000+0  00000+0 0  9994
2 40348   0.0475 346.0046 0002676 206.6355 167.3559  5.00115708215391
O3B FM11                
1 40349U 14083B   26278.31173678 -.00000026  00000+0  00000+0 0  9994
2 40349   0.0527 348.6511 0002119 190.4466 180.9054  5.00115475215426
O3B FM12                
1 40350U 14083C   26278.53853904 -.00000026  00000+0  00000+0 0  9997
2 40350   0.0521 349.4612 0002440 204.9091 165.6255  5.00115962215430
O3B FM9                 
1 40351U 14083D   26277.36600897 -.00000025  00000+0  00000+0 0  9998
2 40351   0.0527 347.2355 0002601 203.7862 168.9757  5.00116047215538
LEO 1 (LEO VANTAGE 1)   
1 43113U 18004C   26278.38639854  .00001785  00000+0  12652-3 0  9995
2 43113  99.2438 211.1152 0349169 100.9770 263.0912 14.68330253453659
O3B FM15                
1 43231U 18024A   26277.63275638 -.00000025  00000+0  00000+0 0  9998
2 43231   0.0564 356.1657 0002598 199.2332 164.5962  5.00115795156497
O3B FM16                
1 43232U 18024B   26278.48460910 -.00000026  00000+0  00000+0 0  9993
2 43232   0.0595 358.8389 0002580 196.2586 164.8976  5.00116007156464
O3B FM14                
1 43233U 18024C   26278.32556888 -.00000026  00000+0  00000+0 0  9997
2 43233   0.0594   0.2722 0002825 193.0968 166.6262  5.00115782156461
O3B FM13                
1 43234U 18024D   26278.19159675 -.00000026  00000+0  00000+0 0  9996
2 43234   0.0541 341.6714 0000607 150.6425 227.6940  5.00115591156560
O3B FM20                
1 44112U 19020A   26277.35220458 -.00000025  00000+0  00000+0 0  9993
2 44112   0.0540 353.6810 0002239 200.7050 165.6107  5.00115685137030
O3B FM19                
1 44113U 19020B   26277.97882320 -.00000026  00000+0  00000+0 0  9995
2 44113   0.0738 337.0556 0002750 190.8158 192.1380  5.00115984136937
O3B FM17                
1 44114U 19020C   26278.45884394 -.00000026  00000+0  00000+0 0  9993
2 44114   0.0521  14.9051 0002579 182.2098 162.8791  5.00115666137046
O3B FM18                
1 44115U 19020D   26278.40522809 -.00000026  00000+0  00000+0 0  9999
2 44115   0.0541 353.3639 0002763 201.9921 164.6383  5.00115404137160
SALSAT                  
1 46495U 20068K   26278.57211251  .00006483  00000+0  21820-3 0  9999
2 46495  97.8888 288.4997 0007565 275.7985  84.2392 15.31144676332241
O3B MPOWER F1           
1 54755U 22174A   26278.20335785 -.00000026  00000+0  00000+0 0  9997
2 54755   0.0407 345.1460 0007015 212.0722  18.8014  5.00114374 70869
O3B MPOWER F2           
1 54756U 22174B   26278.04987329 -.00000026  00000+0  00000+0 0  9997
2 54756   0.0386 350.3998 0005459 198.0205 171.5734  5.00115406 70941
O3B MPOWER F4           
1 56367U 23059A   26267.52002965 -.00000018  00000+0  00000+0 0  9996
2 56367   0.0590 342.3109 0007695 196.7885 180.9060  5.00115028 63573
O3B MPOWER F3           
1 56368U 23059B   26278.14739057 -.00000026  00000+0  00000+0 0  9995
2 56368   0.0578 340.8964 0006338 205.7955 173.3024  5.00115417 60232
O3B MPOWER F9           
1 64866U 25153A   26278.51541559 -.00000026  00000+0  00000+0 0  9993
2 64866   0.0667 355.1436 0007510 208.9683 155.8556  5.00115148 25082
O3B MPOWER F10          
1 64867U 25153B   26277.88192143 -.00000025  00000+0  00000+0 0  9993
2 64867   0.0623 354.3293 0005402 284.4783  81.1342  5.00114804 27528
