SKYSAT-A                
1 39418U 13066C   26276.76934651  .00001468  00000+0  85323-4 0  9998
2 39418  97.3697 322.6726 0019683 300.6140  59.3150 15.13469324704908
SKYSAT-B                
1 40072U 14037D   26276.71528408  .00000760  00000+0  89007-4 0  9996
2 40072  98.3984 241.9602 0004304 292.7922  67.2838 14.88251535662105
SKYSAT-C1               
1 41601U 16040C   26277.32328275  .00005670  00000+0  15446-3 0  9999
2 41601  96.9500 303.2030 0002616  37.1149 323.0277 15.37849152574638
SKYSAT-C4               
1 41771U 16058B   26277.29489726  .00012918  00000+0  21854-3 0  9994
2 41771  96.9167 294.7186 0002408 157.2628 202.8733 15.51691325562378
SKYSAT-C5               
1 41772U 16058C   26276.83180833  .00004473  00000+0  13660-3 0  9994
2 41772  97.0374 312.5091 0000964 171.4667 188.6594 15.34382508560400
SKYSAT-C2               
1 41773U 16058D   26277.32615292  .00008008  00000+0  17621-3 0  9991
2 41773  97.0142 295.4599 0003817  45.6612 314.4950 15.44215207561888
SKYSAT-C3               
1 41774U 16058E   26276.91439384  .00018850  00000+0  26299-3 0  9999
2 41774  96.8934 303.8647 0001472 105.9851 254.1568 15.56930767563002
SKYSAT-C11              
1 42987U 17068A   26277.17998388  .00027938  00000+0  29889-3 0  9996
2 42987  97.4473  71.3325 0000118  70.3532 289.7739 15.63850511500248
SKYSAT-C10              
1 42988U 17068B   26277.31611644  .00006437  00000+0  18400-3 0  9998
2 42988  97.4654  55.4721 0001192  93.6782 266.4598 15.36342377499104
SKYSAT-C9               
1 42989U 17068C   26277.20470763  .00009243  00000+0  20484-3 0  9995
2 42989  97.4572  57.3911 0009003 101.9061 258.3197 15.43949247499560
SKYSAT-C8               
1 42990U 17068D   26277.31110611  .00007379  00000+0  19420-3 0  9998
2 42990  97.4670  55.6970 0001323  86.9185 273.2212 15.38859202499089
SKYSAT-C7               
1 42991U 17068E   26277.11339033  .00007828  00000+0  20606-3 0  9995
2 42991  97.4682  56.4934 0006823  80.0069 280.1946 15.38809361499114
SKYSAT-C6               
1 42992U 17068F   26277.20320356  .00005619  00000+0  17279-3 0  9992
2 42992  97.4725  55.9851 0001540 110.8091 249.3317 15.34091799499037
SKYSAT-C12              
1 43797U 18099AR  26277.28983500  .00012554  00000+0  20928-3 0  9996
2 43797  96.9231 296.3622 0006098 112.5414 247.6486 15.52094350438762
FLOCK 4Q-16             
1 58271U 23174R   26277.23205259  .00020066  00000+0  31365-3 0  9996
2 58271  97.3756   8.1715 0006957 133.2073 226.9763 15.53793818162486
PELICAN-1               
1 58296U 23174AS  26277.19274007  .00001702  00000+0  18326-4 0  9994
2 58296  97.3997  23.9192 0002466 136.9853 223.1600 15.65326553163279
FLOCK 4Q-2              
1 58320U 23174BS  26277.29157543  .00016279  00000+0  24949-3 0  9990
2 58320  97.3805   8.6949 0005844 103.0786 257.1121 15.54392070162525
FLOCK 4Q-9              
1 58322U 23174BU  26277.27102553  .00025420  00000+0  37821-3 0  9992
2 58322  97.3804   8.8728 0006894 103.7918 256.4103 15.55106925162517
FLOCK 4Q-4              
1 58327U 23174BZ  26277.24818639  .00021441  00000+0  34132-3 0  9994
2 58327  97.3765   7.7087 0005780 129.1950 230.9818 15.53283267162462
FLOCK 4Q-13             
1 58328U 23174CA  26277.26494879  .00019621  00000+0  27775-3 0  9995
2 58328  97.3974  11.6379 0006537 109.8360 250.3600 15.56518648162613
FLOCK 4BE-18            
1 60480U 24149N   26277.24389276  .00025916  00000+0  53095-3 0  9990
2 60480  97.3660   2.3572 0003448 196.5939 163.5198 15.46057662119131
FLOCK 4BE-7             
1 60481U 24149P   26277.19966188  .00027478  00000+0  58006-3 0  9990
2 60481  97.3691   1.5122 0002738 203.8524 156.2598 15.45168460119053
FLOCK 4BE-36            
1 60486U 24149U   26277.23126092  .00035711  00000+0  66174-3 0  9996
2 60486  97.3670   3.3339 0003430 205.7442 154.3639 15.48904497119196
FLOCK 4BE-25            
1 60487U 24149V   26277.03575826  .00024857  00000+0  57942-3 0  9990
2 60487  97.3729   1.1090 0002155 193.1210 166.9982 15.42238429118994
FLOCK 4BE-31            
1 60488U 24149W   26277.19041005  .00032522  00000+0  59584-3 0  9997
2 60488  97.3735   4.4058 0002477 203.8730 156.2407 15.49251138119225
FLOCK 4BE-20            
1 60489U 24149X   26276.50232504  .00053255  00000+0  10980-2 0  9990
2 60489  97.3608 359.3903 0004806 206.2708 153.8298 15.45712535118898
FLOCK 4BE-23            
1 60490U 24149Y   26277.20390490  .00020028  00000+0  48828-3 0  9994
2 60490  97.3710   0.3081 0002650 216.5346 143.5720 15.40925629118960
FLOCK 4BE-17            
1 60492U 24149AA  26276.95771765  .00027324  00000+0  60734-3 0  9991
2 60492  97.3702   1.3985 0002776 201.3315 158.7818 15.43641413119016
FLOCK 4BE-22            
1 60494U 24149AC  26276.96067860  .00030830  00000+0  64640-3 0  9994
2 60494  97.3665   1.7941 0002920 212.5169 147.5901 15.45346953119072
FLOCK 4BE-34            
1 60495U 24149AD  26277.23767783  .00029996  00000+0  62671-3 0  9990
2 60495  97.3715   2.9679 0002967 230.6543 129.4444 15.45455256119144
FLOCK 4BE-32            
1 60497U 24149AF  26277.25674129  .00029706  00000+0  59513-3 0  9995
2 60497  97.3652   2.6252 0003220 224.0266 136.0727 15.46685467119162
FLOCK 4BE-11            
1 60501U 24149AK  26277.25767487  .00033081  00000+0  64119-3 0  9990
2 60501  97.3629   2.9616 0003218 218.0466 142.0557 15.47624919119198
FLOCK 4BE-24            
1 60505U 24149AP  26276.96553043  .00035747  00000+0  68444-3 0  9998
2 60505  97.3644   2.9915 0003061 230.3603 129.7378 15.47963219119166
TANAGER-1               
1 60507U 24149AR  26276.51604512  .00011478  00000+0  25349-3 0  9991
2 60507  97.2274  10.1458 0000397  42.5089 317.6191 15.44020710119752
FLOCK 4BE-29            
1 60509U 24149AT  26277.23387083  .00036292  00000+0  65614-3 0  9994
2 60509  97.3748   5.1784 0000913 278.1544  81.9603 15.49611821119274
FLOCK 4BE-13            
1 60512U 24149AW  26277.01033114  .00031602  00000+0  65338-3 0  9990
2 60512  97.3658   2.7575 0003703 223.3445 136.7513 15.45749744119159
FLOCK 4BE-27            
1 60513U 24149AX  26277.10310405  .00006279  00000+0  18083-3 0  9999
2 60513  97.3754 359.0948 0002414 271.9359  88.1608 15.36112946118859
FLOCK 4BE-9             
1 60514U 24149AY  26276.16897681  .00026155  00000+0  56005-3 0  9992
2 60514  97.3726   1.7128 0001774 246.2343 113.8719 15.44760248118960
FLOCK 4BE-6             
1 60516U 24149BA  26276.48879891  .00023537  00000+0  53218-3 0  9996
2 60516  97.3722   1.1626 0002311 248.1175 111.9827 15.43163836118954
FLOCK 4BE-14            
1 60517U 24149BB  26277.00447055  .00029318  00000+0  61898-3 0  9995
2 60517  97.3626   1.9523 0003383 242.9224 117.1680 15.45150812119104
FLOCK 4BE-1             
1 60518U 24149BC  26277.02870468  .00033711  00000+0  66584-3 0  9995
2 60518  97.3717   3.6693 0003089 242.4029 117.6908 15.47074349119171
FLOCK 4BE-28            
1 60519U 24149BD  26277.24880173  .00018082  00000+0  31636-3 0  9998
2 60519  97.3687   5.1521 0002637 241.6067 118.4919 15.50680796119316
FLOCK 4BE-5             
1 60559U 24149CV  26277.05362597  .00027068  00000+0  59052-3 0  9992
2 60559  97.3779   2.3208 0002476 232.0028 128.0997 15.44199486119053
FLOCK 4BE-3             
1 60561U 24149CX  26277.20240854  .00028217  00000+0  58374-3 0  9996
2 60561  97.3629   2.3962 0002925 233.2085 126.8896 15.45757421119157
FLOCK 4BE-19            
1 60563U 24149CZ  26277.19321103  .00035956  00000+0  64025-3 0  9991
2 60563  97.3678   4.5845 0003811 242.4758 117.6107 15.50040108119270
FLOCK 4G-8              
1 62613U 25009E   26277.19023102  .00007105  00000+0  23493-3 0  9992
2 62613  97.3938 358.8403 0002451 289.8539  70.2438 15.31662155 95593
FLOCK 4G-9              
1 62622U 25009P   26277.17973926  .00005460  00000+0  19263-3 0  9990
2 62622  97.3887 357.4083 0003036 306.9150  53.1812 15.29663009 95519
FLOCK 4G-7              
1 62624U 25009R   26277.19711186  .00006226  00000+0  20956-3 0  9994
2 62624  97.3871 357.9971 0000996 301.3193  58.7951 15.31137710 95572
FLOCK 4G-12             
1 62625U 25009S   26277.19513509  .00006886  00000+0  23171-3 0  9998
2 62625  97.3954 358.6253 0002484 282.5603  77.5361 15.31105678 95578
FLOCK 4G-11             
1 62629U 25009W   26277.17156777  .00007043  00000+0  23533-3 0  9998
2 62629  97.3852 358.0720 0001183 305.3479  54.7652 15.31328158 95583
PELICAN-2               
1 62631U 25009Y   26277.02992679  .00005712  00000+0  14190-3 0  9994
2 62631  97.2034   6.4109 0000666 128.8828 231.2478 15.40709608 96316
FLOCK 4G-26             
1 62633U 25009AA  26277.17499808  .00006347  00000+0  21141-3 0  9997
2 62633  97.3948 358.8042 0001800 268.2608  91.8427 15.31469378 95588
FLOCK 4G-28             
1 62634U 25009AB  26277.19933114  .00006096  00000+0  17359-3 0  9990
2 62634  97.3972   2.2536 0000284 255.6725 104.4488 15.36477425 95810
FLOCK 4G-24             
1 62637U 25009AE  26277.17406601  .00006611  00000+0  21848-3 0  9998
2 62637  97.3955 359.1448 0001649 243.8813 116.2259 15.31710089 95608
FLOCK 4G-3              
1 62639U 25009AG  26274.18439279  .00003720  00000+0  12455-3 0  9997
2 62639  97.3949 355.8197 0001631 290.8006  69.3060 15.31586601 95119
FLOCK 4G-27             
1 62641U 25009AJ  26276.95438562  .00007644  00000+0  25634-3 0  9993
2 62641  97.3863 357.8165 0000597 279.8555  80.2619 15.31182382 95536
FLOCK 4G-29             
1 62642U 25009AK  26277.19331634  .00026939  00000+0  81208-3 0  9990
2 62642  97.3943 358.9269 0002174 215.3921 144.7178 15.34283466 95587
FLOCK 4G-22             
1 62645U 25009AN  26276.95918962  .00007621  00000+0  25577-3 0  9995
2 62645  97.3939 358.5445 0000813 241.3447 118.7713 15.31157089 95558
FLOCK 4G-25             
1 62646U 25009AP  26277.18316960  .00006506  00000+0  21755-3 0  9997
2 62646  97.3948 358.8816 0000351 253.6348 106.4855 15.31335696 95594
FLOCK 4G-23             
1 62647U 25009AQ  26277.17042737  .00039055  00000+0  94062-3 0  9991
2 62647  97.3840 359.3779 0001484 212.0445 148.0712 15.41160834 95668
FLOCK 4G-34             
1 62650U 25009AT  26277.20539852  .00006686  00000+0  22622-3 0  9995
2 62650  97.3895 358.2927 0000509 272.6895  87.4287 15.30943706 95582
FLOCK 4G-21             
1 62651U 25009AU  26277.24201667  .00030906  00000+0  81877-3 0  9999
2 62651  97.3922 359.9997 0001134 262.2849  97.8267 15.38297271 95689
FLOCK 4G-31             
1 62652U 25009AV  26277.23904873  .00011665  00000+0  39089-3 0  9997
2 62652  97.3899 358.2948 0000196  20.5096 339.6153 15.31078141 95583
FLOCK 4G-4              
1 62659U 25009BC  26277.17396940  .00006242  00000+0  17640-3 0  9991
2 62659  97.3867 358.5516 0001675 256.2336 103.8722 15.36704345153212
FLOCK 4G-6              
1 62660U 25009BD  26277.20950680  .00007042  00000+0  23549-3 0  9998
2 62660  97.3873 358.1303 0001793 318.5242  41.5863 15.31301710153173
FLOCK 4G-2              
1 62661U 25009BE  26277.18231468  .00006863  00000+0  22663-3 0  9998
2 62661  97.3939 358.8672 0002478 303.8177  56.2828 15.31715074153208
FLOCK 4G-5              
1 62663U 25009BG  26277.02194860  .00005702  00000+0  18669-3 0  9999
2 62663  97.3962 359.1864 0001773 278.4894  81.6146 15.32072894 95592
FLOCK 4G-1              
1 62666U 25009BK  26277.23781269  .00007824  00000+0  25833-3 0  9998
2 62666  97.3952 358.9036 0002661 297.1813  62.9157 15.31672823 95599
FLOCK 4G-14             
1 62667U 25009BL  26277.16341548  .00007212  00000+0  24231-3 0  9995
2 62667  97.3956 358.5705 0002635 290.9972  69.0987 15.31137365 95564
FLOCK 4G-10             
1 62670U 25009BP  26277.16803249  .00006806  00000+0  22798-3 0  9994
2 62670  97.3854 357.7768 0002816 318.8860  41.2169 15.31259257153207
FLOCK 4G-36             
1 62675U 25009BU  26277.22899197  .00007437  00000+0  24886-3 0  9994
2 62675  97.3945 358.5569 0002938 297.9706  62.1237 15.31260267 95578
FLOCK 4G-15             
1 62678U 25009BX  26277.16402826  .00007510  00000+0  25024-3 0  9996
2 62678  97.3947 358.6524 0003069 291.9882  68.1033 15.31392359153214
FLOCK 4G-30             
1 62679U 25009BY  26277.23553854  .00035975  00000+0  90166-3 0  9998
2 62679  97.3832 358.8963 0002069 269.5701  90.5308 15.39966316153286
FLOCK 4G-18             
1 62680U 25009BZ  26277.15777263  .00036286  00000+0  97829-3 0  9992
2 62680  97.3931 359.0749 0003627 290.9022  69.1834 15.37716371153242
FLOCK 4G-17             
1 62681U 25009CA  26277.18418259  .00006712  00000+0  22350-3 0  9991
2 62681  97.3849 358.0549 0003126 315.1918  44.9070 15.31455019153220
FLOCK 4G-33             
1 62685U 25009CE  26277.16101926  .00003598  00000+0  14033-3 0  9991
2 62685  97.3874 355.8239 0004049 315.7068  44.3847 15.26573489 95429
PELICAN-3               
1 65315U 25188A   26276.94083428  .00005262  00000+0  12944-3 0  9992
2 65315  97.1875 351.4361 0000879 117.2696 242.8641 15.41046233 62068
PELICAN-4               
1 65316U 25188B   26274.76961259  .00034084  00000+0  82373-3 0  9995
2 65316  97.1918 349.4369 0001782  65.6745 294.4688 15.41083093 61728
PELICAN-5               
1 66667U 25276B   26276.48707472  .00011329  00000+0  31330-3 0  9993
2 66667  97.3666 351.7595 0003216 113.6852 246.4731 15.37179903 47129
PELICAN-6               
1 66703U 25276AP  26277.15150380  .00004020  00000+0  12042-3 0  9998
2 66703  97.3291 351.7096 0001832  88.8398 271.3056 15.35091639 47225
FLOCK 4H-1              
1 66704U 25276AQ  26277.17976172  .00012664  00000+0  55497-3 0  9990
2 66704  97.4079 349.1745 0001061 311.8270  48.2876 15.22136306 47009
FLOCK 4H-2              
1 66705U 25276AR  26276.94281670  .00004849  00000+0  21531-3 0  9995
2 66705  97.4077 349.0168 0000705  45.9991 314.1304 15.22014566 46974
FLOCK 4H-3              
1 66706U 25276AS  26277.17858354  .00003811  00000+0  17460-3 0  9995
2 66706  97.4148 349.1371 0003398   4.2936 355.8328 15.21070269 46989
FLOCK 4H-4              
1 66707U 25276AT  26277.15886368  .00004616  00000+0  21183-3 0  9991
2 66707  97.4128 348.9430 0004057   1.5485 358.5763 15.20906274 46978
FLOCK 4H-5              
1 66708U 25276AU  26277.17359122  .00003820  00000+0  17197-3 0  9993
2 66708  97.4081 349.1849 0000912  75.3734 284.7603 15.21675560 47006
FLOCK 4H-6              
1 66709U 25276AV  26277.16575732  .00013297  00000+0  58818-3 0  9994
2 66709  97.4129 349.2478 0002296 327.4988  32.6107 15.21804424 46997
FLOCK 4H-7              
1 66710U 25276AW  26276.43721220  .00003951  00000+0  18005-3 0  9990
2 66710  97.4089 348.2141 0002800  44.3262 315.8198 15.21237153 46873
FLOCK 4H-8              
1 66711U 25276AX  26276.94828429  .00004718  00000+0  21361-3 0  9997
2 66711  97.4129 348.9229 0003373  22.3930 337.7453 15.21359775 46958
FLOCK 4H-9              
1 66712U 25276AY  26276.94551790  .00003902  00000+0  17564-3 0  9996
2 66712  97.4119 349.0424 0002278 344.6383  15.4784 15.21664219 46962
FLOCK 4H-10             
1 66713U 25276AZ  26277.13694988  .00004519  00000+0  20691-3 0  9996
2 66713  97.4095 348.8341 0003888   3.3821 356.7441 15.20995795 46972
FLOCK 4H-12             
1 66715U 25276BB  26276.99754090  .00004524  00000+0  20319-3 0  9995
2 66715  97.4094 349.0034 0001006 353.3318   6.7904 15.21659322 47289
FLOCK 4H-13             
1 66716U 25276BC  26277.16172437  .00004178  00000+0  18752-3 0  9998
2 66716  97.4127 349.3822 0000393 107.8548 252.2731 15.21729484 47003
FLOCK 4H-14             
1 66717U 25276BD  26277.16139913  .00004805  00000+0  21167-3 0  9992
2 66717  97.4109 349.4705 0000517 102.3689 257.7606 15.22293277 46264
FLOCK 4H-15             
1 66718U 25276BE  26277.16450469  .00012895  00000+0  56899-3 0  9993
2 66718  97.4118 348.9104 0003104  13.2896 346.8422 15.21893229 46973
FLOCK 4H-16             
1 66719U 25276BF  26277.01210808  .00004576  00000+0  20941-3 0  9995
2 66719  97.4139 348.8736 0003843   6.3393 353.7891 15.21004964 46957
FLOCK 4H-18             
1 66721U 25276BH  26277.15322826  .00004186  00000+0  19226-3 0  9998
2 66721  97.4082 348.7569 0004017  29.7502 330.3962 15.20929714 46975
FLOCK 4H-19             
1 66722U 25276BJ  26276.96044401  .00003860  00000+0  17200-3 0  9995
2 66722  97.4082 349.1684 0000270 191.8486 168.2744 15.22027566 46273
FLOCK 4H-20             
1 66723U 25276BK  26277.27929389  .00004803  00000+0  21141-3 0  9995
2 66723  97.4119 349.6569 0001035 286.1187  73.9936 15.22324730 46287
FLOCK 4H-21             
1 66724U 25276BL  26277.00351429  .00004076  00000+0  18210-3 0  9996
2 66724  97.4084 349.1228 0000843 289.8491  70.2654 15.21901024 46238
FLOCK 4H-22             
1 66725U 25276BM  26276.94311902  .00004804  00000+0  21709-3 0  9997
2 66725  97.4076 348.7031 0002998  39.1372 321.0080 15.21418739 46959
FLOCK 4H-23             
1 66726U 25276BN  26277.15372887  .00004046  00000+0  18596-3 0  9999
2 66726  97.4146 349.0105 0003694 356.8034   3.3177 15.20924356 46977
FLOCK 4H-24             
1 66727U 25276BP  26277.19794854  .00003965  00000+0  18169-3 0  9991
2 66727  97.4142 349.0927 0003776  14.4518 345.6825 15.21039255 46980
FLOCK 4H-25             
1 66728U 25276BQ  26277.29099840  .00003782  00000+0  16994-3 0  9997
2 66728  97.4096 349.3955 0000948 110.9772 249.1566 15.21752193 46304
FLOCK 4H-26             
1 66729U 25276BR  26277.18097374  .00003681  00000+0  17036-3 0  9992
2 66729  97.4096 348.7742 0004457   8.8700 351.2613 15.20743988 46979
FLOCK 4H-27             
1 66730U 25276BS  26277.19930694  .00003843  00000+0  17341-3 0  9995
2 66730  97.4072 349.1117 0001020  87.3916 272.7436 15.21591295 47008
FLOCK 4H-29             
1 66732U 25276BU  26276.95569189  .00004675  00000+0  21463-3 0  9991
2 66732  97.4074 348.5296 0003458  29.0066 331.1361 15.20886404 46946
FLOCK 4H-30             
1 66733U 25276BV  26277.13782809  .00004651  00000+0  21270-3 0  9999
2 66733  97.4137 348.9984 0003966  12.7650 347.3685 15.21022460 46973
FLOCK 4H-31             
1 66734U 25276BW  26277.17192588  .00003857  00000+0  17828-3 0  9994
2 66734  97.4073 348.6940 0003733  23.2175 336.9228 15.20762681 46975
FLOCK 4H-32             
1 66735U 25276BX  26277.15349264  .00003984  00000+0  18343-3 0  9992
2 66735  97.4129 348.9457 0004225   7.5423 352.5875 15.20876930 46977
FLOCK 4H-33             
1 66736U 25276BY  26277.18371825  .00003868  00000+0  17246-3 0  9996
2 66736  97.4126 349.5015 0000657 268.8616  91.2545 15.22001396 47018
FLOCK 4H-34             
1 66737U 25276BZ  26277.18848183  .00003945  00000+0  17759-3 0  9998
2 66737  97.4142 349.4066 0000815 297.9203  62.1951 15.21662120 46253
FLOCK 4H-35             
1 66738U 25276CA  26277.15889802  .00003399  00000+0  15312-3 0  9995
2 66738  97.4100 349.2825 0000438 227.9712 132.1487 15.21733466 46296
FLOCK 4H-36             
1 66739U 25276CB  26277.14177914  .00004808  00000+0  21614-3 0  9997
2 66739  97.4150 349.3508 0001129 322.5101  37.6056 15.21602111 46993
EDDA-1                  
1 69017U 26100AP  26275.87555500  .00001784  00000+0  72731-4 0  9992
2 69017  97.3367 171.9728 0003528 101.6576 258.5058 15.25741641 23216
PELICAN-8               
1 69018U 26100AQ  26276.13377066  .00008977  00000+0  33548-3 0  9995
2 69018  97.3058 172.1144 0003128  79.6843 280.4749 15.27573124 23274
PELICAN-9               
1 69019U 26100AR  26277.24531326  .00002958  00000+0  11162-3 0  9991
2 69019  97.2465 172.6022 0003484  99.5221 260.6413 15.27794687 23426
PELICAN-11              
1 69871U 26156C   26274.71841489  .00000319  00000+0  33641-4 0  9997
2 69871  97.7042 173.7839 0005728 340.8060  19.2944 14.95872251 12706
