CALSPHERE 1             
1 00900U 64063C   26278.42514369  .00000481  00000+0  47975-3 0  9994
2 00900  90.2195  74.3208 0024638 321.4135  92.1306 13.76721474 86594
CALSPHERE 2             
1 00902U 64063E   26278.45181243  .00000072  00000+0  94617-4 0  9992
2 00902  90.2303  78.3829 0016667 266.9748 152.1416 13.52907328871179
LCS 1                   
1 01361U 65034C   26278.03554858  .00000024  00000+0  20639-2 0  9999
2 01361  32.1412 276.2124 0010947 153.2420 206.8644  9.89310993220766
TEMPSAT 1               
1 01512U 65065E   26278.60380186  .00000034  00000+0  52024-4 0  9991
2 01512  90.0100 212.6303 0068112 299.5543 236.1455 13.33599646974761
CALSPHERE 4A            
1 01520U 65065H   26278.59588029  .00000092  00000+0  15764-3 0  9997
2 01520  89.8865 121.3585 0070449 150.6536 274.7892 13.36293863977454
OPS 5712 (P/L 160)      
1 02826U 67053A   26278.60790323  .00005081  00000+0  69852-3 0  9990
2 02826  69.9153 127.3789 0003324 262.5224  97.5546 14.78896746 82551
OPS 5712 (P/L 153)      
1 02874U 67053H   26278.61587720  .00000011  00000+0  46358-4 0  9994
2 02874  69.9727 238.6039 0005434  32.4320 327.7119 13.96841320 22218
RIGIDSPHERE 2 (LCS 4)   
1 05398U 71067E   26278.62998878  .00000398  00000+0  12349-3 0  9999
2 05398  87.6176 308.1469 0058185 224.7296 134.9204 14.37970893889753
COSMOS 2493 (SKRL-756 1)
1 39490U 13078A   26278.64413527  .00001365  00000+0  10035-3 0  9997
2 39490  82.4132 153.1018 0011481 226.1352 133.8925 15.02624543694543
COSMOS 2494 (SKRL-756 2)
1 39491U 13078B   26278.64040976  .00002366  00000+0  16268-3 0  9998
2 39491  82.4118 142.0269 0015344 184.8162 175.2920 15.05400269695427
