SCD 1                   
1 22490U 93009B   26278.59895932  .00000328  00000+0  38545-4 0  9994
2 22490  24.9695 245.8295 0041704 226.3802 295.1119 14.46154629777111
TECHSAT 1B (GO-32)      
1 25397U 98043D   26278.55589998  .00000033  00000+0  34603-4 0  9998
2 25397  99.0170 274.1509 0000291 228.1466 131.9687 14.24445585467041
SCD 2                   
1 25504U 98060A   26278.23149971  .00000319  00000+0  38024-4 0  9993
2 25504  24.9943 113.4967 0016650 205.6042 316.3897 14.45558747476269
DLR-TUBSAT              
1 25757U 99029B   26278.58598832  .00000034  00000+0  20190-4 0  9990
2 25757  98.6780 277.7710 0014541  19.2158 340.9583 14.52448447449279
TERRA                   
1 25994U 99068A   26278.62401265  .00000201  00000+0  49875-4 0  9991
2 25994  97.9334 323.7261 0001294 207.5380 267.1382 14.61170134425739
MAROC-TUBSAT            
1 27004U 01056D   26278.47657277 -.00000020  00000+0  30936-4 0  9992
2 27004  99.8134  97.4638 0019324 219.0054 204.9965 13.70266150241290
AQUA                    
1 27424U 02022A   26278.57180598  .00000476  00000+0  10424-3 0  9993
2 27424  98.4430 250.1415 0001072  63.1337   1.4504 14.62223103299402
SHIYAN-1 (SY-1)         
1 28220U 04012A   26278.21663585  .00016848  00000+0  47750-3 0  9994
2 28220  97.8623   3.6072 0004848   2.0525 358.0736 15.36327108227972
AURA                    
1 28376U 04026A   26278.63049981  .00000484  00000+0  10757-3 0  9991
2 28376  98.3557 236.0767 0001126  68.6587 291.4733 14.61462156182349
IRS-P5 (CARTOSAT-1)     
1 28649U 05017A   26278.59706970  .00000855  00000+0  91225-4 0  9990
2 28649  97.5276 296.6519 0002479  75.7230 284.4265 14.91272766160273
SINAH 1                 
1 28893U 05043D   26278.62460155  .00000181  00000+0  43865-4 0  9995
2 28893  98.3021  53.6991 0013228 292.3535  67.6265 14.64218427116686
RESURS-DK 1             
1 29228U 06021A   26278.54644834  .00001160  00000+0  70547-4 0  9999
2 29228  69.9324  53.7929 0003337 191.1353 168.9741 15.13570873119278
ARIRANG-2 (KOMPSAT-2)   
1 29268U 06031A   26278.62709156  .00000212  00000+0  48256-4 0  9991
2 29268  97.8343  97.7706 0015874  83.4955   6.6055 14.64713032 77645
LAPAN-TUBSAT            
1 29709U 07001A   26278.61768403  .00000054  00000+0  12754-4 0  9996
2 29709  98.1418 280.3787 0011966 180.0252 180.0964 14.86037981 67554
HAIYANG-1B              
1 31113U 07010A   26278.54772336  .00000050  00000+0  34974-4 0  9994
2 31113  98.3643 256.1851 0012424 231.7635 128.2431 14.31049024 16424
COSMO-SKYMED 1          
1 31598U 07023A   26278.66743368  .00001310  00000+0  11758-3 0  9995
2 31598  97.8803 111.4866 0000971  91.5581 268.5752 14.97504157 46329
TERRASAR-X              
1 31698U 07026A   26278.52113153 -.00000050  00000+0  82120-6 0  9992
2 31698  97.4473 284.6645 0001717  88.1709 271.9722 15.19150249 69975
WORLDVIEW-1 (WV-1)      
1 32060U 07041A   26278.56538307  .00004661  00000+0  19540-3 0  9993
2 32060  97.3832  36.7363 0003671  12.0763 348.0561 15.23987116 59698
YAOGAN-3                
1 32289U 07055A   26278.59413573  .00001013  00000+0  10784-3 0  9990
2 32289  97.8099 307.3679 0001883  81.6841 278.4590 14.91110886 22324
COSMO-SKYMED 2          
1 32376U 07059A   26278.60834253  .00000232  00000+0  35675-4 0  9994
2 32376  97.8906 100.6391 0001388  90.8709 269.2663 14.82148042 18361
RADARSAT-2              
1 32382U 07061A   26278.59182436 -.00000200  00000+0 -60819-4 0  9996
2 32382  98.5832 283.9673 0001227  85.2248 274.9075 14.29981316981730
CARTOSAT-2A             
1 32783U 08021A   26278.63947426  .00000940  00000+0  13279-3 0  9997
2 32783  97.7520 323.5141 0013244 109.6561 250.6082 14.79346876995131
HUANJING 1A (HJ-1A)     
1 33320U 08041A   26278.60425469  .00000425  00000+0  56824-4 0  9994
2 33320  97.6823 260.2604 0019939 132.2066 228.0846 14.84188569974788
HUANJING 1B (HJ-1B)     
1 33321U 08041B   26278.62470177 -.00000156  00000+0 -12419-4 0  9998
2 33321  97.6651 263.1105 0036000 178.4746 181.6585 14.83481836974787
GEOEYE 1                
1 33331U 08042A   26278.61776157  .00000212  00000+0  48698-4 0  9995
2 33331  98.1240 351.2049 0005781  75.8657 284.3188 14.64701240966310
THEOS                   
1 33396U 08049A   26278.58400856  .00000020  00000+0  29230-4 0  9997
2 33396  98.5449 332.2138 0001277  84.6423 275.4900 14.20144249933633
COSMO-SKYMED 3          
1 33412U 08054A   26278.61172706  .00002571  00000+0  17332-3 0  9998
2 33412  97.8121 138.9740 0013878 250.2003 109.7729 15.07523139973576
YAOGAN-4                
1 33446U 08061A   26278.52973524  .00000609  00000+0  80769-4 0  9995
2 33446  97.9355 211.2532 0015641  72.7190 287.5734 14.83369382962021
GOSAT (IBUKI)           
1 33492U 09002A   26278.59357896  .00000360  00000+0  71906-4 0  9994
2 33492  98.0976  28.3385 0001536  86.7210 273.4170 14.67536166947650
DEIMOS-1                
1 35681U 09041A   26278.67289236  .00000629  00000+0  99809-4 0  9990
2 35681  97.7556  71.2202 0001611 133.9834 226.1509 14.75330220923172
DUBAISAT-1              
1 35682U 09041B   26278.64916300  .00000514  00000+0  83395-4 0  9993
2 35682  98.0210  50.8075 0011647  78.3238 281.9277 14.75275848921381
OCEANSAT-2              
1 35931U 09051A   26278.64498053  .00000327  00000+0  24906-3 0  9995
2 35931  98.2464 254.5249 0014284 286.8842  73.0758 13.99669489894784
WORLDVIEW-2 (WV-2)      
1 35946U 09055A   26278.59581650  .00000046  00000+0  29534-4 0  9996
2 35946  98.4726 350.5215 0003274 245.7361 114.3484 14.37924288891517
SMOS                    
1 36036U 09059A   26278.48018111  .00000213  00000+0  81863-4 0  9995
2 36036  98.4425 104.2166 0001099  76.1089 284.0221 14.39774684889324
YAOGAN-7                
1 36110U 09069A   26278.63892994  .00000274  00000+0  44934-4 0  9990
2 36110  97.9885 163.7230 0025565  45.1347 315.1934 14.78091677905941
TANDEM-X                
1 36605U 10030A   26278.45526262 -.00000045  00000+0  10602-5 0  9994
2 36605  97.4467 284.6015 0001787  96.3398 263.8040 15.19150316903384
CARTOSAT-2B             
1 36795U 10035A   26278.64263589  .00000878  00000+0  12681-3 0  9990
2 36795  97.9836 328.4127 0011193 187.0866 173.0188 14.78663581876178
YAOGAN-10               
1 36834U 10038A   26278.63401127  .00000826  00000+0  10163-3 0  9994
2 36834  97.8941 301.1534 0001573  91.2232  57.2751 14.85616668873608
COSMO-SKYMED 4          
1 37216U 10060A   26278.62101227  .00000711  00000+0  95884-4 0  9998
2 37216  97.8915 100.6542 0001595  83.0251 277.1143 14.82156704860925
RESOURCESAT-2           
1 37387U 11015A   26278.58978645  .00000004  00000+0  21901-4 0  9993
2 37387  98.7533 345.2046 0010252 301.6190  58.3986 14.21612376801864
HAIYANG-2A              
1 37781U 11043A   26278.62471213 -.00000010  00000+0  37218-4 0  9992
2 37781  99.3469 278.5388 0003880  87.6694 272.4898 13.71121496761805
RASAT                   
1 37791U 11044D   26278.59212420  .00000688  00000+0  12751-3 0  9997
2 37791  98.0549   8.2930 0020013 198.7412 276.1599 14.68249929809385
SRMSAT                  
1 37841U 11058D   26278.23206073  .00000353  00000+0  47825-4 0  9996
2 37841  19.9709 113.3727 0011724 334.9905 182.4544 14.11596284773389
PLEIADES 1A             
1 38012U 11076F   26278.58716943  .00000275  00000+0  69005-4 0  9994
2 38012  98.1885 352.1513 0001577 101.5444  27.3234 14.58549061788089
ZIYUAN 1-02C (ZY 1-02C) 
1 38038U 11079A   26278.63638047  .00000307  00000+0  11509-3 0  9990
2 38038  98.3959 343.5755 0006028 348.4960 153.9588 14.38283995775087
ARIRANG-3 (KOMPSAT-3)   
1 38338U 12025B   26278.61338545  .00000254  00000+0  59617-4 0  9997
2 38338  98.1320 234.2436 0006433 120.5291 239.6546 14.62283627767488
EXACTVIEW-1 (ADS-1B)    
1 38709U 12039C   26278.61869579  .00000073  00000+0  51279-4 0  9995
2 38709  98.9901  38.5702 0010388 208.7332 151.3275 14.25010465738432
SPOT 6                  
1 38755U 12047A   26278.64710067  .00000371  00000+0  89579-4 0  9990
2 38755  98.2009 344.5952 0001111  84.5519 275.5807 14.58539425749152
PLEIADES 1B             
1 39019U 12068A   26278.59675932  .00000440  00000+0  10435-3 0  9993
2 39019  98.1856 352.0705 0001612  97.4350 262.7032 14.58572963736942
GOKTURK 2               
1 39030U 12073A   26278.61267602 -.00000128  00000+0 -11870-4 0  9996
2 39030  97.6776 110.5045 0001551  59.4495 300.6868 14.75623955740798
LANDSAT 8               
1 39084U 13008A   26278.58325540  .00000162  00000+0  45934-4 0  9990
2 39084  98.2195 347.3430 0001312  94.5853 265.5495 14.57108489713975
SARAL                   
1 39086U 13009A   26278.57980242  .00000045  00000+0  32583-4 0  9994
2 39086  98.5555 103.7717 0001522   0.9832 359.1355 14.32910525711410
GAOFEN-1                
1 39150U 13018A   26278.59151829  .00000473  00000+0  75005-4 0  9990
2 39150  97.8992 348.3510 0015610 270.4938  89.4483 14.76552390724533
VNREDSAT 1              
1 39160U 13021B   26278.61409855  .00000487  00000+0  99879-4 0  9993
2 39160  97.8962 327.7078 0001297  97.5162 262.6189 14.64757718716452
ARIRANG-5 (KOMPSAT-5)   
1 39227U 13042A   26278.57020728  .00000565  00000+0  44640-4 0  9996
2 39227  97.6219 103.7399 0005005 103.8560 256.3223 15.04519207720459
SKYSAT-A                
1 39418U 13066C   26278.62057110  .00001751  00000+0  10107-3 0  9993
2 39418  97.3695 324.4629 0019611 293.6944  66.2230 15.13476586705187
DUBAISAT-2              
1 39419U 13066D   26278.63195209  .00004052  00000+0  24713-3 0  9992
2 39419  97.4687 266.0023 0011680  22.5490 337.6251 15.10841512703067
GPM-CORE                
1 39574U 14009C   26278.64252363  .00005158  00000+0  11312-3 0  9997
2 39574  64.9699 297.9837 0010779 269.1226  90.8680 15.45230340714875
SENTINEL-1A             
1 39634U 14016A   26278.60811700  .00000112  00000+0  33006-4 0  9994
2 39634  98.1605 284.4052 0001472  84.6727 275.4641 14.59810103666121
KAZEOSAT 1              
1 39731U 14024A   26278.62266753  .00000203  00000+0  74692-4 0  9992
2 39731  98.3105 348.2593 0001462  86.4851 273.6506 14.42068965654470
ALOS-2                  
1 39766U 14029A   26278.58361990  .00001349  00000+0  18751-3 0  9994
2 39766  97.9224  14.1655 0001625  93.3440 266.7958 14.79474491667906
KAZEOSAT 2              
1 40010U 14033A   26278.56215647  .00000413  00000+0  53569-4 0  9996
2 40010  97.5348 112.3308 0007663 324.0136  36.0564 14.85574190665344
HODOYOSHI-4             
1 40011U 14033B   26278.56838295  .00000257  00000+0  33331-4 0  9998
2 40011  97.5484  98.1142 0022336 301.7972  58.1070 14.88338759665223
DEIMOS-2                
1 40013U 14033D   26278.63752427  .00000512  00000+0  53203-4 0  9994
2 40013  97.5632 149.1566 0001219  48.2981 311.8343 14.93959464654214
HODOYOSHI-3             
1 40015U 14033F   26278.38483717  .00000662  00000+0  81934-4 0  9999
2 40015  97.6551  77.0984 0032498 354.1376   5.9454 14.85587179663989
SPOT 7                  
1 40053U 14034A   26278.65136657  .00000315  00000+0  73476-4 0  9997
2 40053  98.0509 338.2293 0001177  93.8482 266.2854 14.61032241653264
SKYSAT-B                
1 40072U 14037D   26278.46335617  .00000936  00000+0  10810-3 0  9998
2 40072  98.3988 243.8117 0004263 285.2545  74.8198 14.88255214662362
WORLDVIEW-3 (WV-3)      
1 40115U 14048A   26278.59814083  .00000466  00000+0  60616-4 0  9999
2 40115  97.8471 351.8571 0000932  23.0730 337.0527 14.85161646658297
GAOFEN-2                
1 40118U 14049A   26278.64485530  .00000197  00000+0  32322-4 0  9994
2 40118  97.9993 342.6819 0006112 228.6840 131.3846 14.81017425655583
YAOGAN-21               
1 40143U 14053A   26278.64508912  .00007141  00000+0  26731-3 0  9999
2 40143  97.1378 314.1720 0009445  66.3882 293.8349 15.27545536671816
YAOGAN-22               
1 40275U 14063A   26278.38347084 -.00000001  00000+0  12226-3 0  9991
2 40275 100.7892  71.5763 0005896 305.2872  54.7688 13.15533871574305
ASNARO                  
1 40298U 14070A   26278.58933994  .00011952  00000+0  56332-3 0  9999
2 40298  97.3361 351.6706 0006330 134.6013 225.5740 15.19626764660770
YAOGAN-24               
1 40310U 14072A   26278.63836559  .00000840  00000+0  12910-3 0  9999
2 40310  98.1652  57.0033 0013046 271.3689  88.6025 14.76201016640017
CBERS 4                 
1 40336U 14079A   26278.58385024  .00000110  00000+0  52836-4 0  9996
2 40336  98.3410 331.8812 0001934  76.2641 283.8761 14.35517188619792
YAOGAN-26               
1 40362U 14088A   26278.63288222  .00011768  00000+0  20042-3 0  9997
2 40362  97.0729 276.6242 0003686  38.3305 321.8209 15.51527579654800
SMAP                    
1 40376U 15003A   26278.57572497  .00000233  00000+0  54230-4 0  9995
2 40376  98.1317 284.1284 0001431  88.3757 271.7609 14.63382107623768
KOMPSAT-3A              
1 40536U 15014A   26278.60229912  .00026104  00000+0  31167-3 0  9998
2 40536  97.6944 278.5674 0050662 129.7377 230.8360 15.59412770638991
SENTINEL-2A             
1 40697U 15028A   26278.63423578  .00000033  00000+0  29183-4 0  9997
2 40697  98.5647 351.8754 0001091  90.4183 269.7125 14.30819633589525
GAOFEN-8                
1 40701U 15030A   26278.63688774  .00032528  00000+0  58657-3 0  9998
2 40701  97.6825 118.9353 0008826 145.5528 214.6296 15.49668843628533
CARBONITE 1 (CBNT-1)    
1 40718U 15032D   26278.64744331  .00001490  00000+0  18547-3 0  9999
2 40718  97.6576  92.1664 0013072 294.7464  65.2390 14.83866084605722
YAOGAN-27               
1 40878U 15040A   26278.63855274 -.00000240  00000+0 -51978-3 0  9992
2 40878 100.1305 260.2856 0007926 324.7558  35.3030 13.16073083532192
GAOFEN-9 01             
1 40894U 15047A   26278.65187465  .00000497  00000+0  66861-4 0  9999
2 40894  97.6192 309.2901 0028325 135.2843 225.0662 14.83042993596568
YAOGAN-28               
1 41026U 15064A   26278.66480895  .00006943  00000+0  25125-3 0  9999
2 41026  97.3226  54.8840 0010971 152.5650 207.6171 15.28672808607559
YAOGAN-29               
1 41038U 15069A   26278.62027838 -.00000168  00000+0 -13918-4 0  9990
2 41038  97.9973 307.3938 0002496  56.1088 304.0363 14.83152454586997
KENT RIDGE 1            
1 41167U 15077B   26278.35511098  .00003643  00000+0  11623-3 0  9997
2 41167  14.9788 166.3116 0008223 353.7819   6.2401 15.23689587597922
GAOFEN-4                
1 41194U 15083A   26278.58498988 -.00000351  00000+0  00000+0 0  9998
2 41194   0.6353  82.9732 0003500 144.3463 103.2673  1.00271725 39630
JASON-3                 
1 41240U 16002A   26278.60467458 -.00000036  00000+0  10389-3 0  9998
2 41240  66.0399 253.6895 0008543 267.6201  92.3839 12.87628028501462
SENTINEL-3A             
1 41335U 16011A   26278.60096599  .00000031  00000+0  30960-4 0  9999
2 41335  98.6254 344.3875 0001290 104.3287 255.8037 14.26738407553806
ZIYUAN 3-02 (ZY 3-02)   
1 41556U 16033A   26278.62495834  .00004548  00000+0  20543-3 0  9997
2 41556  97.3746 352.2148 0011408 272.0109  87.9820 15.21408174574776
CARTOSAT-2C             
1 41599U 16040A   26278.64638839  .00005927  00000+0  28393-3 0  9991
2 41599  97.4362 337.0239 0010142 107.4382 252.7962 15.19265038570488
SKYSAT-C1               
1 41601U 16040C   26278.62464328  .00007677  00000+0  20825-3 0  9999
2 41601  96.9500 304.4353 0002468  34.2706 325.8699 15.37871253574838
LAPAN-A3                
1 41603U 16040E   26278.60488591  .00002684  00000+0  84620-4 0  9994
2 41603  97.1587 271.2264 0009536 350.0121  10.0931 15.33699992571735
GAOFEN-3                
1 41727U 16049A   26278.60283451 -.00000008  00000+0  10822-4 0  9990
2 41727  98.4062 284.7423 0001233 103.8573 256.2754 14.42210700534563
SKYSAT-C4               
1 41771U 16058B   26278.58464886  .00018164  00000+0  30594-3 0  9997
2 41771  96.9165 295.9596 0002553 155.1349 205.0028 15.51741144562571
SKYSAT-C5               
1 41772U 16058C   26278.59261162  .00005878  00000+0  17867-3 0  9997
2 41772  97.0374 314.1883 0001166 167.7347 192.3925 15.34403444560677
SKYSAT-C2               
1 41773U 16058D   26278.55734837  .00011389  00000+0  24950-3 0  9993
2 41773  97.0141 296.6478 0003690  42.6097 317.5438 15.44246085562074
SKYSAT-C3               
1 41774U 16058E   26278.58541885  .00025285  00000+0  35097-3 0  9990
2 41774  96.8933 305.4798 0001514 109.3745 250.7675 15.57014322563263
ALSAT-1B                
1 41785U 16059C   26278.60991836  .00000345  00000+0  61982-4 0  9994
2 41785  97.7802 282.6333 0008094 225.3445 134.7104 14.72342556536826
PATHFINDER 1            
1 41787U 16059E   26278.57838096  .00000346  00000+0  68617-4 0  9993
2 41787  97.8248 272.9213 0027534 211.9156 148.0382 14.67772414535900
SCATSAT 1               
1 41790U 16059H   26278.44196746  .00000744  00000+0  10418-3 0  9999
2 41790  98.1075 343.2890 0053167 252.0949 107.4461 14.79731777117897
GOKTURK 1A              
1 41875U 16073A   26278.64988973 -.00000023  00000+0  46358-5 0  9997
2 41875  98.1508 171.7749 0001403  74.4387 285.6969 14.62758283524973
RESOURCESAT-2A          
1 41877U 16074A   26278.64143201  .00000018  00000+0  28532-4 0  9993
2 41877  98.7433 351.1879 0003233 111.6729 248.4793 14.21616616509998
CARTOSAT-2D             
1 41948U 17008A   26278.61100787  .00005568  00000+0  26693-3 0  9999
2 41948  97.4173 335.7737 0004159 202.2423 157.8632 15.19303468534349
SENTINEL-2B             
1 42063U 17013A   26278.62708677  .00000112  00000+0  59269-4 0  9993
2 42063  98.5692 351.8145 0001167  90.6735 269.4581 14.30818450500439
CARTOSAT-2E             
1 42767U 17036C   26278.62951317  .00006371  00000+0  30533-3 0  9995
2 42767  97.4155 336.5302 0002080 298.5915  61.5110 15.19259294514911
FORMOSAT-5              
1 42920U 17049A   26278.53179090  .00000057  00000+0  25326-4 0  9990
2 42920  98.2165 351.3377 0012701 103.1332 257.1282 14.50912370482679
SENTINEL-5P             
1 42969U 17064A   26278.58233820  .00000030  00000+0  35273-4 0  9990
2 42969  98.8018 219.9640 0000993  77.0988 283.0299 14.19534178465222
SKYSAT-C11              
1 42987U 17068A   26278.65163253  .00035701  00000+0  37954-3 0  9994
2 42987  97.4470  72.8845 0000105  93.5751 266.5520 15.63963855500476
SKYSAT-C10              
1 42988U 17068B   26278.35821797  .00009789  00000+0  27832-3 0  9997
2 42988  97.4652  56.5290 0001216  93.5901 266.5482 15.36364172499261
SKYSAT-C9               
1 42989U 17068C   26278.37129649  .00015016  00000+0  33094-3 0  9994
2 42989  97.4570  58.5868 0009016  98.3152 261.9118 15.43984277499741
SKYSAT-C8               
1 42990U 17068D   26278.61160132  .00009755  00000+0  25572-3 0  9990
2 42990  97.4669  57.0213 0001319  87.5395 272.6001 15.38886416499286
SKYSAT-C7               
1 42991U 17068E   26278.60900814  .00009869  00000+0  25891-3 0  9999
2 42991  97.4680  58.0167 0006786  75.6779 284.5219 15.38838508499345
SKYSAT-C6               
1 42992U 17068F   26278.63819147  .00007628  00000+0  23350-3 0  9990
2 42992  97.4724  57.4371 0001556 110.4669 249.6741 15.34115595499253
CARTOSAT-2F             
1 43111U 18004A   26278.59771574  .00004863  00000+0  23384-3 0  9996
2 43111  97.4666 337.0737 0000988 170.1846 189.9408 15.19270062484099
GAOFEN-1 02             
1 43259U 18031A   26278.62920250  .00000742  00000+0  11402-3 0  9990
2 43259  98.0410 340.7739 0003322  38.5088 321.6358 14.76452767458994
GAOFEN-1 03             
1 43260U 18031B   26278.60731313  .00000383  00000+0  62368-4 0  9999
2 43260  98.0400 340.5981 0004037  81.1153 279.0514 14.76465691458982
GAOFEN-1 04             
1 43262U 18031D   26278.65081719  .00000151  00000+0  29113-4 0  9998
2 43262  98.0411 340.8462 0002484  76.2851 283.8635 14.76459383458985
SENTINEL-3B             
1 43437U 18039A   26278.43383207  .00000043  00000+0  35888-4 0  9999
2 43437  98.6251 344.3719 0000979  67.4643 292.6642 14.26736399439849
GAOFEN-5 01             
1 43461U 18043A   26278.48953246  .00000176  00000+0  46248-4 0  9991
2 43461  98.4726 252.4773 0002978  93.4929 266.6611 14.60666661447799
GAOFEN-6                
1 43484U 18048A   26278.60749462  .00000708  00000+0  10922-3 0  9998
2 43484  98.0852 341.4530 0010851 168.6140 191.5317 14.76456427449682
GAOFEN-11 01            
1 43585U 18063A   26278.60177183  .00021862  00000+0  28997-3 0  9997
2 43585  97.1166 345.3215 0001760 285.4473  74.6589 15.58266832457525
ICESAT-2                
1 43613U 18070A   26278.55262867  .00001734  00000+0  62742-4 0  9998
2 43613  91.9993 320.7707 0005550  69.6411 290.5434 15.28301919449314
HYSIS                   
1 43719U 18096A   26278.64936611  .00000566  00000+0  84236-4 0  9992
2 43719  97.9729 344.4618 0001842 105.9552 254.1862 14.78677161423747
KAZSTSAT                
1 43783U 18099AB  26278.56841974  .00001368  00000+0  11405-3 0  9992
2 43783  97.4242 305.4682 0013892  42.8851 317.3454 15.00084630427854
SAUDISAT 5A             
1 43831U 18102A   26278.60281922  .00004212  00000+0  15206-3 0  9991
2 43831  97.2945 338.0490 0011094 101.1669 259.0819 15.28981734432543
SAUDISAT 5B             
1 43833U 18102C   26278.60493060  .00004422  00000+0  15844-3 0  9992
2 43833  97.3059 341.3211 0011800 103.1008 257.1550 15.29192726432664
GAOFEN-10R              
1 44622U 19066A   26278.59730603  .00000724  00000+0  95372-4 0  9990
2 44622  98.0631 233.0554 0006612 126.8667 233.3153 14.83197127378742
CARTOSAT-3              
1 44804U 19081A   26278.61052711  .00005542  00000+0  26515-3 0  9994
2 44804  97.4185 338.6200 0012972 125.2802 234.9649 15.19310043380239
GAOFEN-12 01            
1 44819U 19082A   26278.65070703  .00000225  00000+0  36057-4 0  9992
2 44819  97.8155 282.1464 0002217  69.0805 291.0644 14.80529587370432
CSG-1                   
1 44873U 19092A   26278.63369162  .00000237  00000+0  36273-4 0  9994
2 44873  97.8908 100.6714 0001356  87.0615 273.0753 14.82154729367837
NEMO-HD                 
1 46277U 20061F   26278.64456942  .00009846  00000+0  19995-3 0  9992
2 46277  97.1796 339.5560 0001758  68.9413 291.2025 15.46534684339046
SENTINEL-6A             
1 46984U 20086A   26278.32870871 -.00000036  00000+0  10851-3 0  9995
2 46984  66.0392 266.2841 0007899 269.2715  90.7395 12.80930007274436
CAS500-1                
1 47932U 21022A   26278.64841300  .00005384  00000+0  25179-3 0  9999
2 47932  97.3737 171.5613 0003414 253.5984 106.4876 15.20177350307547
GAOFEN-12 02            
1 48079U 21026A   26278.60604340  .00000210  00000+0  34406-4 0  9990
2 48079  98.0006 276.3856 0003657 225.9454 134.1457 14.80365586298091
PLEIADES NEO 3          
1 48268U 21034A   26278.60120050 -.00000017  00000+0  44689-5 0  9991
2 48268  97.8949 351.7803 0001368  87.0453 273.0916 14.81673615294003
PLEIADES NEO 4          
1 49070U 21073E   26278.63495567  .00000644  00000+0  88479-4 0  9996
2 49070  97.8947 351.8097 0001420  92.2065 267.9310 14.81675005277720
LANDSAT 9               
1 49260U 21088A   26278.61765039  .00000174  00000+0  48797-4 0  9992
2 49260  98.2175 347.3946 0001431  89.2233 270.9129 14.57107150267081
CSG-2                   
1 51444U 22008A   26278.66742455  .00000332  00000+0  48234-4 0  9996
2 51444  97.8914 100.6962 0001414  85.6399 274.4975 14.82150333252953
GAOFEN-12 03            
1 52912U 22069A   26278.65295981  .00000824  00000+0  11512-3 0  9994
2 52912  97.8094 163.6443 0002038 105.9356 254.2081 14.80174784230952
SWOT                    
1 54754U 22173A   26278.38501850  .00000098  00000+0  68221-4 0  9994
2 54754  77.6085 246.5452 0000265 142.3721 217.7449 14.00173200194579
GAOFEN-12 04            
1 57654U 23123A   26278.62113705  .00000582  00000+0  84020-4 0  9990
2 57654  97.9078 194.9499 0003683 107.3358 252.8257 14.79891692168968
PARS 1                  
1 59065U 24039Q   26278.61517352  .00010341  00000+0  20074-3 0  9992
2 59065  97.4949 263.2672 0011046  77.6532 282.5954 15.47784235145718
RESURS-P 4              
1 59371U 24061A   26278.61834664  .00002506  00000+0  81854-4 0  9993
2 59371  97.2859 224.6923 0002551 115.2913 244.8594 15.32672886140672
LEGION 1                
1 59625U 24081A   26278.51487894  .00002800  00000+0  14385-3 0  9996
2 59625  97.4935 355.1889 0008815 354.9777   5.1367 15.17292757134263
LEGION 2                
1 59626U 24081B   26278.54617654  .00002600  00000+0  13382-3 0  9993
2 59626  97.4935 355.3149 0010143 318.7399  41.3066 15.17275832134274
ALOS-4 (DAICHI-4)       
1 60182U 24123A   26278.60295215  .00000878  00000+0  12438-3 0  9997
2 60182  97.9224  14.1885 0001441 100.5752 259.5622 14.79470905122203
LEGION 3                
1 60452U 24146A   26278.58211894  .00002294  00000+0  13241-3 0  9997
2 60452  45.0005 158.6726 0006636 115.9288 244.2275 15.15592481118774
LEGION 4                
1 60453U 24146B   26278.25139744  .00003102  00000+0  17388-3 0  9990
2 60453  45.0008 252.3031 0008533 211.0448 148.9927 15.15651374117571
SENTINEL-2C             
1 60989U 24157A   26278.45228636  .00000050  00000+0  35667-4 0  9997
2 60989  98.5702 351.6486 0001143  81.8230 278.3082 14.30817397108753
IONOSFERA-M 1           
1 61735U 24199A   26278.60482429  .00000019  00000+0  27832-4 0  9992
2 61735  98.6976 150.5160 0001390 129.7315 230.3985 14.22771063143403
IONOSFERA-M 2           
1 61736U 24199B   26278.63886814  .00000018  00000+0  27477-4 0  9996
2 61736  98.6975 150.4594 0001525  48.8896 311.2413 14.22774413146532
PRSC-EO1                
1 62725U 25012A   26278.63048781  .00005351  00000+0  26913-3 0  9991
2 62725  97.4127 348.8585 0003574 235.0210 125.0689 15.17642728 94947
BIOMASS                 
1 63772U 25090A   26278.49430147  .00000199  00000+0  43626-4 0  9991
2 63772  98.0753 104.2314 0001350  85.4372 274.6987 14.67534838 76861
GOSAT-GW (IBUKI GW)     
1 64694U 25141A   26278.64415819  .00000441  00000+0  86238-4 0  9994
2 64694  98.0624 214.1833 0001440  84.5690 275.5679 14.67553758 68043
IONOSFERA-M 3           
1 64876U 25155A   26278.61471881  .00000039  00000+0  37504-4 0  9994
2 64876  98.6176 237.8094 0000178 230.3909 129.7253 14.21501973 62094
IONOSFERA-M 4           
1 64877U 25155B   26278.64936707  .00000029  00000+0  32689-4 0  9999
2 64877  98.6180 237.7596 0000526 104.9416 255.1820 14.21504591 62095
MICROCARB               
1 64899U 25156A   26278.47953505  .00000343  00000+0  61420-4 0  9994
2 64899  98.0080 354.0081 0016381 271.9343  87.9988 14.72861550 64202
CO3D 3                  
1 64900U 25156B   26278.57244455  .00003568  00000+0  16785-3 0  9990
2 64900  97.4345 355.6786 0001667 106.7222 253.4196 15.20207352 66305
CO3D 4                  
1 64901U 25156C   26278.57259388  .00003558  00000+0  16736-3 0  9997
2 64901  97.4345 355.6786 0000122 274.6292  85.4929 15.20212230 66301
CO3D 2                  
1 64902U 25156D   26278.53924694  .00003263  00000+0  15374-3 0  9993
2 64902  97.4344 355.5446 0001546  87.9398 272.2014 15.20214407 66293
CO3D 1                  
1 64903U 25156E   26278.53940084  .00003387  00000+0  15947-3 0  9998
2 64903  97.4344 355.5447 0001275 100.7704 259.3675 15.20213355 66299
PRSC-S1                 
1 65055U 25164A   26278.62120446  .00003544  00000+0  24295-3 0  9999
2 65055  41.1315  25.4820 0006327  13.3054 346.7926 15.07183059 65099
SENTINEL-6B             
1 66514U 25264A   26278.32906081 -.00000036  00000+0  10858-3 0  9999
2 66514  66.0393 266.4094 0007850 268.2373  91.7743 12.80929855 41277
CAS500-3                
1 66655U 25274F   26278.54048158  .00000733  00000+0  85022-4 0  9991
2 66655  97.7446 204.0656 0003135 214.6424 145.4589 14.88357691 46564
CSG-3                   
1 67304U 26001A   26278.51132182  .00000168  00000+0  27625-4 0  9997
2 67304  97.8911 100.5496 0001385  90.2642 269.8730 14.82151147 40803
PRSC-E03                
1 68835U 26092A   26278.58533457  .00001597  00000+0  11150-3 0  9996
2 68835  37.9999 158.4395 0004103 195.4056 164.6581 15.07126266 24611
CAS500-2                
1 69013U 26100AK  26278.25827790  .00005928  00000+0  27471-3 0  9990
2 69013  97.3736 173.8331 0009396   2.7568 357.3717 15.20415990 23539
