GPS BIIR-08             
1 27663U 03005A   26278.53836715 -.00000033  00000+0  00000+0 0  9990
2 27663  54.8635 210.5887 0151397  53.8868 122.9671  2.00554501173520
GPS BIIR-11             
1 28190U 04009A   26278.20698804  .00000006  00000+0  00000+0 0  9999
2 28190  54.7462 271.2318 0118390 177.0879 275.2187  2.00572774165159
GPS BIIR-13             
1 28474U 04045A   26278.48632578 -.00000056  00000+0  00000+0 0  9996
2 28474  55.0646 320.4453 0173052 319.2316  37.9779  2.00560564160633
GPS BIIR-14M            
1 28874U 05038A   26278.07791618  .00000008  00000+0  00000+0 0  9995
2 28874  54.7969 268.7328 0128650 298.0817  89.6963  2.00558021154042
METEOSAT-9 (MSG-2)      
1 28912U 05049B   26278.53962603  .00000113  00000+0  00000+0 0  9992
2 28912   9.6083  53.0478 0001442   1.7046 199.4204  1.00271502  8102
GPS BIIR-16M            
1 29601U 06052A   26278.10690928 -.00000028  00000+0  00000+0 0  9990
2 29601  54.9189 209.6531 0086083  91.1825 269.8007  2.00564064145619
GPS BIIR-17M            
1 32260U 07047A   26277.91659083  .00000021  00000+0  00000+0 0  9997
2 32260  54.1840  75.5469 0168291  89.7939 272.1568  2.00575036139018
GPS BIIR-18M            
1 32384U 07062A   26278.32850168  .00000005  00000+0  00000+0 0  9996
2 32384  54.9518 269.7153 0035852 170.3311 257.3830  2.00565936137720
GOES 14                 
1 35491U 09033A   26278.61545160  .00000003  00000+0  00000+0 0  9991
2 35491   1.9690  81.4626 0002236 117.2168 105.2655  1.00070434  7690
GOES 15                 
1 36411U 10008A   26278.51016975  .00000006  00000+0  00000+0 0  9997
2 36411   1.5758  81.7318 0004773  94.0596  85.3964  1.00272744 60744
GSAT0101 (GALILEO-PFM)  
1 37846U 11060A   26278.12640780 -.00000085  00000+0  00000+0 0  9991
2 37846  56.9493 338.7780 0000837 302.7832  57.2691  1.70475551 92999
GSAT0102 (GALILEO-FM2)  
1 37847U 11060B   26277.47892304 -.00000083  00000+0  00000+0 0  9998
2 37847  56.9502 338.7961 0002520 309.1054  59.3021  1.70475874 92998
LUCH 5A                 
1 37951U 11074B   26278.13619087 -.00000058  00000+0  00000+0 0  9990
2 37951   9.0274  72.1677 0004550 141.1186  16.6680  1.00274404 54159
METEOSAT-10 (MSG-3)     
1 38552U 12035B   26278.16572544 -.00000019  00000+0  00000+0 0  9992
2 38552   4.9284  60.3940 0000948 147.7112 225.5569  1.00274288 51965
SARSAT 13 (METOP-B)     
1 38771U 12049A   26278.63216628  .00000037  00000+0  36447-4 0  9998
2 38771  98.6380 327.8616 0002902  49.0697 311.0732 14.21462770728955
GPS BIIF-3              
1 38833U 12053A   26278.00359671  .00000026  00000+0  00000+0 0  9998
2 38833  53.6012 139.0959 0186813  67.8561 294.2027  2.00557204101643
GSAT0103 (GALILEO-FM3)  
1 38857U 12055A   26274.06143115  .00000044  00000+0  00000+0 0  9992
2 38857  55.8745  98.6386 0001492 306.3470  53.6908  1.70473312 86818
GPS BIIF-4              
1 39166U 13023A   26276.87330857  .00000020  00000+0  00000+0 0  9998
2 39166  54.4281 264.5378 0143134  51.1975 310.0740  2.00563013 98068
INSAT-3D                
1 39216U 13038B   26278.61737666 -.00000354  00000+0  00000+0 0  9994
2 39216   2.2050  81.0130 0001918 134.8221 150.2508  1.00272115 48186
GPS BIIF-5              
1 39533U 14008A   26277.87176364  .00000017  00000+0  00000+0 0  9998
2 39533  53.6660 144.8421 0083565 231.5306 127.7985  2.00566869 91889
LUCH 5V                 
1 39727U 14023A   26278.68586062 -.00000282  00000+0  00000+0 0  9995
2 39727   5.4040  68.5250 0003073 162.6667 124.8611  1.00272001 45461
GPS BIIF-6              
1 39741U 14026A   26278.15235380 -.00000064  00000+0  00000+0 0  9998
2 39741  56.4366 327.2308 0040073 323.9779  35.8147  2.00552998 90743
GPS BIIF-7              
1 40105U 14045A   26278.24058258  .00000039  00000+0  00000+0 0  9993
2 40105  55.4335  84.0822 0036639 120.7173 239.6763  2.00565367 88285
GSAT0201 (GALILEO 5)    
1 40128U 14050A   26261.66135895  .00000005  00000+0  00000+0 0  9998
2 40128  48.7780 269.5934 1687123 183.0003 175.8597  1.85519745 80052
GSAT0202 (GALILEO 6)    
1 40129U 14050B   26278.08607121 -.00000008  00000+0  00000+0 0  9993
2 40129  48.7780 268.0043 1690920 184.3254 174.0115  1.85520125 82524
GPS BIIF-8              
1 40294U 14068A   26277.61391621 -.00000076  00000+0  00000+0 0  9993
2 40294  57.0574  26.7494 0066604  73.9510 286.7917  2.00558085 87400
GLONASS-K 2             
1 40315U 14075A   26278.57667559 -.00000024  00000+0  00000+0 0  9990
2 40315  63.6155 186.5537 0021757 208.7606 151.1543  2.13101194 92202
GPS BIIF-9              
1 40534U 15013A   26277.74756686 -.00000029  00000+0  00000+0 0  9999
2 40534  53.1533 199.6500 0114072  41.6205 319.2527  2.00569467 84023
GSAT0203 (GALILEO 7)    
1 40544U 15017A   26273.79769036 -.00000072  00000+0  00000+0 0  9996
2 40544  56.7433 338.7158 0005862 259.5183 100.4835  1.70476060 71006
GSAT0204 (GALILEO 8)    
1 40545U 15017B   26258.80260670 -.00000102  00000+0  00000+0 0  9996
2 40545  56.7566 339.1450 0004699 240.9831 119.0222  1.70476021 33792
GPS BIIF-10             
1 40730U 15033A   26277.91353325  .00000007  00000+0  00000+0 0  9996
2 40730  53.9060 262.5546 0118290  30.7739 329.9113  2.00550303 82195
METEOSAT-11 (MSG-4)     
1 40732U 15034A   26278.32405830  .00000051  00000+0  00000+0 0  9993
2 40732   3.4721  70.3010 0000467  98.7361 331.2058  1.00279487  8320
GSAT0206 (GALILEO 10)   
1 40890U 15045B   26259.96432677  .00000017  00000+0  00000+0 0  9990
2 40890  54.9240 219.0714 0002624 353.2075   6.7586  1.70473245 68605
GPS BIIF-11             
1 41019U 15062A   26277.96373928 -.00000078  00000+0  00000+0 0  9994
2 41019  57.0282  26.5921 0117060 231.3863 127.5736  2.00566772 80034
ELEKTRO-L 2             
1 41105U 15074A   26278.24270469 -.00000129  00000+0  00000+0 0  9998
2 41105   6.9653  69.1232 0002729 194.1093 183.5511  1.00270668 39615
GSAT0209 (GALILEO 12)   
1 41174U 15079A   26275.97072623  .00000042  00000+0  00000+0 0  9991
2 41174  55.8972  98.3038 0003264  23.0658 336.9981  1.70473900 66614
GSAT0208 (GALILEO 11)   
1 41175U 15079B   26276.77772798  .00000043  00000+0  00000+0 0  9992
2 41175  55.8963  98.2784 0003033  33.4110 326.6588  1.70473745 67048
GPS BIIF-12             
1 41328U 16007A   26278.05173715  .00000040  00000+0  00000+0 0  9998
2 41328  55.6005  85.1050 0098295 247.3235 111.6667  2.00571396 78049
GSAT0211 (GALILEO 14)   
1 41549U 16030A   26278.07426758 -.00000017  00000+0  00000+0 0  9994
2 41549  55.0684 218.6750 0003826 344.2651  15.7009  1.70472876 64549
GSAT0210 (GALILEO 13)   
1 41550U 16030B   26271.29228813  .00000016  00000+0  00000+0 0  9993
2 41550  55.0701 218.8591 0003477 255.7678 104.1641  1.70473473 64429
INSAT-3DR               
1 41752U 16054A   26278.54533796 -.00000094  00000+0  00000+0 0  9994
2 41752   0.0873  86.7467 0012581 178.2125  19.5962  1.00270976 36924
GSAT0207 (GALILEO 15)   
1 41859U 16069A   26262.77251085  .00000026  00000+0  00000+0 0  9998
2 41859  55.5593  98.4673 0002817   1.3542 358.7215  1.70473989 61018
GSAT0212 (GALILEO 16)   
1 41860U 16069B   26277.87699917  .00000045  00000+0  00000+0 0  9998
2 41860  55.5691  98.0445 0003700  46.1509 313.9324  1.70474012 61522
GSAT0213 (GALILEO 17)   
1 41861U 16069C   26258.30017772  .00000003  00000+0  00000+0 0  9993
2 41861  55.5571  98.5941 0002003 331.4312  28.6313  1.70474479 61056
GSAT0214 (GALILEO 18)   
1 41862U 16069D   26264.89902317  .00000042  00000+0  00000+0 0  9996
2 41862  55.5585  98.4041 0001465   3.2419 356.8418  1.70474219 61295
GOES 16                 
1 41866U 16071A   26278.60608172 -.00000108  00000+0  00000+0 0  9993
2 41866   0.6089  83.9897 0002249 149.5301 254.2666  1.00271029 36219
GSAT-17                 
1 42815U 17040B   26278.64042115 -.00000275  00000+0  00000+0 0  9993
2 42815   0.0612  84.5822 0005443 165.7308  88.0705  1.00271081 33897
GSAT0215 (GALILEO 19)   
1 43055U 17079A   26277.11977852 -.00000006  00000+0  00000+0 0  9990
2 43055  55.0466 218.5116 0002811 290.3289  69.6237  1.70473673 54846
GSAT0216 (GALILEO 20)   
1 43056U 17079B   26261.57308714  .00000017  00000+0  00000+0 0  9990
2 43056  55.0525 218.9384 0004502 291.2688  68.6566  1.70474060 54593
GSAT0217 (GALILEO 21)   
1 43057U 17079C   26265.89999000  .00000011  00000+0  00000+0 0  9998
2 43057  55.0493 218.8172 0003908 307.6838  52.2454  1.70473918 54653
GSAT0218 (GALILEO 22)   
1 43058U 17079D   26276.67860965 -.00000002  00000+0  00000+0 0  9995
2 43058  55.0455 218.5190 0004531 289.9808  69.9550  1.70473731 54869
GOES 17                 
1 43226U 18022A   26278.58425147 -.00000199  00000+0  00000+0 0  9999
2 43226   1.2157  83.8207 0001392 165.1261 246.1575  1.00272152 31532
GSAT0221 (GALILEO 25)   
1 43564U 18060A   26265.43785046 -.00000078  00000+0  00000+0 0  9999
2 43564  57.1298 339.1540 0004899 270.7276  89.2757  1.70476363 50811
GSAT0222 (GALILEO 26)   
1 43565U 18060B   26276.21615640 -.00000079  00000+0  00000+0 0  9991
2 43565  57.1287 338.8658 0005461 248.8761 111.1275  1.70475516 51053
GSAT0219 (GALILEO 23)   
1 43566U 18060C   26278.19665393 -.00000084  00000+0  00000+0 0  9997
2 43566  57.1272 338.8134 0004325 275.0487  84.9626  1.70476054 51068
GSAT0220 (GALILEO 24)   
1 43567U 18060D   26259.06046683 -.00000101  00000+0  00000+0 0  9998
2 43567  57.1352 339.3320 0003721 269.4250  90.5848  1.70476412 50724
BEIDOU-3 M13            
1 43622U 18072A   26278.07470405 -.00000009  00000+0  00000+0 0  9995
2 43622  56.7255  59.0411 0004086 320.4429  39.5297  1.86230638 54709
BEIDOU-3 M14            
1 43623U 18072B   26277.94011894 -.00000008  00000+0  00000+0 0  9993
2 43623  56.7273  59.0400 0003209  21.8150 338.2015  1.86230718 54691
GPS BIII-1              
1 43873U 18109A   26277.94203522  .00000044  00000+0  00000+0 0  9991
2 43873  55.7576  87.8578 0040526 196.2682 336.1056  2.00565529 57275
METEOR-M2 2             
1 44387U 19038A   26278.60042051  .00000113  00000+0  68793-4 0  9991
2 44387  98.9276 267.5785 0002304  70.9141 289.2287 14.24390009377018
GPS BIII-2              
1 44506U 19056A   26278.36356351 -.00000065  00000+0  00000+0 0  9997
2 44506  55.5757 326.7574 0066436 200.7509 182.0862  2.00571574 52282
BEIDOU-3 M24            
1 44542U 19061A   26266.50572373 -.00000008  00000+0  00000+0 0  9997
2 44542  54.4306 179.4090 0020747  95.6918 264.5686  1.86175926 47622
BEIDOU-3 M23            
1 44543U 19061B   26278.19754715 -.00000026  00000+0  00000+0 0  9998
2 44543  54.3901 178.9882 0006164  10.4056 179.6609  1.86227469 47846
BEIDOU-3 M22            
1 44793U 19078A   26278.15942139 -.00000019  00000+0  00000+0 0  9990
2 44793  53.8339 295.9475 0004929  37.9001 322.1744  1.86227013 46693
BEIDOU-3 M21            
1 44794U 19078B   26277.22513370 -.00000015  00000+0  00000+0 0  9995
2 44794  53.8080 295.9395 0002871  26.4145 333.6397  1.86227524 46681
ELEKTRO-L 3             
1 44903U 19095A   26278.60305822 -.00000122  00000+0  00000+0 0  9999
2 44903   0.0606 280.6945 0003071 242.9160  73.2679  0.99420020 24818
GPS BIII-3              
1 45854U 20041A   26277.86738679 -.00000081  00000+0  00000+0 0  9999
2 45854  56.7354  24.6973 0068819 206.6516 112.1621  2.00572804 46234
COSMOS 2547             
1 46805U 20075A   26278.22173095 -.00000024  00000+0  00000+0 0  9996
2 46805  64.5994 188.8065 0007923 233.7567 126.2019  2.13099649 46253
GPS BIII-4              
1 46826U 20078A   26278.63709236 -.00000036  00000+0  00000+0 0  9992
2 46826  53.9629 206.3034 0076583 208.4437 285.3161  2.00564868 43728
GSAT0223 (GALILEO 27)   
1 49809U 21116A   26278.27409789 -.00000084  00000+0  00000+0 0  9993
2 49809  57.1154 338.6995 0004408 230.0681 132.7094  1.70475951 30068
GSAT0224 (GALILEO 28)   
1 49810U 21116B   26277.52220609 -.00000083  00000+0  00000+0 0  9993
2 49810  57.1164 338.7188 0003656 229.0976 144.8772  1.70475970 30074
GOES 18                 
1 51850U 22021A   26278.58751253  .00000079  00000+0  00000+0 0  9991
2 51850   0.0113  74.5543 0000659 191.2172 183.0111  1.00271205  7692
COSMOS 2557 (706K)      
1 52984U 22075A   26277.91576981 -.00000011  00000+0  00000+0 0  9995
2 52984  64.2287 310.6130 0013027 270.2314  89.6820  2.13101961 33053
METEOSAT-12 (MTG-I1)    
1 54743U 22170C   26278.32405830 -.00000023  00000+0  00000+0 0  9999
2 54743   0.7556  22.5116 0002999  95.8173  11.9957  1.00274752 14080
METEOR-M2 3             
1 57166U 23091A   26278.62073882 -.00000033  00000+0  42030-5 0  9991
2 57166  98.5963 331.2702 0003603 192.9734 167.1353 14.24053504170239
COSMOS 2569 (703K)      
1 57517U 23114A   26278.05990253  .00000035  00000+0  00000+0 0  9990
2 57517  65.3717  68.9197 0008790 286.3053  73.6101  2.13102459 24604
METEOR-M2 4             
1 59051U 24039A   26278.61994957  .00000012  00000+0  25180-4 0  9995
2 59051  98.7166 236.5982 0006455 202.6754 157.4140 14.22439119134961
GSAT0225 (GALILEO 29)   
1 59598U 24079A   26277.51397988  .00000043  00000+0  00000+0 0  9997
2 59598  55.1929  98.0237 0001753 130.2222 231.8410  1.70474029 15184
GSAT0227 (GALILEO 30)   
1 59600U 24079C   26276.52101073  .00000041  00000+0  00000+0 0  9997
2 59600  55.1859  98.0495 0004338  99.3745 260.7245  1.70474200 15215
GSAT0232 (GALILEO 32)   
1 61182U 24167A   26278.22256929 -.00000018  00000+0  00000+0 0  9998
2 61182  55.1584 218.2977 0004947 234.4643 305.4732  1.70473265 12758
GSAT0226 (GALILEO 31)   
1 61183U 24167B   26277.48567803 -.00000010  00000+0  00000+0 0  9994
2 61183  55.1575 218.3250 0001759 246.6498 292.3727  1.70473237 12718
GSAT0233 (GALILEO 33)   
1 67160U 25302A   26276.46131672  .00000039  00000+0  00000+0 0  9995
2 67160  54.4075  99.0448 0003147 141.5900 225.4748  1.70473982  4979
GSAT0234 (GALILEO 34)   
1 67162U 25302C   26275.56730789  .00000038  00000+0  00000+0 0  9990
2 67162  54.4082  99.0694 0000468  93.1844 265.3020  1.70473970  5002
