INMARSAT 4-F2 (SOUTHPA*)
1 28899U 05044A   26278.20275117 -.00000273  00000+0  00000+0 0  9990
2 28899   5.2390  43.7231 0002820 164.8176  21.8547  1.00271414 76620
GSAT-8 (GAGAN/PRN 127)  
1 37605U 11022A   26278.61285159  .00000069  00000+0  00000+0 0  9992
2 37605   2.4098  80.3352 0007268 163.6941  45.9901  1.00271215 54321
LUCH 5A (SDCM/PRN 140)  
1 37951U 11074B   26278.13619087 -.00000058  00000+0  00000+0 0  9990
2 37951   9.0274  72.1677 0004550 141.1186  16.6680  1.00274404 54159
SES-5 (EGNOS/PRN 136)   
1 38652U 12036A   26278.60297155  .00000000  00000+0  00000+0 0  9994
2 38652   0.0126 345.4627 0002239 211.5612  39.3082  1.00271035 45564
GSAT-10 (GAGAN/PRN 128) 
1 38779U 12051B   26278.40459876 -.00000182  00000+0  00000+0 0  9991
2 38779   0.0156 142.9950 0004209 339.0572 120.7254  1.00270397 51200
LUCH 5B (SDCM/PRN 125)  
1 38977U 12061A   26278.59881153 -.00000148  00000+0  00000+0 0  9991
2 38977  10.7193  48.7574 0006820 175.3626 349.4196  1.00270883 50716
ASTRA 5B (EGNOS/PRN 123)
1 39617U 14011B   26278.25024472  .00000120  00000+0  00000+0 0  9995
2 39617   0.0763 305.2588 0003548 270.7137 271.5607  1.00272993 45776
LUCH 5V (SDCM/PRN 141)  
1 39727U 14023A   26278.68586062 -.00000282  00000+0  00000+0 0  9995
2 39727   5.4040  68.5250 0003073 162.6667 124.8611  1.00272001 45461
GSAT-15 (GAGAN/PRN 139) 
1 41028U 15065A   26278.64042137 -.00000275  00000+0  00000+0 0  9997
2 41028   0.0317  90.4006 0002050 104.0426 143.9423  1.00269951 39901
EUTELSAT 117 WEST B (W*)
1 41589U 16038B   26278.57879144 -.00000029  00000+0  00000+0 0  9995
2 41589   0.0140  47.0748 0000160  49.4652   9.1094  1.00272874 37779
SES-15 (WAAS/PRN 133)   
1 42709U 17026A   26278.50513253  .00000042  00000+0  00000+0 0  9991
2 42709   0.0339 322.1092 0000783 242.4856 222.3048  1.00273480  8539
QZS-2 (QZSS/PRN 194)    
1 42738U 17028A   26277.77265355 -.00000204  00000+0  00000+0 0  9991
2 42738  39.2699 241.5423 0747326 270.7191 279.7213  1.00255404  8720
QZS-3 (QZSS/PRN 199)    
1 42917U 17048A   26278.61162822 -.00000365  00000+0  00000+0 0  9999
2 42917   0.0529 198.6421 0002086  11.8996 150.9796  1.00274561 33360
QZS-4 (QZSS/PRN 195)    
1 42965U 17062A   26278.48901245 -.00000324  00000+0  00000+0 0  9998
2 42965  40.0350 342.0744 0750112 270.1457  78.3537  1.00267883 32908
BEIDOU-3 G1 (PRN 130)   
1 43683U 18085A   26278.61662545 -.00000124  00000+0  00000+0 0  9992
2 43683   2.6675  94.2381 0005047  28.8156 273.2901  1.00270630 29166
EUTELSAT 5 WEST B (EGN*)
1 44624U 19067A   26278.38709201 -.00000059  00000+0  00000+0 0  9991
2 44624   0.0651   7.8575 0003190 190.4149 310.1677  1.00271942 25533
BEIDOU-3 G2 (PRN 144)   
1 45344U 20017A   26278.61779161 -.00000155  00000+0  00000+0 0  9993
2 45344   2.6294  48.7263 0002671 158.9234 109.1237  1.00271938 24362
BEIDOU-3 G3 (PRN 143)   
1 45807U 20040A   26278.58947495 -.00000368  00000+0  00000+0 0  9992
2 45807   2.7137  67.3495 0003153 273.5003 356.1606  1.00267352 23178
GALAXY 30 (WAAS/PRN 135)
1 46114U 20056C   26278.36334523  .00000000  00000+0  00000+0 0  9991
2 46114   0.0203 179.4405 0002457  23.4191 176.9876  1.00270685 22390
QZS-1R (QZSS/PRN 196)   
1 49336U 21096A   26277.34383275 -.00000223  00000+0  00000+0 0  9998
2 49336  37.6894  77.9713 0745364 270.2205 283.5147  1.00280092 18107
QZS-6 (QZSS/PRN 200)    
1 62876U 25023A   26278.56724731 -.00000250  00000+0  00000+0 0  9997
2 62876   0.0143  23.2605 0002146 188.6941  97.0195  1.00268814  6059
