HST                     
1 20580U 90037B   26261.01803921  .00005838  00000+0  17793-3 0  9998
2 20580  28.4729 165.6473 0001953  95.0051 265.0768 15.31682701802816
POLAR                   
1 23802U 96013A   26261.23665666  .00000151  00000+0  00000+0 0  9996
2 23802  79.9864 225.9326 6565887 205.8914  96.3393  1.29845729146060
SWAS                    
1 25560U 98071A   26260.63347738  .00002755  00000+0  17507-3 0  9991
2 25560  69.8975 349.0274 0003045 130.6900 229.4529 15.10111969511222
CXO                     
1 25867U 99040B   26261.93394925  .00000876  00000+0  00000+0 0  9990
2 25867  57.4406 114.2349 7690175 309.3586   0.3765  0.37798297 17673
XMM-NEWTON              
1 25989U 99066A   26263.09408509  .00000133  00000+0  00000+0 0  9992
2 25989  63.9890 281.7554 4648505  63.1920   0.1280  0.50125912 23488
TERRA                   
1 25994U 99068A   26261.84691434  .00000194  00000+0  48336-4 0  9998
2 25994  97.9363 307.6377 0001093 323.1156 153.4852 14.61162008423281
TIMED                   
1 26998U 01055B   26260.86694795  .00000994  00000+0  93399-4 0  9993
2 26998  74.0674  48.3801 0001805 233.3069 126.7950 14.95461093344674
CORIOLIS                
1 27640U 03001A   26260.64647616  .00000045  00000+0  41678-4 0  9997
2 27640  98.7171 266.1370 0013115 309.9216  50.0807 14.19966811227344
SORCE                   
1 27651U 03004A   26260.97295984  .00002095  00000+0  15888-3 0  9995
2 27651  39.9904  92.1194 0017611 353.7881   6.2693 15.04122358285871
MOST                    
1 27843U 03031D   26260.99365271  .00000037  00000+0  37146-4 0  9993
2 27843  98.7085 267.4393 0009623 351.2747   8.8262 14.21338290203897
SCISAT 1                
1 27858U 03036A   26260.67069851  .00000359  00000+0  50355-4 0  9998
2 27858  73.9324 347.5743 0006815  19.3920 340.7514 14.81540237245142
SWIFT                   
1 28485U 04047A   26261.05348250  .00152694  00000+0  70036-3 0  9991
2 28485  20.5500 182.8658 0002958 249.0846 110.9286 15.81847431201514
HINODE (SOLAR-B)        
1 29479U 06041A   26260.97763294  .00000398  00000+0  76676-4 0  9990
2 29479  98.0550 275.7680 0017310 358.3709   1.7437 14.68723337 68495
SHIJIAN-6 02A (SJ-6 02A)
1 29505U 06046A   26261.86303910  .00003632  00000+0  18295-3 0  9995
2 29505  97.6278 303.6528 0003352 148.8142 211.3291 15.17834854 86470
SHIJIAN-6 02B (SJ-6 02B)
1 29506U 06046B   26261.84768939  .00000222  00000+0  21814-4 0  9994
2 29506  97.6976 290.2581 0016003 114.2199 246.0700 15.01480703 84798
FGRST (GLAST)           
1 33053U 08029A   26261.45673079  .00002638  00000+0  91265-4 0  9996
2 33053  25.5822 276.6564 0007858 350.5766   9.4624 15.24365632  9939
SDO                     
1 36395U 10005A   26261.02891831 -.00000071  00000+0  00000+0 0  9998
2 36395  34.8428  84.9295 0001518  79.8588 100.9825  1.00275079 60994
CRYOSAT 2               
1 36508U 10013A   26261.81287584  .00000082  00000+0  19581-4 0  9994
2 36508  92.0271 300.0345 0002319  85.6562 274.4910 14.51901386871660
X-SAT                   
1 37389U 11015C   26261.80862266  .00000121  00000+0  69098-4 0  9992
2 37389  98.3639 234.4235 0015295  69.2386 291.0432 14.25229024801011
GCOM-W1 (SHIZUKU)       
1 38337U 12025A   26261.58172794  .00000309  00000+0  78562-4 0  9997
2 38337  98.2072 200.7389 0001493  85.2760  87.7156 14.57136447762638
NUSTAR                  
1 38358U 12031A   26261.83335647  .00018161  00000+0  10426-2 0  9991
2 38358   6.0275  51.2458 0006701  61.7209  87.8963 15.09559783  1300
NEOSSAT                 
1 39089U 13009D   26261.24005553  .00000088  00000+0  45025-4 0  9998
2 39089  98.4228  79.0943 0010476 334.9477  25.1199 14.35853824710098
BRITE-AUSTRIA           
1 39091U 13009F   26261.74947199  .00000099  00000+0  48114-4 0  9991
2 39091  98.4049  78.9060 0009498 326.7654  33.2935 14.36572425710485
IRIS                    
1 39197U 13033A   26261.02325931  .00000665  00000+0  82074-4 0  9992
2 39197  97.9276 100.0039 0024877  18.2981 341.9124 14.86040710714165
HISAKI (SPRINT-A)       
1 39253U 13049A   26261.29437319  .00000101  00000+0  51969-4 0  9999
2 39253  29.7186 106.6419 0136429  51.6306 309.6437 13.55551032644062
CASSIOPE                
1 39265U 13055A   26261.78113262  .00031898 -70338-6  31503-3 0  9998
2 39265  80.9123 312.4970 0268683 105.3504 257.7593 15.31843962681967
STSAT-3                 
1 39422U 13066G   26261.85190059  .00001934  00000+0  14731-3 0  9995
2 39422  97.6342 230.2973 0011311  78.6270 281.6226 15.03198996698276
SWARM B                 
1 39451U 13067A   26261.80085440  .00002239  00000+0  78123-4 0  9995
2 39451  87.7432 313.8903 0003377  86.8740 273.2896 15.29056056697542
SWARM A                 
1 39452U 13067B   26261.59835669  .00008639  00000+0  14907-3 0  9997
2 39452  87.3356  21.5359 0002484 101.6314 258.5226 15.50831076720720
SWARM C                 
1 39453U 13067C   26261.59824872  .00008646  00000+0  14920-3 0  9995
2 39453  87.3359  20.1189 0002500 101.3386 258.8156 15.50829881720686
BRITE-CA1 (TORONTO)     
1 40020U 14033L   26261.59273362  .00000461  00000+0  76855-4 0  9996
2 40020  97.9861  28.8669 0077857 338.8392  20.9600 14.72816900655963
OCO 2                   
1 40059U 14035A   26261.75156242  .00000261  00000+0  68041-4 0  9991
2 40059  98.2072 201.6396 0001620  76.3616 283.7762 14.57091927649675
BRITE-PL2 (HEWELIUSZ)   
1 40119U 14049B   26261.55739920  .00000986  00000+0  95812-4 0  9991
2 40119  97.9169  14.3315 0014422 154.6193 205.5738 14.94867020655396
MMS 1                   
1 40482U 15011A   26261.83335647 -.00002007  00000+0  00000+0 0  9990
2 40482  72.9506 347.7293 8254028 169.4331 131.3524  0.28362589  1384
MMS 2                   
1 40483U 15011B   26261.83335647 -.00002008  00000+0  00000+0 0  9992
2 40483  72.9551 347.7281 8256871 169.4344 131.3303  0.28362552  1389
MMS 3                   
1 40484U 15011C   26261.83335647 -.00002008  00000+0  00000+0 0  9993
2 40484  72.9545 347.7402 8255244 169.4430 131.3044  0.28362554  1381
MMS 4                   
1 40485U 15011D   26261.83335647 -.00002008  00000+0  00000+0 0  9994
2 40485  72.9481 347.7242 8255322 169.4528 131.2993  0.28362522  1385
ASTROSAT                
1 40930U 15052A   26261.86610685  .00001386  00000+0  86539-4 0  9998
2 40930   5.9955 200.9689 0008479 291.1111  68.8111 14.82647273593757
DAMPE                   
1 41173U 15078A   26261.83439036  .00000859  00000+0  31241-4 0  9996
2 41173  97.4604 267.7951 0013613 101.0361 259.2412 15.30984006598879
PISAT                   
1 41784U 16059B   26260.57191425  .00000638  00000+0  11603-3 0  9995
2 41784  97.8250 257.0928 0027453 270.5690  89.2370 14.69128061533301
HXMT (HUIYAN)           
1 42758U 17034A   26261.78202297  .00003461  00000+0  17112-3 0  9993
2 42758  43.0152  21.6009 0031045  17.0058 343.1825 15.19159350511894
FLYING LAPTOP           
1 42831U 17042G   26261.89034725  .00002084  00000+0  16473-3 0  9994
2 42831  97.5017  54.0775 0016889 159.3749 200.8161 15.01606850500518
ZHANGHENG 1-01 (CSES-1) 
1 43194U 18015C   26261.76606468  .00004713  00000+0  21757-3 0  9995
2 43194  97.6965  69.3376 0013310 315.2483  44.7677 15.20653445478866
SALSAT                  
1 46495U 20068K   26261.25274455  .00005900  00000+0  19992-3 0  9991
2 46495  97.8891 270.0866 0008765 346.6565  13.4441 15.30960009329590
IXPE                    
1 49954U 21121A   26261.83335647  .00009587  00000+0  50278-3 0  9997
2 49954   0.2322 328.9114 0006670  56.9895 107.7647 15.10993348  5821
SMILE                   
1 69123U 26109A   26253.91179097  .00000505  00000+0  00000+0 0  9998
2 69123  70.0126 206.2631 8182460 285.8389   5.3269  0.47510466   357
