NSS-11                  
1 26554U 00059A   26278.44977830  .00000010  00000+0  00000+0 0  9992
2 26554   2.4051  79.9372 0003005 115.2301 156.8936  1.00271843 42396
AMC-6                   
1 26580U 00067A   26278.61913541  .00000071  00000+0  00000+0 0  9995
2 26580   0.4295  83.2957 0004869 128.7881 250.0605  1.00271142 95009
AMC-15                  
1 28446U 04041A   26278.41419150 -.00000105  00000+0  00000+0 0  9998
2 28446   0.0534  41.5596 0002074 173.9541 202.6435  1.00270921 80407
NSS-10                  
1 28526U 05003A   26278.24419931 -.00000264  00000+0  00000+0 0  9990
2 28526   6.7204  69.0738 0003452 131.6198 223.7178  1.00270662 54250
ASTRA 1KR               
1 29055U 06012A   26278.53442601  .00000102  00000+0  00000+0 0  9991
2 29055   0.7528  82.4106 0003614 117.2324  25.9672  1.00270682 46805
ASTRA 1L                
1 31306U 07016A   26278.33516831 -.00000200  00000+0  00000+0 0  9993
2 31306   1.5998  80.4185 0004804 118.3915 271.3843  1.00271729 46093
ASTRA 4A                
1 32299U 07057A   26278.31850339  .00000016  00000+0  00000+0 0  9996
2 32299   0.0482  54.8523 0002780 157.8525 280.7738  1.00270877 52754
ASTRA 1M                
1 33436U 08057A   26278.07231942  .00000105  00000+0  00000+0 0  9996
2 33436   0.5738  82.3829 0003650 116.3059 220.5361  1.00274282 46831
NSS-9                   
1 33749U 09008A   26278.56691804  .00000056  00000+0  00000+0 0  9996
2 33749   1.5404  81.3193 0002137 107.4544 212.6478  1.00270244 64623
SES-7 (PROTOSTAR 2)     
1 34941U 09027A   26278.58770846 -.00000362  00000+0  00000+0 0  9999
2 34941   0.0528  67.1822 0001824 186.2948  80.6270  1.00269856 63736
NSS-12                  
1 36032U 09058A   26278.61328493  .00000054  00000+0  00000+0 0  9994
2 36032   0.0687  75.2385 0002469  87.2150 129.6303  1.00271266 62020
SES-1                   
1 36516U 10016A   26278.51067922 -.00000131  00000+0  00000+0 0  9990
2 36516   0.0297 283.4750 0002574 275.6317 257.9414  1.00270940 60145
ASTRA 3B                
1 36581U 10021A   26278.60661156  .00000121  00000+0  00000+0 0  9995
2 36581   1.7487  82.0029 0002969  80.1595  94.0278  1.00268533 59975
SES-3                   
1 37748U 11035A   26278.51024589 -.00000118  00000+0  00000+0 0  9997
2 37748   1.6055  81.6473 0002733 135.7575 237.4900  1.00271550 55708
ASTRA 1N                
1 37775U 11041A   26277.82170712  .00000104  00000+0  00000+0 0  9991
2 37775   0.1052  46.5125 0003831 125.7430 156.2892  1.00270003 45622
SES-2                   
1 37809U 11049A   26278.37088527 -.00000212  00000+0  00000+0 0  9991
2 37809   0.3353  86.5278 0002941 112.7775 221.2822  1.00271066 55063
QUETZSAT 1              
1 37826U 11054A   26278.37287861 -.00000258  00000+0  00000+0 0  9998
2 37826   0.0446  45.5852 0002866 162.5918 223.1250  1.00270028 50971
SES-4                   
1 38087U 12007A   26278.38379867  .00000000  00000+0  00000+0 0  9990
2 38087   0.0111  78.3569 0002442 133.1891 278.7053  1.00266641 53339
SES-5                   
1 38652U 12036A   26278.60297155  .00000000  00000+0  00000+0 0  9994
2 38652   0.0126 345.4627 0002239 211.5612  39.3082  1.00271035 45564
ASTRA 2F                
1 38778U 12051A   26278.53624602  .00000133  00000+0  00000+0 0  9990
2 38778   0.0578 254.8850 0004171 315.8011  24.7827  1.00269644 42243
SES-6                   
1 39172U 13026A   26278.38725472 -.00000278  00000+0  00000+0 0  9993
2 39172   0.0346  27.0102 0001989 167.1497 278.8477  1.00271790 48834
O3B FM5                 
1 39188U 13031A   26277.97975206 -.00000026  00000+0  00000+0 0  9993
2 39188   0.0749 312.5070 0002389 229.0945 178.4006  5.00115628242532
O3B FM4                 
1 39189U 13031B   26278.29907406 -.00000026  00000+0  00000+0 0  9997
2 39189   0.0409 359.9758 0004204 162.8706 197.1706  5.00115651242543
O3B FM2                 
1 39190U 13031C   26277.76481010 -.00000025  00000+0  00000+0 0  9997
2 39190   0.0364   6.1579 0002607 183.9658 169.8740  5.00116066242581
O3B PFM                 
1 39191U 13031D   26277.17926481 -.00000024  00000+0  00000+0 0  9998
2 39191   0.0582 336.7506 0004768 187.6342 195.6331  5.00115944242124
ASTRA 2E                
1 39285U 13056A   26278.25119807  .00000134  00000+0  00000+0 0  9996
2 39285   0.0847 308.7673 0002106 241.8907 302.2292  1.00269799 47523
SES-8                   
1 39460U 13071A   26278.54949797 -.00000286  00000+0  00000+0 0  9998
2 39460   0.0227 302.3204 0001757 212.0046 152.7281  1.00269736 45531
ASTRA 5B                
1 39617U 14011B   26278.25024472  .00000120  00000+0  00000+0 0  9995
2 39617   0.0763 305.2588 0003548 270.7137 271.5607  1.00272993 45776
O3B FM3                 
1 40079U 14038A   26278.04556168 -.00000026  00000+0  00000+0 0  9993
2 40079   0.0485 355.5805 0003829 237.4523 126.9350  5.00115770218540
O3B FM7                 
1 40080U 14038B   26278.19160189 -.00000026  00000+0  00000+0 0  9995
2 40080   0.0413 353.1788 0002616 157.3203 209.5184  5.00115602223380
O3B FM6                 
1 40081U 14038C   26278.21855108 -.00000026  00000+0  00000+0 0  9991
2 40081   0.0456 355.3858 0002580 198.2700 166.3399  5.00115772223337
O3B FM8                 
1 40082U 14038D   26278.47161780 -.00000026  00000+0  00000+0 0  9996
2 40082   0.0446 355.0166 0002769 199.5491 165.4290  5.00116129223467
O3B FM10                
1 40348U 14083A   26278.29905697 -.00000026  00000+0  00000+0 0  9994
2 40348   0.0475 346.0046 0002676 206.6355 167.3559  5.00115708215391
O3B FM11                
1 40349U 14083B   26278.31173678 -.00000026  00000+0  00000+0 0  9994
2 40349   0.0527 348.6511 0002119 190.4466 180.9054  5.00115475215426
O3B FM12                
1 40350U 14083C   26278.53853904 -.00000026  00000+0  00000+0 0  9997
2 40350   0.0521 349.4612 0002440 204.9091 165.6255  5.00115962215430
O3B FM9                 
1 40351U 14083D   26277.36600897 -.00000025  00000+0  00000+0 0  9998
2 40351   0.0527 347.2355 0002601 203.7862 168.9757  5.00116047215538
ASTRA 2G                
1 40364U 14089A   26278.25119807  .00000133  00000+0  00000+0 0  9992
2 40364   0.0604  10.8684 0001665  94.1697  27.5681  1.00275104 43073
SES-9                   
1 41380U 16013A   26278.58770847  .00000000  00000+0  00000+0 0  9996
2 41380   0.0120 156.3305 0001410 349.3668 188.4478  1.00268664 38542
SES-10                  
1 42432U 17017A   26278.61838450 -.00000290  00000+0  00000+0 0  9991
2 42432   0.0147  19.6448 0002654 188.7857 321.6067  1.00269469 34865
SES-15                  
1 42709U 17026A   26278.50513253  .00000042  00000+0  00000+0 0  9991
2 42709   0.0339 322.1092 0000783 242.4856 222.3048  1.00273480  8539
SES-11 (ECHOSTAR 105)   
1 42967U 17063A   26278.42475211 -.00000106  00000+0  00000+0 0  9992
2 42967   0.0327 299.0102 0002906 251.2571 231.8173  1.00271413 32824
SES-14                  
1 43175U 18012B   26277.80853373 -.00000294  00000+0  00000+0 0  9997
2 43175   0.0419  26.7023 0001124 170.2543  60.1362  1.00271892  8125
O3B FM15                
1 43231U 18024A   26277.63275638 -.00000025  00000+0  00000+0 0  9998
2 43231   0.0564 356.1657 0002598 199.2332 164.5962  5.00115795156497
O3B FM16                
1 43232U 18024B   26278.48460910 -.00000026  00000+0  00000+0 0  9993
2 43232   0.0595 358.8389 0002580 196.2586 164.8976  5.00116007156464
O3B FM14                
1 43233U 18024C   26278.32556888 -.00000026  00000+0  00000+0 0  9997
2 43233   0.0594   0.2722 0002825 193.0968 166.6262  5.00115782156461
O3B FM13                
1 43234U 18024D   26278.19159675 -.00000026  00000+0  00000+0 0  9996
2 43234   0.0541 341.6714 0000607 150.6425 227.6940  5.00115591156560
SES-12                  
1 43488U 18049A   26278.54949797 -.00000287  00000+0  00000+0 0  9994
2 43488   0.0451  25.6966 0002184 222.8430  58.5271  1.00271550 30528
O3B FM20                
1 44112U 19020A   26277.35220458 -.00000025  00000+0  00000+0 0  9993
2 44112   0.0540 353.6810 0002239 200.7050 165.6107  5.00115685137030
O3B FM19                
1 44113U 19020B   26277.97882320 -.00000026  00000+0  00000+0 0  9995
2 44113   0.0738 337.0556 0002750 190.8158 192.1380  5.00115984136937
O3B FM17                
1 44114U 19020C   26278.45884394 -.00000026  00000+0  00000+0 0  9993
2 44114   0.0521  14.9051 0002579 182.2098 162.8791  5.00115666137046
O3B FM18                
1 44115U 19020D   26278.40522809 -.00000026  00000+0  00000+0 0  9999
2 44115   0.0541 353.3639 0002763 201.9921 164.6383  5.00115404137160
SES-17                  
1 49332U 21095A   26278.61838450 -.00000289  00000+0  00000+0 0  9996
2 49332   0.0321  38.7063 0001054 165.0262 326.1135  1.00271520 18961
SES-22                  
1 52933U 22071A   26278.32274108  .00000088  00000+0  00000+0 0  9990
2 52933   0.0203  96.7598 0000993  95.9574 158.4751  1.00270762  8625
SES-20                  
1 53960U 22123A   26278.51024589 -.00000118  00000+0  00000+0 0  9991
2 53960   0.0423  68.8440 0001449  51.4194 334.5422  1.00272728 14632
SES-21                  
1 53961U 22123B   26278.32338251  .00000052  00000+0  00000+0 0  9991
2 53961   0.0326  64.0646 0001000 120.8094 174.5734  1.00270694  8310
O3B MPOWER F1           
1 54755U 22174A   26278.20335785 -.00000026  00000+0  00000+0 0  9997
2 54755   0.0407 345.1460 0007015 212.0722  18.8014  5.00114374 70869
O3B MPOWER F2           
1 54756U 22174B   26278.04987329 -.00000026  00000+0  00000+0 0  9997
2 54756   0.0386 350.3998 0005459 198.0205 171.5734  5.00115406 70941
SES-18                  
1 55970U 23038A   26278.51024589 -.00000118  00000+0  00000+0 0  9990
2 55970   0.0423 270.7095 0002532 325.7517 218.3328  1.00271647 13200
SES-19                  
1 55971U 23038B   26278.57523809  .00000070  00000+0  00000+0 0  9992
2 55971   0.0195 276.1535 0001589 291.9248 238.3767  1.00272232 13190
O3B MPOWER F4           
1 56367U 23059A   26267.52002965 -.00000018  00000+0  00000+0 0  9996
2 56367   0.0590 342.3109 0007695 196.7885 180.9060  5.00115028 63573
O3B MPOWER F3           
1 56368U 23059B   26278.14739057 -.00000026  00000+0  00000+0 0  9995
2 56368   0.0578 340.8964 0006338 205.7955 173.3024  5.00115417 60232
O3B MPOWER F5           
1 58346U 23175A   26278.44816991 -.00000026  00000+0  00000+0 0  9998
2 58346   0.0618   2.6388 0006492 206.8916 150.4356  5.00115520 54959
O3B MPOWER F6           
1 58347U 23175B   26278.34878291 -.00000026  00000+0  00000+0 0  9999
2 58347   0.0580 355.9450 0004659 206.6681 157.3691  5.00115443 53863
ASTRA 1P (SES-24)       
1 60086U 24115A   26277.67916734  .00000105  00000+0  00000+0 0  9994
2 60086   0.0599   4.7094 0003153 232.7088  39.6745  1.00273919  8296
O3B MPOWER F7           
1 62362U 24244A   26278.41521272 -.00000026  00000+0  00000+0 0  9991
2 62362   0.0550 333.8257 0005677 215.7574 170.4088  5.00115355 32040
O3B MPOWER F8           
1 62363U 24244B   26278.18237203 -.00000026  00000+0  00000+0 0  9994
2 62363   0.0395  38.5103 0005095 146.5377 174.9496  5.00114511 26377
O3B MPOWER F9           
1 64866U 25153A   26278.51541559 -.00000026  00000+0  00000+0 0  9993
2 64866   0.0667 355.1436 0007510 208.9683 155.8556  5.00115148 25082
O3B MPOWER F10          
1 64867U 25153B   26277.88192143 -.00000025  00000+0  00000+0 0  9993
2 64867   0.0623 354.3293 0005402 284.4783  81.1342  5.00114804 27528
