LEMUR-1                 
1 40044U 14033AL  26277.08461136  .00001086  00000+0  12919-3 0  9995
2 40044  97.8033  64.5994 0049310  81.1216 279.5578 14.85579244661631
LEMUR-2-GREENBERG       
1 42837U 17042N   26277.29754139  .00011413  00000+0  34462-3 0  9993
2 42837  97.3865  97.7229 0007538 342.8716  17.2271 15.34394869505107
LEMUR-2-ANDIS           
1 42838U 17042P   26277.23684900  .00016212  00000+0  42197-3 0  9992
2 42838  97.3698  98.2868 0007168 339.0081  21.0869 15.38949304505200
LEMUR-2-MONSON          
1 42839U 17042Q   26277.29291512  .00008129  00000+0  27640-3 0  9996
2 42839  97.4125  97.4982 0005569 337.3814  22.7181 15.30700470504848
LEMUR-2-FURIAUS         
1 42840U 17042R   26277.23110988  .00012192  00000+0  37850-3 0  9998
2 42840  97.3808  95.3700 0007293  41.4236 318.7558 15.33498342504907
LEMUR-2-PETERG          
1 42841U 17042S   26277.28165864  .00018190  00000+0  48511-3 0  9997
2 42841  97.4002 102.8698 0002780 322.0465  38.0584 15.38196523505186
LEMUR-2-DEMBITZ         
1 42842U 17042T   26276.73349010  .00012607  00000+0  39357-3 0  9999
2 42842  97.3846  97.9558 0006004   1.2568 358.8688 15.33320592504967
LEMUR-2-ZACHARY         
1 42845U 17042W   26276.98562518  .00055075  00000+0  65423-3 0  9998
2 42845  97.3512 111.7301 0002159 344.5012  15.6179 15.61003306506119
LEMUR-2-AMANDA-SVANTE   
1 48269U 21034B   26277.17365940  .00028509  00000+0  69641-3 0  9990
2 48269  97.5677 358.8089 0002778 185.2171 174.9046 15.40796665297808
LEMUR-2-EMBRIONOVIS     
1 56970U 23084AQ  26277.18511492  .00009695  00000+0  24439-3 0  9992
2 56970  97.6433  65.8875 0007018 286.6698  73.3777 15.40078180184440
LEMUR-2-DEVERILL-M-T    
1 57391U 23100F   26276.45122353  .00020313  00000+0  43470-3 0  9998
2 57391  99.4348 346.9164 0005194  33.3589 326.7979 15.44861627177931
LEMUR-2-BASS            
1 58259U 23174D   26277.23026784  .00013556  00000+0  27594-3 0  9991
2 58259  97.3791   3.6945 0007368 130.5062 229.6831 15.46362243162191
LEMUR-2-JK0903EM1407    
1 58336U 23174CJ  26277.19986990  .00022834  00000+0  31664-3 0  9998
2 58336  97.3889  11.1557 0004456  84.3904 275.7860 15.57058531162664
LEMUR-2-MJR092620       
1 58340U 23174CN  26277.23425076  .00014541  00000+0  27463-3 0  9999
2 58340  97.3944   9.5471 0006349  86.1792 274.0185 15.48527156162504
LEMUR-2-NIMBUS2000      
1 58899U 24022A   26277.02725948  .00017622  00000+0  38553-3 0  9994
2 58899  97.3966 128.6637 0009532  85.1820 275.0516 15.44157945149046
LEMUR-2-VALHALLA        
1 58900U 24022B   26277.02420969  .00011375  00000+0  26333-3 0  9994
2 58900  97.3968 128.4960 0010228  81.8613 278.3794 15.42568394149030
LEMUR-2-CAEL            
1 58903U 24022E   26277.06278324  .00012852  00000+0  28237-3 0  9993
2 58903  97.3944 129.6800 0008540  67.1657 293.0492 15.44115871149121
LEMUR-2-JOHNNYTRUONG    
1 59146U 24043BA  26277.19026382  .00043995  00000+0  37655-3 0  9991
2 59146  97.5453  76.4309 0003362 141.6749 218.4752 15.69330437145083
LEMUR-2-TOMATOKECHUP    
1 60471U 24149D   26277.02280106  .00007793  00000+0  21067-3 0  9995
2 60471  97.3731 359.4612 0002008 156.5925 203.5412 15.38002132118881
LEMUR-2-STELLA          
1 60533U 24149BT  26277.01825335  .00007201  00000+0  40253-3 0  9994
2 60533  97.6676   0.0742 0001405  91.1911 268.9481 15.13796777116958
LEMUR-2-MARHISYAM       
1 60536U 24149BW  26277.24420053  .00006621  00000+0  37844-3 0  9997
2 60536  97.6821   0.8451 0003092 108.6083 251.5484 15.13027075116966
LEMUR-2-AHMED-ASRAR     
1 60576U 24149DN  26276.96499120  .00007143  00000+0  38892-3 0  9994
2 60576  97.6956   3.1095 0001663  27.2467 332.8851 15.14742554117029
LEMUR-2-LLOYD           
1 60577U 24149DP  26277.23879806  .00006557  00000+0  39665-3 0  9996
2 60577  97.6680 358.5277 0004679 128.6354 231.5295 15.10976281116853
LEMUR-2-SQUIRRELCOMM    
1 60578U 24149DQ  26277.16593431  .00003668  00000+0  24138-3 0  9995
2 60578  97.6645 357.7721 0006144  51.3638 308.8139 15.08170688116822
LEMUR-2-SIERRINI        
1 60579U 24149DR  26276.62209603  .00007034  00000+0  40328-3 0  9991
2 60579  97.6781 359.8153 0005657 154.1427 206.0087 15.12885708116846
LEMUR-2-WILSON          
1 62694U 25009CP  26277.16644855  .00001558  00000+0  14568-3 0  9991
2 62694  97.6947 353.6963 0004129  54.0743 306.0860 14.95529954 93643
LEMUR-2-STAR-FOX        
1 62696U 25009CR  26277.19874299  .00004062  00000+0  30047-3 0  9996
2 62696  97.6854 358.0569 0003176  97.5368 262.6219 15.03736995 93931
LEMUR-2-ARIANNA         
1 62699U 25009CU  26277.19665633  .00003671  00000+0  27200-3 0  9991
2 62699  97.6792 357.7457 0003355 106.0569 254.1026 15.03734879 93936
LEMUR-2-ALISIA          
1 62706U 25009DB  26277.15078513  .00004793  00000+0  35024-3 0  9990
2 62706  97.6899 358.6556 0002217 180.2223 179.9003 15.04116897116536
LEMUR-2-ROUNDTRIPPER    
1 62711U 25009DG  26277.23033034  .00004644  00000+0  32929-3 0  9990
2 62711  97.7186 359.8294 0004931 123.2547 236.9153 15.05263170 94022
LEMUR-2-MYNAMEISJEFF    
1 62712U 25009DH  26277.16240843  .00004871  00000+0  34537-3 0  9990
2 62712  97.7238   0.2106 0003395 146.2171 213.9272 15.05240588 94015
LEMUR-2-LEIA-PHILIP     
1 63246U 25052AN  26277.25477131  .00002479  00000+0  21651-3 0  9998
2 63246  97.6677 167.2935 0002648 192.8720 167.2435 14.97694608 84999
LEMUR-2-LIA-MARTIN      
1 63248U 25052AQ  26277.14045042  .00001633  00000+0  14127-3 0  9991
2 63248  97.6727 167.8540 0002692 150.0080 210.1297 14.98548567 84996
LEMUR-2-DELOITTE-1      
1 63259U 25052BB  26277.26985685  .00001678  00000+0  14617-3 0  9995
2 63259  97.6768 168.3100 0003097  83.0533 277.1041 14.98227032 85025
LEMUR-2-EMERSONROSE     
1 63261U 25052BD  26277.26919071  .00001811  00000+0  15136-3 0  9990
2 63261  97.6773 169.0919 0004805  44.3244 315.8363 14.99754117 85080
LEMUR-2-MARACHE-FRAN    
1 63262U 25052BE  26277.23367521  .00003039  00000+0  24323-3 0  9997
2 63262  97.6632 169.4697 0010325  10.9284 349.2162 15.00886887 85114
LEMUR-2-THEFALCONER     
1 63264U 25052BG  26275.97925782  .00001332  00000+0  11822-3 0  9991
2 63264  97.6698 166.5352 0002515  43.5532 316.5889 14.97833748 84827
LEMUR-2-UNTITLED-SC     
1 63351U 25061A   26277.15454460  .00002170  00000+0  12246-3 0  9992
2 63351  97.5779 251.8497 0016804 247.6216 112.3235 15.14125130 84076
LEMUR-2-ESPERANZA       
1 63352U 25061B   26277.19040716  .00002025  00000+0  11422-3 0  9996
2 63352  97.5786 252.0056 0016435 246.5726 113.3777 15.14226655 84080
LEMUR-2-KREMPEL-BRO2    
1 63353U 25061C   26277.18594034  .00002186  00000+0  12146-3 0  9995
2 63353  97.5832 252.6740 0017414 238.3260 121.6274 15.14672019 84105
LEMUR-2-THERMORAPTOR    
1 63354U 25061D   26277.29422266  .00002428  00000+0  13419-3 0  9998
2 63354  97.5837 252.8784 0017126 236.4124 123.5473 15.14756995 84129
LEMUR-2-NEUROSPICY      
1 63355U 25061E   26276.92719701  .00002271  00000+0  12545-3 0  9996
2 63355  97.5764 252.0548 0014962 241.3781 118.5947 15.14872524 84079
LEMUR-2-TILLINFINITY    
1 63356U 25061F   26277.18385844  .00002063  00000+0  11231-3 0  9993
2 63356  97.5749 252.6791 0016349 227.1877 132.7981 15.15479330 84141
LEMUR-2-KREMPEL-BRO1    
1 63357U 25061G   26277.17179547  .00002217  00000+0  12109-3 0  9990
2 63357  97.5751 252.5516 0016970 228.7185 131.2587 15.15275753 84136
LEMUR-2-LANGER2SPACE    
1 63358U 25061H   26277.15449277  .00002241  00000+0  12354-3 0  9998
2 63358  97.5756 252.3036 0014868 238.7873 121.1903 15.14959874 84116
LEMUR-2-BALTO           
1 63395U 25052BH  26277.28417099  .00002334  00000+0  18825-3 0  9992
2 63395  97.6605 169.5728 0008145  72.9324 287.2791 15.00827707 85123
LEMUR-2-KRISH           
1 64561U 25135AK  26277.25294818  .00002722  00000+0  24154-3 0  9992
2 64561  97.7824  31.4956 0001178 106.8387 253.2964 14.97024839 70239
LEMUR-2-HUBBLE-4        
1 64565U 25135AP  26277.26507156  .00001136  00000+0  11286-3 0  9999
2 64565  97.7785  29.9676 0001089 304.5454  55.5663 14.93653927 70155
LEMUR-2-SEJONG-2        
1 64586U 25135BL  26277.31670179  .00002352  00000+0  20711-3 0  9998
2 64586  97.7771  31.7059 0003639 331.1110  28.9910 14.97443977 70275
LEMUR-2-HUBBLE-5        
1 64840U 25135BT  26277.30784943  .00000578  00000+0  59043-4 0  9994
2 64840  97.7807  30.7769 0004993 349.5733  10.5382 14.94400310 70207
LEMUR-2-KARENDARRELL    
1 64841U 25135BU  26277.26056809  .00004696  00000+0  36806-3 0  9999
2 64841  97.7887  33.5271 0009997 191.3806 168.7194 15.01438886 70371
LEMUR-2-LUCILLE-ROSE    
1 65403U 25135BV  26277.30120338  .00003656  00000+0  28776-3 0  9990
2 65403  97.7611  33.4524 0012675 279.0932  80.8858 15.01402707 65000
LEMUR-2-AFFIE-WAUWIE    
1 66295U 25248C   26276.63925727  .00014265  00000+0  47923-3 0  9998
2 66295  45.3916 245.7171 0006249 351.9660   8.1130 15.30814646 51193
OTTER SDM               
1 66678U 25276N   26277.17643423  .00003778  00000+0  17412-3 0  9991
2 66678  97.4112 348.8712 0005096 353.5858   6.5312 15.20868985 46974
LEMUR-2-STAS-GORBUK     
1 66686U 25276W   26277.15717450  .00003484  00000+0  16336-3 0  9998
2 66686  97.4147 348.8825 0004442 353.9156   6.2025 15.20326843 46964
LEMUR-2-TEODOR          
1 66768U 25276DG  26277.15189680  .00003306  00000+0  14777-3 0  9997
2 66768  97.4054 349.2552 0002220 107.7621 252.3858 15.22022634 47016
LEMUR-2-LAILA           
1 66776U 25276DQ  26277.17509396  .00003298  00000+0  14638-3 0  9994
2 66776  97.4077 349.4699 0002410 124.2240 235.9225 15.22260503 47021
LEMUR-2-CELIJO-SB-PK    
1 66781U 25276DV  26277.13241242  .00004071  00000+0  32298-3 0  9991
2 66781  97.5152 344.3114 0003723 121.6977 238.4611 15.01050022 38964
LEMUR-2-FINNIAN         
1 66782U 25276DW  26277.15894542  .00003017  00000+0  23986-3 0  9994
2 66782  97.5171 344.7571 0009667  93.7331 266.4999 15.01128754 36341
LEMUR-2-STARLIGHT       
1 66783U 25276DX  26277.00339484  .00003664  00000+0  29832-3 0  9992
2 66783  97.5142 343.9277 0018493 117.3343 242.9766 14.99985684 46506
LEMUR-2-TARTIFLETTE     
1 66784U 25276DY  26277.26887253  .00003835  00000+0  31227-3 0  9994
2 66784  97.5139 344.1935 0017357 123.0838 237.2055 14.99971893 46547
LEMUR-2-VUKASIN         
1 66785U 25276DZ  26277.17644954  .00002776  00000+0  22125-3 0  9994
2 66785  97.4991 344.5029 0005918  92.1809 268.0094 15.01120145 46494
LEMUR-2-HOTSPUR-TOM     
1 66786U 25276EA  26277.13454330  .00004065  00000+0  33124-3 0  9992
2 66786  97.5123 344.0143 0017838 120.9935 239.3044 14.99907030 46453
LEMUR-2-MYRA            
1 66787U 25276EB  26277.14008711  .00004295  00000+0  33820-3 0  9990
2 66787  97.5351 344.5786 0017459 137.6686 222.5890 15.01197768 46559
LEMUR-2 FIKRETDENGIZ    
1 67363U 26004A   26276.95548561  .00002199  00000+0  23954-3 0  9999
2 67363  97.8099 273.9407 0009637 134.1893 226.0118 14.88987598 39464
TWILIGHT-1 OBJECT B     
1 67364U 26004B   26277.24117174  .00000900  00000+0  10401-3 0  9996
2 67364  97.8143 274.1588 0009792 125.1291 235.0844 14.87999602 39501
LEMUR-2-MARIO-SOUSA     
1 67365U 26004C   26277.25956346  .00001635  00000+0  17876-3 0  9999
2 67365  97.8066 274.2302 0009240 133.5979 226.6006 14.89178947 39526
LEMUR-2-SONNENBLUME     
1 67367U 26004E   26276.94604469  .00001419  00000+0  15745-3 0  9995
2 67367  97.8066 273.8481 0008856 136.4202 223.7717 14.88770614 39473
LEMUR-2-WOBLER          
1 67368U 26004F   26277.25400632  .00001982  00000+0  21561-3 0  9995
2 67368  97.8120 274.3956 0009221 125.7018 234.5059 14.89157518 39529
LEMUR-2-GRAM-E-SUE      
1 67370U 26004H   26277.25479176  .00001870  00000+0  20454-3 0  9993
2 67370  97.8053 274.1744 0008021 136.0002 224.1855 14.88997729 39529
LEMUR-2-KATIE           
1 67387U 26004AA  26277.25113299  .00002306  00000+0  24016-3 0  9995
2 67387  97.8110 275.0005 0004559  91.2067 268.9673 14.90784454 39555
LEMUR-2-HCS-BAZUS       
1 67388U 26004AB  26277.24967243  .00002143  00000+0  22369-3 0  9999
2 67388  97.8097 274.9640 0004204  87.0021 273.1678 14.90771561 39551
