TDRS 3                  
1 19548U 88091B   26276.23012117 -.00000304  00000+0  00000+0 0  9999
2 19548  12.5226 340.2797 0039157 350.5452  75.0524  1.00266750126478
HST                     
1 20580U 90037B   26278.60926918  .00005367  00000+0  16224-3 0  9998
2 20580  28.4730  45.2343 0001350 311.4338  48.6142 15.31833640805512
TDRS 5                  
1 21639U 91054B   26278.25560126  .00000074  00000+0  00000+0 0  9991
2 21639  14.0588 352.9530 0009821 253.2308  52.1267  1.00270320128817
TDRS 6                  
1 22314U 93003B   26277.05460726 -.00000303  00000+0  00000+0 0  9996
2 22314  14.1861 356.2372 0009852 206.5893 143.7204  1.00268027123496
TDRS 7                  
1 23613U 95035B   26277.91046801 -.00000248  00000+0  00000+0 0  9993
2 23613  13.2928 347.4252 0010178  98.5010 344.5639  1.00268075114356
ISS (ZARYA)             
1 25544U 98067A   26278.49823670  .00005123  00000+0  10196-3 0  9994
2 25544  51.6314 114.1795 0006877 225.7345 134.3079 15.48742155588859
TERRA                   
1 25994U 99068A   26278.62401265  .00000201  00000+0  49875-4 0  9991
2 25994  97.9334 323.7261 0001294 207.5380 267.1382 14.61170134425739
TDRS 8                  
1 26388U 00034A   26278.33361844 -.00000205  00000+0  00000+0 0  9997
2 26388  12.8557  30.3673 0001486 155.5137  32.9722  1.00276754 96287
TIMED                   
1 26998U 01055B   26278.59460225  .00000791  00000+0  74989-4 0  9990
2 26998  74.0698  12.6765 0001234 226.3377 133.7705 14.95491208347325
AQUA                    
1 27424U 02022A   26278.57180598  .00000476  00000+0  10424-3 0  9993
2 27424  98.4430 250.1415 0001072  63.1337   1.4504 14.62223103299402
SORCE                   
1 27651U 03004A   26278.50103269  .00001791  00000+0  13725-3 0  9997
2 27651  39.9924 352.0453 0016303 125.9093 234.3217 15.04191660288512
AURA                    
1 28376U 04026A   26278.63049981  .00000484  00000+0  10757-3 0  9991
2 28376  98.3557 236.0767 0001126  68.6587 291.4733 14.61462156182349
SWIFT                   
1 28485U 04047A   26278.04889169  .00298419  00000+0  10112-2 0  9991
2 28485  20.5502  48.5391 0004915  78.1986 281.9015 15.87831814204212
THEMIS A                
1 30580U 07004A   26277.63000312 -.00000250  00000+0  00000+0 0  9992
2 30580   9.4568 100.1687 8327992 220.5931  32.4445  0.87844163 42240
THEMIS D                
1 30797U 07004D   26277.97767678 -.00000295  00000+0  00000+0 0  9993
2 30797   8.2984  73.8003 8300181 249.1903  19.1683  0.87844326 42049
THEMIS E                
1 30798U 07004E   26276.04925148 -.00000370  00000+0  00000+0 0  9993
2 30798   7.1963  89.8394 8412931 236.8138  17.1433  0.87839554 66870
FGRST (GLAST)           
1 33053U 08029A   26278.34504675  .00002554  00000+0  87690-4 0  9991
2 33053  25.5809 159.3072 0007966 185.1726 174.8730 15.24438298 12515
TDRS 11                 
1 39070U 13004A   26278.54441873  .00000066  00000+0  00000+0 0  9998
2 39070   3.6907  32.8542 0002604  36.7231 326.2947  1.00275624 47803
TDRS 12                 
1 39504U 14004A   26278.23741799 -.00000283  00000+0  00000+0 0  9999
2 39504   4.0953  20.7583 0006722 225.0091 172.5994  1.00276623 45389
GPM-CORE                
1 39574U 14009C   26278.64252363  .00005158  00000+0  11312-3 0  9997
2 39574  64.9699 297.9837 0010779 269.1226  90.8680 15.45230340714875
MMS 1                   
1 40482U 15011A   26278.66668981 -.00001518  00000+0  00000+0 0  9995
2 40482  73.0186 347.5143 8240323 169.8836  48.1123  0.28321738  1357
MMS 2                   
1 40483U 15011B   26278.66668981 -.00001519  00000+0  00000+0 0  9997
2 40483  73.0242 347.5124 8243227 169.8862  48.0819  0.28319768  1367
MMS 3                   
1 40484U 15011C   26278.66668981 -.00001519  00000+0  00000+0 0  9998
2 40484  73.0225 347.5252 8241542 169.8933  48.0615  0.28321654  1347
MMS 4                   
1 40485U 15011D   26278.66668981 -.00001519  00000+0  00000+0 0  9999
2 40485  73.0164 347.5086 8241724 169.9050  48.0497  0.28319750  1362
TDRS 13                 
1 42915U 17047A   26278.59967821 -.00000114  00000+0  00000+0 0  9997
2 42915   3.4937   5.3761 0012426 125.4430  87.9336  1.00271111 33450
NOAA 20 (JPSS-1)        
1 43013U 17073A   26278.59376787  .00000052  00000+0  45564-4 0  9990
2 43013  98.7851 217.1046 0000710  30.5075 329.6142 14.19529192460134
