NIMIQ 2                 
1 27632U 02062A   26278.42727028 -.00000080  00000+0  00000+0 0  9994
2 27632   9.6972  55.6978 0005664 137.4059 225.6514  1.00270893 45290
ANIK F2                 
1 28378U 04027A   26278.41625709 -.00000064  00000+0  00000+0 0  9999
2 28378   3.5649  77.9846 0003026 105.6080 229.2754  1.00271533 42367
ANIK F1R                
1 28868U 05036A   26278.41556279 -.00000089  00000+0  00000+0 0  9996
2 28868   4.5897  75.1432 0002322  73.7975 267.4709  1.00271372 47555
ANIK F3                 
1 31102U 07009A   26278.57844477 -.00000017  00000+0  00000+0 0  9991
2 31102   1.4770  82.3186 0002660 109.3632 272.1325  1.00270829 47679
NIMIQ 4                 
1 33373U 08044A   26278.58572480 -.00000238  00000+0  00000+0 0  9991
2 33373   0.0706  83.4375 0002326  91.1707 328.5452  1.00272593 66091
TELSTAR 11N             
1 34111U 09009A   26278.34072322 -.00000267  00000+0  00000+0 0  9990
2 34111   0.0405  81.7390 0002646 119.6180 257.7935  1.00271428 47355
TERRESTAR-1             
1 35496U 09035A   26278.42475211 -.00000069  00000+0  00000+0 0  9999
2 35496   5.2530  48.6333 0001820 121.5992 245.7910  1.00270432 63243
NIMIQ 5                 
1 35873U 09050A   26278.61838450 -.00000274  00000+0  00000+0 0  9992
2 35873   0.0432  80.4748 0002811 115.1482 328.6104  1.00271241 62451
SKYTERRA 1              
1 37218U 10061A   26278.41283440 -.00000131  00000+0  00000+0 0  9994
2 37218   5.3587  50.5754 0002742 133.3394 237.4970  1.00271085 58300
NIMIQ 6                 
1 38342U 12026A   26278.37010527 -.00000190  00000+0  00000+0 0  9990
2 38342   0.0437  64.1061 0002964 136.5352 215.5603  1.00270648 51523
ANIK G1                 
1 39127U 13014A   26278.50946589 -.00000091  00000+0  00000+0 0  9991
2 39127   0.0448  80.5741 0003213 129.7443 239.9916  1.00271565 49351
TELSTAR 12V             
1 41036U 15068A   26278.59889821  .00000000  00000+0  00000+0 0  9997
2 41036   0.0222 194.4177 0002173   3.9099  16.5576  1.00269621 39737
VIASAT-2                
1 42740U 17029A   26278.37426528 -.00000282  00000+0  00000+0 0  9999
2 42740   0.0161 246.2508 0001347 280.3638 272.2662  1.00271441 34294
LEO 1 (LEO VANTAGE 1)   
1 43113U 18004C   26278.38639854  .00001785  00000+0  12652-3 0  9995
2 43113  99.2438 211.1152 0349169 100.9770 263.0912 14.68330253453659
TELSTAR 19V             
1 43562U 18059A   26278.51804593 -.00000297  00000+0  00000+0 0  9990
2 43562   0.0201 200.2038 0002333 357.6260 299.8673  1.00270546 30259
TELSTAR 18V             
1 43611U 18069A   26278.48675911 -.00000311  00000+0  00000+0 0  9999
2 43611   0.0181 251.9398 0001942 309.1870 126.2847  1.00271331 29748
AMOS-17                 
1 44479U 19050A   26277.96381005  .00000093  00000+0  00000+0 0  9999
2 44479   0.0423   5.3572 0001648 194.1579 178.1180  1.00270065 26281
