APRIZESAT 2             
1 28366U 04025A   26278.42804017  .00000108  00000+0  47091-4 0  9990
2 28366  98.1147  78.2542 0104254 277.4293  81.5058 14.38072161167481
SAUDICOMSAT 1           
1 28369U 04025D   26278.55782096  .00000192  00000+0  55083-4 0  9992
2 28369  98.5784 291.6815 0032964  46.9266 313.4681 14.55535634180185
SAUDICOMSAT 2           
1 28370U 04025E   26278.53341264  .00000137  00000+0  47529-4 0  9995
2 28370  98.6639 293.9018 0054383 285.5837  73.9357 14.50032520176095
APRIZESAT 1             
1 28372U 04025G   26278.56655929  .00000115  00000+0  40326-4 0  9990
2 28372  98.6313 292.3086 0044591 178.1106 182.0265 14.51824825177921
NANOSAT-1               
1 28493U 04049B   26278.35188205  .00000678  00000+0  96229-4 0  9992
2 28493  98.2440  57.8258 0002927 310.5854  49.5102 14.80337109171743
SAUDICOMSAT 7           
1 31119U 07012C   26278.46596194  .00000291  00000+0  61285-4 0  9991
2 31119  98.3930 254.9425 0054867 209.8447 149.9624 14.66215606 38591
SAUDICOMSAT 6           
1 31121U 07012E   26278.36989348  .00000431  00000+0  91961-4 0  9990
2 31121  98.4255 248.0208 0071370 344.8449  15.0613 14.62650256 36294
SAUDICOMSAT 5           
1 31124U 07012H   26278.48967525  .00000344  00000+0  67813-4 0  9991
2 31124  98.3640 255.6934 0048108 137.4152 223.0798 14.68271106 39785
SAUDICOMSAT 3           
1 31125U 07012J   26278.19061796  .00000531  00000+0  94561-4 0  9993
2 31125  98.3293 255.9267 0040224  64.9695 295.5679 14.70837785 40990
SAUDICOMSAT 4           
1 31127U 07012L   26278.49196906  .00000324  00000+0  69461-4 0  9991
2 31127  98.4137 253.3963 0062006 274.0372  85.3744 14.64611853 37435
APRIZESAT 4             
1 35684U 09041D   26278.50309841  .00000332  00000+0  46372-4 0  9998
2 35684  98.1327 355.9740 0042331 325.1793  34.6652 14.84007643927724
APRIZESAT 3             
1 35686U 09041F   26278.43340680  .00000709  00000+0  65903-4 0  9997
2 35686  98.2207  77.0672 0062239  63.5136 297.2450 14.96497552932862
S-NET D                 
1 43186U 18014G   26278.60889406  .00004348  00000+0  22005-3 0  9992
2 43186  97.5240 182.7004 0008165   8.8150 351.3225 15.17523999475508
S-NET B                 
1 43187U 18014H   26278.55666609  .00004016  00000+0  20367-3 0  9996
2 43187  97.5248 182.6381 0008651   3.6602 356.4693 15.17491175475492
S-NET A                 
1 43188U 18014J   26278.47528061  .00004372  00000+0  22115-3 0  9995
2 43188  97.5257 182.7878 0008560   4.6533 355.4779 15.17532196475480
S-NET C                 
1 43189U 18014K   26278.62715541  .00004321  00000+0  21889-3 0  9995
2 43189  97.5275 183.0303 0009642 355.2266   4.8874 15.17482121474053
SALSAT                  
1 46495U 20068K   26278.57211251  .00006483  00000+0  21820-3 0  9999
2 46495  97.8888 288.4997 0007565 275.7985  84.2392 15.31144676332241
OOV-CUBE (TUBSAT-30)    
1 60240U 24128F   26278.49560419  .00001124  00000+0  97666-4 0  9997
2 60240  61.9942 200.8143 0028772 159.7183 200.5059 15.03152692122698
LPNTSAT-001 (IOD-1)     
1 68408U 26065A   26278.63117963  .00001806  00000+0  89354-4 0  9993
2 68408  97.3825 156.7249 0015818 345.0649  15.0116 15.18989039 29020
CHUANG XIN 26 (CX-26)   
1 69972U 26158A   26278.30958718  .00000030  00000+0  80238-4 0  9998
2 69972  49.9835 293.8651 0005189 234.2686 125.7745 14.25134272 12411
